<?xml version="1.0" encoding="utf-8" ?>
<kml xmlns="http://www.opengis.net/kml/2.2">
<Document id="root_doc">
<Schema name="Tracks" id="Tracks">
	<SimpleField name="id" type="string"></SimpleField>
	<SimpleField name="timestamp" type="string"></SimpleField>
	<SimpleField name="begin" type="string"></SimpleField>
	<SimpleField name="end" type="string"></SimpleField>
	<SimpleField name="altitudeMode" type="string"></SimpleField>
	<SimpleField name="tessellate" type="int"></SimpleField>
	<SimpleField name="extrude" type="int"></SimpleField>
	<SimpleField name="visibility" type="int"></SimpleField>
	<SimpleField name="drawOrder" type="int"></SimpleField>
	<SimpleField name="icon" type="string"></SimpleField>
	<SimpleField name="snippet" type="string"></SimpleField>
</Schema>
<Folder><name>Tracks</name>
  <Placemark id="Tracks.1">
	<name>Catalunya_left_2022</name>
	<description>&amp;nbsp;</description>
	<Style><LineStyle><color>FFEC00FC</color><width>2.7</width></LineStyle><PolyStyle><fill>0</fill></PolyStyle></Style>
	<ExtendedData><SchemaData schemaUrl="#Tracks">
		<SimpleData name="altitudeMode">clampToGround</SimpleData>
		<SimpleData name="tessellate">1</SimpleData>
		<SimpleData name="extrude">0</SimpleData>
		<SimpleData name="visibility">-1</SimpleData>
		<SimpleData name="snippet"></SimpleData>
	</SchemaData></ExtendedData>
      <LineString><coordinates>2.263191084529,41.572265344634,122.155 2.26185868209501,41.5706778559009,123.827 2.26128004045165,41.5699897967879,120 2.26115243552063,41.5698382805312,120 2.26064141024821,41.569229076478,120.069 2.25996829138666,41.5684297035796,113.922 2.25920695573726,41.5675229214889,118.008 2.25836695284741,41.5665247397081,111 2.25829995281833,41.5664314493111,110.982 2.25825583444547,41.5663780724615,111.039 2.25820963646201,41.5663229744811,111.237 2.25812464071995,41.5662200060491,111.608 2.25804981120331,41.566130697969,111.929 2.25790889636657,41.5659637012392,112.531 2.25780228813956,41.5658363698147,112.989 2.25716363883862,41.5650788842417,114.909 2.25694305100604,41.5648166111952,113.345 2.25689363881368,41.564766604393,113.343 2.25683035984182,41.5647084259313,113.341 2.25676342413864,41.5646636245241,113.303 2.25668114315295,41.5646233982269,113.255 2.25663015463407,41.5646055850973,113.402 2.25649752903192,41.5645783672584,114.204 2.2563718478008,41.5645756152258,115.061 2.25623686144503,41.5645974303576,115.547 2.25617293275117,41.5646160549405,115.777 2.25604390279024,41.5646717351096,115.56 2.25593080147222,41.5647263481893,114.711 2.2558655546746,41.5647559490154,114.339 2.25581625459188,41.5647774749806,114.187 2.25574301911668,41.5648044908068,114.2 2.2556535499564,41.5648266705187,114.133 2.25559977370331,41.564833922575,114.064 2.25553053879196,41.5648390060641,114.128 2.25548730359166,41.5648392503763,114.349 2.25548679374118,41.5648398028272,114.352 2.25543732677432,41.5648379324905,114.603 2.25538113949771,41.5648327843322,114.878 2.25533025237851,41.5648243597814,115.109 2.25527460709391,41.5648111095657,115.343 2.25523118893244,41.5647984263223,115.61 2.25517886820473,41.5647780257337,115.913 2.25512185265525,41.5647515938556,116.228 2.25505194480057,41.5647169361682,116.622 2.2549795259893,41.5646805181772,117.17 2.25475076854147,41.5645553316739,119.873 2.25435474751422,41.5643390211244,124.323 2.2542273892107,41.5642774547196,124.781 2.25406789061603,41.5642194891405,125.068 2.25395021805699,41.5641860845028,125.054 2.25382073632136,41.5641609001639,124.775 2.25371264054822,41.5641475597821,124.434 2.25355826725064,41.5641381377877,123.742 2.25342749583832,41.5641428407079,122.82 2.25332102850601,41.5641525768332,122.055 2.25319681199991,41.5641711303781,121.565 2.25310137908402,41.5641928405675,121.526 2.2530150415993,41.5642168678343,121.816 2.25292901922426,41.5642453073224,122.33 2.25285541173121,41.5642742288009,122.711 2.25277856342947,41.5643096862348,123.03 2.25270605103163,41.5643460540159,123.383 2.25261944477022,41.5643983775225,123.763 2.25254769085621,41.5644494916737,124.039 2.25250545146157,41.5644822262678,124.275 2.25245754204476,41.5645242782893,124.684 2.25241262729018,41.5645675181975,125.061 2.25237875848562,41.564603557919,125.332 2.2523460815545,41.5646410930946,125.578 2.25231386917226,41.564681003701,125.803 2.25227454436363,41.564736261311,126.041 2.252238022071,41.5647920309689,126.237 2.25220088334814,41.5648560954098,126.522 2.25216650034262,41.564927223278,126.791 2.25212786648716,41.5650266865002,126.904 2.25210284583072,41.5651150147424,126.586 2.25209218129134,41.5651697744659,126.389 2.25208290276082,41.5652332335342,126.16 2.25207632269637,41.5653345884209,126.205 2.25207922607992,41.5654720437656,126.699 2.25208840872784,41.565565868407,126.982 2.25210303935286,41.5656593672935,126.84 2.252102586949,41.5656594470161,126.839 2.25212575610192,41.5657641509308,126.739 2.25214706503817,41.5658441410748,126.68 2.25217781971486,41.5659335305932,126.422 2.25221534060313,41.5660282220097,126.256 2.2522764371156,41.5661598840245,126.322 2.25232551121327,41.5662495547457,126.373 2.25237748284587,41.5663323022801,126.228 2.25243859336207,41.5664182449897,125.894 2.25253599254583,41.5665424193093,125.505 2.25261432122222,41.5666421584898,125.125 2.25266734965254,41.5667129877286,125.334 2.25271734499033,41.5667728301929,125.764 2.25309765087846,41.5672259975014,130.301 2.25377084682458,41.5680264910931,130.105 2.25384216413246,41.5681107221157,129.735 2.25392237342477,41.5681935141988,129.744 2.25398032756148,41.568260652658,130.077 2.25404194866988,41.5683169990378,130.647 2.25408958006862,41.5683536339735,131.241 2.2541539104301,41.568392051254,132.074 2.2542134889929,41.568420192994,132.534 2.25427809942515,41.5684438267611,132.959 2.25435926863244,41.5684650257979,133.496 2.25443323493982,41.568478172409,133.981 2.25452599809995,41.5684878474105,134.536 2.2546138132055,41.5684886946042,134.997 2.25468415984204,41.5684842888639,135.344 2.25474336484917,41.5684746669688,135.546 2.25479991256806,41.5684623449183,135.614 2.2548505836445,41.5684472277547,135.683 2.2548932754538,41.5684323342495,135.753 2.25495951731736,41.5684052632373,135.892 2.25502309133261,41.5683729127542,135.929 2.2550672899466,41.5683468477547,135.77 2.2551147145264,41.5683152558226,135.614 2.25516754636021,41.5682761221757,135.521 2.25520097592653,41.568248335044,135.498 2.25524298610446,41.5682075373599,135.521 2.25528798944348,41.568158067613,135.594 2.25532384575428,41.568110916316,135.635 2.25536206870296,41.5680517253825,135.71 2.25539441093759,41.5679857322713,135.831 2.25541936428277,41.567917128389,135.989 2.25543478684297,41.5678542881861,136.159 2.25544553562868,41.5677828919139,136.378 2.25545278638569,41.5677057643674,136.111 2.25545257926445,41.5676523342102,135.919 2.25544887794404,41.5675829415184,135.683 2.25543562112178,41.5675065005985,135.455 2.25541519122327,41.5674320726793,135.258 2.25538968940073,41.5673584753632,134.989 2.25534919367326,41.5672648192142,134.485 2.25531210901502,41.5671926829919,134.004 2.25528500595024,41.5671498332359,133.759 2.25519435126249,41.567037336795,133.635 2.25491675801966,41.5667074753052,132.338 2.25482465156134,41.566613443953,131.425 2.25474648517473,41.5665216236688,130.434 2.25441752928111,41.566131519212,130.291 2.25431255752958,41.5660049787949,130.479 2.25419894538377,41.5658728210731,130.178 2.25416705345055,41.5658356273815,130.022 2.25414235792619,41.56580368627,129.582 2.25412138048048,41.5657760237537,129.232 2.25409959511509,41.565745907355,128.896 2.25408166322282,41.5657164117113,128.588 2.25407257734431,41.5656962245868,128.372 2.25406581567595,41.5656752684181,128.138 2.25405935269534,41.5656427187959,127.751 2.25405941367674,41.5656165431542,127.388 2.25406385066593,41.5655834542603,126.871 2.25407249818477,41.565551968787,126.373 2.25408426690809,41.5655287032838,126.323 2.25409647657193,41.5655087679752,126.262 2.25411385008192,41.5654868251405,126.161 2.25413468091082,41.5654649992783,126.038 2.25416411505055,41.5654429233301,125.84 2.25420250212317,41.565418968802,125.922 2.25423514003362,41.5654025481984,125.941 2.2542684036544,41.5653892573414,125.906 2.25429998316425,41.5653807072399,125.833 2.25434215315165,41.5653731019864,125.701 2.25438285526763,41.5653697497814,125.554 2.25443366615634,41.5653694632901,125.369 2.25449503641774,41.5653760497443,125.172 2.25454492951913,41.5653891542267,125.039 2.25460769216103,41.5654019581775,124.859 2.25468547316215,41.5654278169991,124.672 2.25490558518524,41.5655009179395,123.483 2.25508014196199,41.5655592386123,122.721 2.25604164677576,41.565881143341,115.672 2.25616426889582,41.5659312158982,115.352 2.25621855181148,41.5659542977962,115.435 2.25635779423195,41.5660193170169,115.67 2.25646252128596,41.5660729766788,115.899 2.25662470000987,41.5661710899257,116.033 2.25674345096017,41.5662548116717,115.857 2.2568771697086,41.5663617724978,115.316 2.2569747075987,41.5664501578404,115.112 2.25705089587687,41.5665257495381,115.109 2.25717562509876,41.5666681848111,115.181 2.25757123210418,41.5671269736568,114.056 2.25761789434425,41.5671954023286,114.014 2.25766737869656,41.5672601578174,113.931 2.25769330977185,41.5673039276513,113.902 2.25770877848882,41.5673499984881,113.957 2.25771564879956,41.5673896254342,114.05 2.25771407104066,41.5674296738975,114.206 2.2577038223205,41.5674716697842,114.43 2.257689880575,41.5675081507895,114.702 2.25766729899588,41.5675448930755,115.152 2.25763699759627,41.5675819827648,115.6 2.25760441127437,41.5676116078753,115.952 2.25757662909215,41.5676310302954,116.18 2.25754429555077,41.5676507144345,116.397 2.25751401546079,41.5676656816415,116.556 2.25747486226441,41.5676879373687,116.858 2.25743976201856,41.5677082066315,117.183 2.25739207310892,41.5677296702397,117.604 2.25724982346633,41.567794354403,118.927 2.25715406771083,41.5678454626014,119.918 2.2570913372258,41.5678855062338,120.535 2.25699083642414,41.567964721518,121.451 2.25692322175707,41.568030068826,121.999 2.2568703207549,41.5680910216546,122.395 2.25682703007518,41.5681542195272,122.778 2.25679561398784,41.5682059863206,123.077 2.25675031218661,41.5682841407633,123.522 2.25669999806418,41.5683572193021,123.89 2.25666942809874,41.5684132324293,123.993 2.25647274684206,41.5687624583239,127.121 2.25613863813904,41.5693529859237,131.505 2.25608917777611,41.5694585267874,132.162 2.25602257390665,41.5695718588965,132.784 2.25596617335337,41.5696659945878,133.46 2.25593484585403,41.5697422324257,133.904 2.25591288105505,41.569820146569,134.141 2.25590453668258,41.5698735282528,134.231 2.25590056007386,41.5699292407425,134.274 2.25590262281196,41.5699921363031,134.252 2.25590729600811,41.5700448783541,134.287 2.25591837855185,41.5701025480034,134.308 2.25593542706683,41.5701627955192,134.328 2.25596157149427,41.5702289748784,134.376 2.25599041640667,41.5702842630171,134.458 2.25602256718673,41.5703361449817,134.529 2.25606286609894,41.5703901808594,134.578 2.25609958360523,41.5704330954889,134.601 2.25613800368999,41.5704739170826,134.609 2.25617731555775,41.5705104718621,134.599 2.25620952322654,41.5705380323422,134.583 2.25624520488181,41.5705650872469,134.517 2.25629794287658,41.5706024023094,134.327 2.25635198157262,41.570640158977,134.133 2.25638892198983,41.5706662383725,134 2.25646872912864,41.5707070738707,133.869 2.25654162180961,41.5707400613075,133.815 2.25662334446759,41.5707727563826,133.816 2.25679062490548,41.5708376652891,134.493 2.25695644548197,41.5709011207056,135.646 2.25732432528932,41.5710437044663,134.537 2.25767241930949,41.5711772020942,132.523 2.2578783581642,41.5712561658736,131.509 2.25807207159534,41.5713206590555,131.144 2.25854739850531,41.5715015868057,131.258 2.25910391413383,41.5717129562642,134.871 2.26048029765265,41.5722393912049,127.727 2.26167219125378,41.5727296990903,126.621 2.26174205667957,41.5727529699515,126.327 2.26181769748165,41.5727808111758,125.94 2.26187233716219,41.5728176507859,125.913 2.26190477973034,41.5728524954329,126.054 2.26193011619321,41.5728833549977,126.224 2.26194724309718,41.5729119828593,126.449 2.26196134202745,41.5729436964319,126.792 2.26196592474433,41.5729717589054,127.095 2.26196277289687,41.5729992209511,127.392 2.26195059355278,41.5730322626728,127.748 2.26192872927423,41.5730617792463,128.121 2.26190381772021,41.5730907493347,128.489 2.2618679348216,41.5731185574189,128.831 2.26182975032321,41.5731473976146,129.132 2.26178659203433,41.5731733592044,129.359 2.26171502361652,41.5732094133486,129.573 2.26163670697886,41.5732379817492,129.731 2.26156310737959,41.5732582155078,129.931 2.26149747919472,41.5732792956115,130.042 2.26142087367757,41.5732930576966,130.112 2.26135563716614,41.5733066429271,130.193 2.26130149601176,41.5733115542505,130.344 2.26122132768424,41.5733191942466,130.593 2.26116874571415,41.5733211459985,130.767 2.26110761269332,41.5733223448993,130.974 2.26099731321929,41.5733146156816,131.37 2.26091256261921,41.5733031611825,131.684 2.2608208220109,41.573288481566,132.09 2.26074581607591,41.5732748490541,132.63 2.26069592201515,41.573264944452,132.989 2.26063803897503,41.5732443762931,133.406 2.26058671894057,41.5732265093246,133.776 2.26053681857251,41.5732082099258,134.067 2.26047557446217,41.573181685201,134.288 2.26042746187332,41.5731580498292,134.461 2.26038549422748,41.5731398906859,134.612 2.26035118372088,41.5731223026641,134.736 2.26031937768538,41.5731041419797,134.85 2.26029113009633,41.5730886641373,134.952 2.26026371691662,41.5730711503727,135.098 2.26023185887128,41.5730516091669,135.331 2.26017507744762,41.5730204529389,135.739 2.26013595810441,41.5729981795902,136.021 2.2600666332392,41.5729558885791,136.52 2.26000871909251,41.5729229536781,136.937 2.25995264989144,41.572895818309,137.026 2.25988942804129,41.5728695306894,137.135 2.25981950552715,41.5728476208386,137.323 2.25976817546179,41.5728356239397,137.487 2.25971530618138,41.5728260343326,137.657 2.25964821407994,41.5728186065979,137.745 2.25958935115625,41.5728166183103,137.787 2.25952303687416,41.5728175342482,137.816 2.25944891393861,41.5728228749193,137.835 2.25936084183051,41.5728372231775,138.56 2.25929169712698,41.5728535971703,139.077 2.25918246439103,41.5728930253379,139.632 2.25910343195012,41.5729324640907,140.24 2.25903355832325,41.5729774895539,140.76 2.25897769058226,41.5730223178818,141.08 2.25892544964358,41.573075532027,141.483 2.25889423835153,41.5731160149829,141.927 2.25886397110586,41.5731625522765,142.179 2.2588392097995,41.5732139758769,142.358 2.25882131536804,41.5732649866533,142.487 2.25881202374127,41.5733049011697,142.553 2.25880699065816,41.5733374657162,142.615 2.25880430318472,41.5733832129027,142.913 2.25880541958725,41.5734267241357,143.172 2.25881123754133,41.5734668261293,143.386 2.25882059129756,41.5735087812021,143.6 2.25883420891465,41.5735474499469,143.784 2.25884301287781,41.5735682737364,143.882 2.25886367075895,41.5736100026371,144.083 2.25889159774262,41.5736555700458,144.304 2.25892183048657,41.5736951354675,144.44 2.2589525638569,41.5737349955076,144.638 2.25896459781946,41.5737493368365,144.721 2.25901189334434,41.573786277421,144.934 2.25906496197735,41.5738212361698,145.204 2.25914702172465,41.5738733277317,145.784 2.25960512986667,41.5741558628147,144.743 2.26018786549985,41.5745166436183,141.251 2.26034787449687,41.5746050498383,140.293 2.26044314292569,41.5746613466547,139.645 2.26052364105695,41.5746998962341,139.113 2.26057069621602,41.5747146243316,138.756 2.26061951500657,41.5747243398965,138.324 2.260675488891,41.5747276898341,137.744 2.26071770498716,41.5747241053078,137.262 2.26076425544247,41.5747127982463,136.67 2.2607972528987,41.5746985682417,136.208 2.26083723873722,41.5746808674498,135.7 2.2608751272595,41.5746667776229,135.571 2.2609114103144,41.5746478527372,135.389 2.26097319475568,41.5746130177642,135.016 2.26104885334841,41.5745717924669,134.497 2.2611191117891,41.5745315979916,133.981 2.26141212455595,41.5743661653428,134.178 2.26143937323514,41.5743497819399,134.04 2.26156502102173,41.5742787668016,133.589 2.26161759793422,41.5742382934576,133.385 2.26178609988543,41.5741440088572,132.837 2.26184186955655,41.5741127470053,132.612 2.26186692108055,41.5740985442495,132.51 2.26189079327721,41.5740844264524,132.408 2.26190634125451,41.5740752675738,132.342 2.26192227853705,41.5740689261356,132.296 2.26193641703674,41.5740661394563,132.276 2.26195095097201,41.5740661727369,132.261 2.26196536762362,41.5740686118769,132.245 2.26197536142151,41.5740733308327,132.254 2.26198950496943,41.5740813951122,132.274 2.26200042802904,41.5740893699037,132.298 2.2620123577655,41.5740989937327,132.328 2.26202689858325,41.574110723939,132.36 2.26204545345133,41.5741269413384,132.402 2.26207210975955,41.5741453104607,132.422 2.26212784515597,41.5741903349222,132.51 2.26222637300547,41.574269520502,132.716 2.26225343018861,41.5742890665462,132.706 2.2622822432476,41.5743050764678,132.672 2.26232276900403,41.57431344946,132.524 2.26235563957872,41.57431281879,132.344 2.26239492015599,41.5743096784734,132.106 2.26243317309405,41.5743046467918,131.852 2.26248145482704,41.5742816834972,131.348 2.26251286560739,41.5742668682268,130.99 2.26317913471664,41.5739495459549,125.773 2.26327067451246,41.5738956156639,125.25 2.26335235485175,41.5738445292236,125.377 2.26341614782903,41.5738024259553,125.828 2.26347814687317,41.5737511534503,126.255 2.26352784129783,41.5737041551589,126.565 2.26358836932991,41.5736352350058,126.906 2.26363287309786,41.5735726052038,126.978 2.26368339136382,41.5734849835664,126.764 2.26372279144765,41.5733924285416,126.367 2.26374389377556,41.5733071843461,125.811 2.2637541073252,41.573193357183,124.703 2.26374385337186,41.5730689356294,123.686 2.26372363977566,41.5729840173699,123.527 2.26370443996132,41.5729290221758,123.537 2.26366900666137,41.5728478793188,123.627 2.26364271130597,41.572793314818,123.715 2.26359389665331,41.5727276817902,123.701 2.26334193298125,41.572429527614,122.715</coordinates></LineString>
  </Placemark>
</Folder>
</Document></kml>
