<?xml version="1.0" encoding="utf-8" ?>
<kml xmlns="http://www.opengis.net/kml/2.2">
<Document id="root_doc">
<Schema name="Tracks" id="Tracks">
	<SimpleField name="id" type="string"></SimpleField>
	<SimpleField name="timestamp" type="string"></SimpleField>
	<SimpleField name="begin" type="string"></SimpleField>
	<SimpleField name="end" type="string"></SimpleField>
	<SimpleField name="altitudeMode" type="string"></SimpleField>
	<SimpleField name="tessellate" type="int"></SimpleField>
	<SimpleField name="extrude" type="int"></SimpleField>
	<SimpleField name="visibility" type="int"></SimpleField>
	<SimpleField name="drawOrder" type="int"></SimpleField>
	<SimpleField name="icon" type="string"></SimpleField>
	<SimpleField name="snippet" type="string"></SimpleField>
</Schema>
<Folder><name>Tracks</name>
  <Placemark id="Tracks.1">
	<name>Catalunya_right_2022</name>
	<description>&amp;nbsp;</description>
	<Style><LineStyle><color>FF0AECFF</color><width>2.7</width></LineStyle><PolyStyle><fill>0</fill></PolyStyle></Style>
	<ExtendedData><SchemaData schemaUrl="#Tracks">
		<SimpleData name="altitudeMode">clampToGround</SimpleData>
		<SimpleData name="tessellate">1</SimpleData>
		<SimpleData name="extrude">0</SimpleData>
		<SimpleData name="visibility">-1</SimpleData>
		<SimpleData name="snippet"></SimpleData>
	</SchemaData></ExtendedData>
      <LineString><coordinates>2.26306288324705,41.5723233262294,122.364 2.26176002401235,41.5707745197322,123.859 2.26026039216737,41.568992168049,117.131 2.25868722265696,41.5671201155515,115.539 2.25799453636836,41.5662992959992,111.323 2.25730113568163,41.5654729718305,114.297 2.25678642506106,41.5648572145883,114.055 2.25676411511192,41.5648318969629,114.044 2.25672889552111,41.5648031530264,114.067 2.25669768725044,41.5647793328638,114.094 2.25666833089542,41.5647589283986,114.126 2.25663151873516,41.5647386721238,114.186 2.25660500053276,41.5647268611198,114.239 2.25657525260478,41.5647160680539,114.299 2.25654545928997,41.5647079308181,114.378 2.25651515816446,41.5647007648703,114.475 2.2564747927636,41.564694294128,114.629 2.25642497006493,41.5646905083444,114.84 2.25636580329525,41.5646916413281,115.083 2.25633049361457,41.5646962097232,115.21 2.25628671983994,41.5647044073189,115.368 2.25626375894158,41.5647098159236,115.45 2.2562272913929,41.5647211656104,115.582 2.2561982764127,41.564731676533,115.697 2.25616786956538,41.5647438899849,115.812 2.25613162854973,41.564759962922,115.936 2.25607917931791,41.5647808921363,115.794 2.2560056689493,41.5648174589919,115.371 2.25596189954456,41.5648383504352,115.15 2.25592856676578,41.5648550000319,115 2.25589886432334,41.5648690748081,114.876 2.25586158864683,41.564884941495,114.73 2.25583157136741,41.5648966350379,114.624 2.25579360431497,41.5649090430938,114.576 2.25574319239095,41.5649226446742,114.487 2.25568402595093,41.5649350797139,114.354 2.25564011391112,41.5649447481631,114.244 2.25559337095452,41.564950448075,114.112 2.25551239495751,41.5649549897516,114.286 2.25544575487488,41.564953945215,114.725 2.25538006537346,41.5649486076739,115.147 2.25531453895739,41.5649391283444,115.545 2.25524112900411,41.5649232898042,115.988 2.25519167987756,41.5649096265272,116.295 2.25514196489448,41.564891537255,116.587 2.25508691600843,41.5648678746864,116.899 2.255030814271,41.5648406207818,117.204 2.25500167412584,41.5648257815558,117.361 2.25495337188979,41.5648002197296,117.664 2.25482284976137,41.5647287851405,118.314 2.25460483690398,41.5646080226687,121.339 2.25441811848501,41.5645081060457,123.931 2.25433301296009,41.5644628176853,124.415 2.25429320980457,41.5644422048334,124.544 2.25420824486861,41.5643987291321,124.85 2.2541610056831,41.5643765096357,125.015 2.25411308410192,41.5643572025457,125.132 2.25407221258871,41.5643418504975,125.214 2.25403624947328,41.5643293759221,125.275 2.25399624062856,41.5643160128356,125.33 2.25396368437507,41.5643069989945,125.369 2.25390494200966,41.5642915565666,125.424 2.25385850922878,41.5642813987777,125.304 2.25381638516378,41.5642734681275,125.123 2.25378576305495,41.5642686788202,124.996 2.25375223756311,41.5642636726919,124.857 2.25371654501276,41.5642595559264,124.714 2.2536495709719,41.5642535188479,124.451 2.25360505841866,41.5642510859084,124.274 2.2535665113582,41.564249720698,124.074 2.25352783618521,41.5642494366276,123.877 2.25349909088671,41.5642497857444,123.734 2.25347737242085,41.5642502115212,123.627 2.25344211821331,41.5642514958815,123.46 2.25341834886316,41.5642533954598,123.358 2.25338865760535,41.5642559507769,123.235 2.25332153816612,41.5642632125717,123.015 2.25327308628412,41.5642702828007,122.983 2.25324203549006,41.5642756055274,122.977 2.25318143831175,41.5642879111841,123.001 2.25311698417438,41.5643030476909,123.076 2.2530670344828,41.5643179889155,123.198 2.25301644069412,41.5643349833293,123.394 2.25295293055439,41.5643582252797,123.618 2.25290537571716,41.5643781273519,123.763 2.25287490183453,41.5643920562093,123.841 2.25284171564607,41.5644083868607,123.911 2.25279683656737,41.5644318571651,123.972 2.25275854133555,41.5644531907888,124.092 2.25272443903443,41.5644749603566,124.308 2.25269145607108,41.5644969764265,124.509 2.25266628876231,41.5645145313784,124.656 2.25263233029899,41.564540036054,124.852 2.25260032256444,41.564566432,125.037 2.252574332848,41.5645897518411,125.186 2.25255409445211,41.564608555532,125.297 2.25253918415179,41.5646241438595,125.385 2.25251341730018,41.5646500055655,125.516 2.25249065440073,41.5646755231846,125.669 2.25246923822558,41.5647020491202,125.863 2.25244894658819,41.5647270179833,126.003 2.2524319301416,41.564749127308,126.024 2.25241861102495,41.5647668114233,126.047 2.25240927140631,41.5647800130547,126.068 2.2523938203657,41.5648029225253,126.111 2.25236896338555,41.5648440842447,126.207 2.25234385350118,41.5648859274567,126.331 2.25231831683484,41.5649339488352,126.499 2.25230086725264,41.5649714646928,126.643 2.25228727925377,41.5650063744244,126.748 2.25227446420201,41.5650432592346,126.685 2.25226051885194,41.5650834415504,126.603 2.25224719422008,41.5651306479735,126.482 2.25223887447724,41.5651717241045,126.359 2.25223164102187,41.5652085125815,126.241 2.25222767634208,41.5652403411296,126.132 2.25222409610955,41.5652803973451,126.009 2.2522220630659,41.5653533796599,126.272 2.25222282201033,41.5654108945041,126.479 2.25222598561581,41.5654626820012,126.666 2.25223206748292,41.565531536826,126.914 2.25224117767975,41.5655998607444,127.011 2.25225694032172,41.5656842715379,127.058 2.2522772854587,41.5657696333084,127.153 2.25229365357564,41.5658241859659,127.249 2.25231483313301,41.5658848965152,127.21 2.25235088355328,41.5659725640896,127.194 2.25238469293585,41.5660528405725,127.257 2.25243979687776,41.566159331857,127.295 2.25250892327577,41.5662789371875,126.824 2.25259365167962,41.5663977730082,126.294 2.25269611534853,41.5665261253377,125.863 2.25288163217831,41.5667435930112,126.302 2.25391022792908,41.5679741273762,130.37 2.25398003921745,41.5680597413239,130.323 2.25402323829613,41.5681152377591,130.477 2.25406780269244,41.5681618128534,130.754 2.25410640959543,41.568202777444,131.083 2.25414428520155,41.5682375152741,131.469 2.25419323489578,41.56827277277,131.898 2.25424744085672,41.5683041382261,132.216 2.25429571227726,41.5683266345701,132.452 2.25434759673419,41.568345220287,132.722 2.25439690254483,41.5683593172002,133 2.25443080725936,41.5683666460266,133.185 2.25446939495584,41.5683725272188,133.449 2.25450153419495,41.5683760566343,133.687 2.25454260722309,41.5683789927511,133.977 2.2545810283436,41.5683799128124,134.236 2.25462678574083,41.5683775669651,134.527 2.25466511811676,41.568374234665,134.766 2.25469871068473,41.5683691626375,134.971 2.25473141444189,41.5683626122802,135.135 2.25476489557602,41.5683546409934,135.219 2.25482518393452,41.5683355523385,135.376 2.25490062730985,41.5683043765789,135.642 2.25495377398423,41.5682756370138,135.834 2.25501138489279,41.5682385446493,135.973 2.25505206009888,41.5682085698729,135.897 2.25509470121477,41.568172936204,135.856 2.25512428623307,41.5681432449352,135.859 2.25516173017578,41.5681030532525,135.9 2.25518341598359,41.5680739587964,135.956 2.25520192326338,41.568048770096,136.024 2.25521833053678,41.5680234541055,136.116 2.25523644399481,41.5679908557483,136.233 2.2552517740218,41.5679574651809,136.353 2.2552688497313,41.5679108883199,136.521 2.25528089888112,41.5678725680244,136.648 2.25528635666101,41.567846441272,136.722 2.25529480708755,41.567810594044,136.821 2.25530261342446,41.5677559458501,136.832 2.25530544730867,41.5676997254862,136.619 2.25530481692073,41.5676351926578,136.389 2.25529389871365,41.5675486720953,136.117 2.25527439983282,41.5674727140515,135.805 2.25525351677508,41.5674199562386,135.449 2.25522726971725,41.5673589487886,135.077 2.25520191467782,41.5673093715003,134.815 2.25517220271206,41.567259433999,134.597 2.25514164140401,41.567214068968,134.461 2.25509439245748,41.5671493402758,134.398 2.25505581496465,41.5670997454385,134.358 2.25503094067107,41.5670643035762,134.32 2.25488073318098,41.5668864547104,133.922 2.25473301681069,41.5667123136856,132.487 2.25461970485067,41.5665948968585,131.594 2.25449053138171,41.5664403622569,130.39 2.25431679599833,41.5662337522961,131.379 2.25401307848322,41.5658691533959,131.011 2.25394800130471,41.5657776441229,130.258 2.25391443027535,41.5656822935528,129.671 2.25391211425801,41.5655833771093,128.891 2.2539349479398,41.5655081178752,128.393 2.25395838999358,41.5654601321541,128.171 2.25400124433188,41.565408725411,127.81 2.25403413282736,41.5653808015192,127.566 2.25407536184348,41.5653497601793,127.309 2.25412276241269,41.5653215768663,127.051 2.25419127753067,41.5652919014514,126.735 2.25424997674324,41.5652736231493,126.411 2.2543107798854,41.5652616862397,125.99 2.25439785779595,41.5652552451189,125.349 2.25449163013244,41.5652591642834,124.796 2.25460418140638,41.565276750493,124.419 2.25477495374405,41.5653335861181,123.821 2.25552008598952,41.5655818989339,120.255 2.25565798759445,41.5656289080314,119.436 2.25601754792411,41.5657546028873,116.241 2.2562659865219,41.5658480082827,115.053 2.25644160710773,41.5659300392734,115.472 2.25659366410175,41.5660157070732,115.91 2.25676441811438,41.5661207676277,115.988 2.25692943872018,41.5662437786001,115.548 2.25715908860766,41.5664569311418,114.472 2.25730709853294,41.5666263691703,113.766 2.25740398445227,41.5667383312822,113.067 2.25754337941646,41.5668942446607,113.046 2.25773352579578,41.5671181431435,112.629 2.25782528075283,41.5672507124838,113.12 2.25785535426925,41.5673210062488,113.455 2.25786586002967,41.5674046143599,113.865 2.25785587418374,41.5674805944846,114.192 2.25782934356434,41.567550639467,114.699 2.25778979528295,41.5676146630975,115.264 2.25772492059673,41.5676812207655,116.089 2.25768134039782,41.5677157651433,116.485 2.25756694337554,41.5677813039431,117.038 2.25743999477663,41.5678416784725,118.072 2.25732997428323,41.5678917510524,119.204 2.25726356248687,41.5679267123172,119.854 2.25720636603092,41.5679627362207,120.408 2.25717252805066,41.5679862686275,120.725 2.25714557512473,41.5680080205789,120.981 2.25709742753246,41.5680490105635,121.413 2.25705344373933,41.5680905830593,121.783 2.25701463912141,41.5681319416463,122.092 2.25696687255347,41.5681959880337,122.466 2.25692870878882,41.5682540879937,122.771 2.25684571732316,41.5683946294659,123.498 2.25674351233619,41.5685725827375,123.962 2.25653714462855,41.5689362679137,127.456 2.2562676486625,41.569413166333,130.824 2.25618729734447,41.5695606643179,131.566 2.25613962694056,41.5696442009417,131.869 2.25610117461396,41.5697244700905,132.107 2.25607526060246,41.5697946676688,132.387 2.25606082093016,41.569857458503,132.543 2.25605214195099,41.5699253761461,132.637 2.25605316011966,41.5699964723602,132.626 2.25606170624696,41.5700591276121,132.884 2.25607339779379,41.5701088297653,133.084 2.25609023721755,41.5701569011394,133.27 2.25611562594585,41.5702148852727,133.531 2.25613731345262,41.5702542749684,133.736 2.25617655885049,41.5703133761607,133.893 2.25623298097073,41.5703797041906,133.928 2.25629436581821,41.5704426001841,133.934 2.25633619471578,41.5704830797843,133.929 2.25641396110335,41.5705348293087,133.828 2.25650348731871,41.5705851397624,133.631 2.25657319585561,41.5706222939529,133.496 2.25667676190141,41.5706657634179,133.345 2.2590639103343,41.5715817269217,132.777 2.25933856214253,41.5716780040994,133.56 2.26045378515563,41.5721018447222,127.025 2.26081083990629,41.5722418563555,125.439 2.26127522783485,41.5724220416373,126.733 2.26164342620896,41.5725622012807,125.615 2.2618141293024,41.5726279287384,125.432 2.2619406374425,41.5726973642355,125.019 2.26202584834917,41.5727634631593,124.985 2.262076145675,41.5728406613943,125.679 2.26209318749771,41.5729124217803,126.454 2.26209450780659,41.572983569034,127.223 2.26208018523444,41.5730748572755,128.242 2.26202217985199,41.5731516202866,129.134 2.26195474930796,41.5732076183363,129.663 2.26186223973362,41.5732628803612,130.093 2.26175391461972,41.5733104710454,130.18 2.26162889062068,41.5733552324867,130 2.26149831451638,41.5733874571718,130 2.26140203267865,41.5734065840342,130 2.26130857166055,41.5734180668619,130.289 2.26121331535872,41.5734253669607,130.632 2.2610451727369,41.5734275307771,131.237 2.26089116571736,41.5734123857994,131.792 2.26074849939976,41.5733875914764,132.551 2.26056212947982,41.5733391363973,133.932 2.26043214801027,41.5732930441529,134.444 2.26035539341242,41.5732637746873,134.721 2.26029595277413,41.5732366824295,134.935 2.26024714204451,41.5732079922865,135.16 2.26016493909418,41.5731573095786,135.664 2.26008453450545,41.5731085730894,136.259 2.25999933789015,41.5730613623457,136.977 2.25996096190029,41.573038582001,136.877 2.25990787721975,41.5730117949298,136.773 2.25986576101669,41.5729913623894,136.74 2.25981553700704,41.5729694634202,136.748 2.25976197096136,41.5729546798976,136.765 2.25969173209821,41.5729402724472,136.894 2.25964223423035,41.5729324386155,137.047 2.25955118815785,41.5729292322593,137.245 2.25944038890925,41.5729394927557,137.445 2.25936169111785,41.5729555383332,137.873 2.2592790594759,41.5729817286812,138.178 2.25921730150166,41.5730104635358,138.246 2.25915366060701,41.5730477761881,138.271 2.25908601396336,41.5731028996045,139.282 2.25903815441136,41.5731551905642,140.043 2.2590041239398,41.5732068588172,140.567 2.25898089952239,41.5732578865402,140.916 2.25896362990432,41.5733067396863,141.167 2.2589548669394,41.5733628798907,141.525 2.25895959397095,41.5734473361177,142.162 2.25898643357331,41.5735348263147,142.652 2.2590213683024,41.5735969434736,142.92 2.2590610343035,41.5736447143602,143.152 2.259108449934,41.5736919704502,143.462 2.25913918723175,41.5737184216702,143.667 2.25920744274891,41.5737617091415,143.875 2.25931826779321,41.5738320406987,144.09 2.26033822346467,41.5744621228194,139.271 2.26039825307294,41.5744977421372,138.732 2.26048943679761,41.5745458213874,137.96 2.26052516561791,41.5745640644558,137.682 2.26055437099337,41.5745773784346,137.451 2.2605941732757,41.5745886069393,137.207 2.26063439063878,41.5745932032828,136.887 2.26068086303127,41.574592751844,136.459 2.26072371851809,41.5745855454928,136.006 2.26077117412544,41.5745679601344,135.436 2.26082021347991,41.5745413471905,134.809 2.2608827857998,41.5745110741395,134.344 2.26099601409136,41.5744489286411,133.456 2.26124153738162,41.5743117305706,133.013 2.26141757767512,41.5742120968158,132.577 2.26146232167407,41.5741757796624,132.354 2.26153365475617,41.5741334943692,132.34 2.26165945560591,41.5740634513382,132.241 2.2617528316333,41.5740104472592,131.875 2.26179804036392,41.5739864609227,131.703 2.26182697432666,41.5739752092467,131.622 2.26189635127737,41.5739592164552,131.506 2.26194856354006,41.5739539466137,131.465 2.2619919817029,41.5739580368877,131.455 2.26204888655418,41.5739735426159,131.495 2.26209579648172,41.5740023952403,131.595 2.26214913176455,41.5740455926893,131.713 2.26219046636083,41.5740783495641,131.76 2.26223669635705,41.5741148490574,131.719 2.26227476719371,41.5741452508725,131.559 2.262301804331,41.5741680465716,131.438 2.26231484687944,41.5741790430679,131.437 2.26233004359207,41.5741901518942,131.426 2.26234513507355,41.5741960574735,131.373 2.26236054917217,41.5741979722637,131.286 2.26237564825106,41.5741970669007,131.175 2.2623916780364,41.5741909967923,131.009 2.26240674904859,41.5741832862112,130.831 2.26242726899084,41.5741742351322,130.598 2.26246065971077,41.5741574056913,130.279 2.26249882657432,41.5741347479813,130.008 2.26262205247868,41.574078706754,129.121 2.26297582408802,41.5739073250118,126.621 2.26305097969888,41.573870801854,126.098 2.26312016205654,41.5738360077764,126.002 2.26317070332633,41.5738101008859,125.987 2.26321429632368,41.5737873859677,126.003 2.26328237049027,41.5737410818476,126.15 2.2633327517144,41.5737039482306,126.332 2.26337599155499,41.5736678058278,126.623 2.26340666097907,41.573634707365,126.853 2.26343983857414,41.5735996377886,127.025 2.26347561170194,41.5735528056495,127.102 2.26351023308904,41.5734986530341,127.147 2.2635415380752,41.5734392949048,127.155 2.26356355743903,41.5733877607181,127.138 2.26358057899476,41.5733262948617,127.062 2.26359029934348,41.5732746448874,126.668 2.26359648072215,41.5732140362739,126.216 2.26359681725713,41.5731438988416,125.723 2.26359094583345,41.5731043979357,125.484 2.26358086596219,41.5730504165233,125.197 2.26356530808314,41.5730044755966,125.116 2.2635458994248,41.5729502297892,125.001 2.2635206052645,41.5729001994728,124.91 2.26349668461178,41.572862437775,124.842 2.26347301546807,41.5728273318296,124.764 2.2634540106903,41.5727954123782,124.665 2.26341695306405,41.5727454141693,124.466 2.26336083140269,41.5726744252532,124.157 2.26320447578824,41.5724907191936,122.967</coordinates></LineString>
  </Placemark>
</Folder>
</Document></kml>
