<?xml version="1.0" encoding="utf-8" ?>
<kml xmlns="http://www.opengis.net/kml/2.2">
<Document id="root_doc">
<Schema name="cota_boundaries" id="cota_boundaries">
	<SimpleField name="FID" type="string"></SimpleField>
</Schema>
<Folder><name>cota_boundaries</name>
  <Placemark id="cota_boundaries.1">
	<Style><LineStyle><color>ff0000ff</color></LineStyle><PolyStyle><fill>0</fill></PolyStyle></Style>
	<ExtendedData><SchemaData schemaUrl="#cota_boundaries">
		<SimpleData name="FID">0</SimpleData>
	</SchemaData></ExtendedData>
      <LineString><coordinates>-97.6397982651935,30.1319385435474,0 -97.6376280278463,30.1304691276291,0 -97.6374172719209,30.1303378013334,0 -97.6372203321612,30.1302282585353,0 -97.6370381696775,30.1301372758663,0 -97.636991729753,30.1301176178011,0 -97.6369602324907,30.1301091159694,0 -97.6369317464947,30.1301056216872,0 -97.636907540583,30.1301072169192,0 -97.6368706062,30.130117297092,0 -97.6368508739411,30.1301265946648,0 -97.6368354942259,30.1301384762487,0 -97.6368272167293,30.1301489775504,0 -97.6368248006876,30.1301594350444,0 -97.6368252226546,30.130185737655,0 -97.6368300255945,30.1302129018235,0 -97.6368435354179,30.1302587617,0 -97.6368895265499,30.1303938973455,0 -97.6369636516188,30.1305690660664,0 -97.6369642437996,30.1305705231882,0 -97.6372903434518,30.1314070222962,0 -97.6373473431359,30.131553221486,0 -97.6373481404397,30.1315554013306,0 -97.6373488450614,30.131557612874,0 -97.6373699450614,30.131629012874,0 -97.6373705437941,30.131631204492,0 -97.6373710515042,30.1316334189673,0 -97.6373857515042,30.1317042189673,0 -97.6373862036313,30.131706675573,0 -97.6373865437524,30.1317091501736,0 -97.6373939437523,30.1317738501736,0 -97.6373942033553,30.1317768409232,0 -97.637394299392,30.1317798413822,0 -97.637394599392,30.1318436413822,0 -97.6373945562939,30.1318460922043,0 -97.6373916562939,30.1319187922043,0 -97.6373914697066,30.1319216278462,0 -97.6373911369036,30.1319244500656,0 -97.6373804369036,30.1319986500656,0 -97.6373799311115,30.1320015905152,0 -97.6373792666091,30.13200449921,0 -97.6373604666091,30.13207759921,0 -97.6373597721802,30.1320800606272,0 -97.6373589640771,30.132082487101,0 -97.6373310640771,30.132160187101,0 -97.6373301106598,30.1321626541408,0 -97.6373001106598,30.1322350541408,0 -97.6372991973106,30.1322371356519,0 -97.6372981987336,30.1322391776458,0 -97.6372618987336,30.1323096776458,0 -97.6372608512215,30.1323116156892,0 -97.6372597269371,30.1323135102283,0 -97.6372186269371,30.1323797102283,0 -97.6372165515587,30.1323828128994,0 -97.6371704515587,30.1324469128994,0 -97.6371680749586,30.1324499827781,0 -97.6371174749586,30.1325107827781,0 -97.6371156387438,30.1325128787876,0 -97.6371136987258,30.1325148791053,0 -97.6370532987258,30.1325740791053,0 -97.6370503237725,30.1325767888269,0 -97.6369886237725,30.1326289888269,0 -97.6369861832883,30.1326309374105,0 -97.6369836361397,30.1326327443348,0 -97.6369072361397,30.1326837443348,0 -97.6369053425928,30.1326849531882,0 -97.6368235425928,30.1327348531882,0 -97.6368208193719,30.1327364096502,0 -97.6367188193719,30.1327909096502,0 -97.6367187249638,30.1327909599757,0 -97.6365254249638,30.1328937599757,0 -97.6365252192329,30.1328938688289,0 -97.6355164829647,30.133424866801,0 -97.6353774727793,30.1335037083988,0 -97.6353079474018,30.1335468317342,0 -97.6352375432966,30.1335932908117,0 -97.6351804393455,30.1336416808482,0 -97.6351267107846,30.1336967130484,0 -97.6350828445902,30.1337530857748,0 -97.6350458854319,30.1338085245122,0 -97.6350066150525,30.1338900129267,0 -97.6349680234074,30.1339768441282,0 -97.6349358730915,30.134054044578,0 -97.634935823888,30.1340541623421,0 -97.634905223888,30.1341271623421,0 -97.6349042267106,30.1341294000904,0 -97.6348680267106,30.1342060000904,0 -97.6348668256745,30.1342083893592,0 -97.6348655099237,30.1342107174256,0 -97.6348239099237,30.1342803174256,0 -97.6348222322883,30.1342829514298,0 -97.6348204078593,30.1342854859707,0 -97.6347735078593,30.1343468859707,0 -97.6347717628203,30.1343490544893,0 -97.6347699103061,30.1343511319458,0 -97.6347122103061,30.1344126319458,0 -97.634710503171,30.1344143725343,0 -97.6347087205756,30.1344160357581,0 -97.6347068660229,30.1344176183488,0 -97.6346357660229,30.1344756183488,0 -97.6346335070555,30.1344773654296,0 -97.6346311604509,30.1344789929039,0 -97.6346287325354,30.1344804963839,0 -97.6346262298547,30.1344818718164,0 -97.6345431298547,30.1345247718164,0 -97.6345410740268,30.1345257794996,0 -97.634538978042,30.1345267007494,0 -97.634443778042,30.1345662007494,0 -97.6344399981452,30.1345676089473,0 -97.6343071981452,30.1346116089473,0 -97.6343061365351,30.1346119487862,0 -97.6341765921687,30.1346519754321,0 -97.6341030136247,30.1346805367692,0 -97.634041475487,30.1347113516936,0 -97.6339849827657,30.1347496860402,0 -97.633932075031,30.1347932129709,0 -97.6338821571483,30.1348407094637,0 -97.6338489220625,30.1348803523425,0 -97.6338209332985,30.1349327660837,0 -97.633799231566,30.1349881460234,0 -97.6337845524079,30.135045221508,0 -97.6337702271859,30.1351305920878,0 -97.6337505031187,30.1352633808834,0 -97.6337504296691,30.1352638607857,0 -97.6337299296691,30.1353939607857,0 -97.6337291854423,30.135397793562,0 -97.6337050854423,30.135501993562,0 -97.6337042711015,30.135505098737,0 -97.6337032769855,30.1355081511125,0 -97.6336764769855,30.1355829511125,0 -97.6336753006115,30.1355859540742,0 -97.6336739502445,30.135588882921,0 -97.6336724305276,30.1355917275819,0 -97.6336282305276,30.1356689275819,0 -97.6336260572371,30.1356724145768,0 -97.6335750572371,30.1357478145768,0 -97.6335735606585,30.1357499189668,0 -97.6335719669541,30.1357519507913,0 -97.633570279637,30.1357539055715,0 -97.633497879637,30.1358339055715,0 -97.6334960307627,30.1358358509423,0 -97.6334940891907,30.1358377038053,0 -97.6334162891907,30.1359084038053,0 -97.6334131785139,30.1359110272004,0 -97.6333434785139,30.1359655272004,0 -97.6333413788495,30.1359670899178,0 -97.633339207216,30.1359685509737,0 -97.633252007216,30.1360242509737,0 -97.6332495363475,30.1360257395092,0 -97.6331677363475,30.1360721395092,0 -97.633165122033,30.136073530782,0 -97.633086022033,30.136112930782,0 -97.6330830798139,30.1361142896396,0 -97.6329904798139,30.1361537896396,0 -97.6329883251401,30.1361546554558,0 -97.6328789251401,30.1361959554558,0 -97.6328767137118,30.1361967368464,0 -97.6328744709803,30.1361974232439,0 -97.6327786709803,30.1362245232439,0 -97.6327746313263,30.1362255027467,0 -97.6326888313263,30.1362429027467,0 -97.6326861770112,30.1362433736249,0 -97.6326835028118,30.1362437138785,0 -97.6326044028118,30.1362518138785,0 -97.6326017847257,30.1362520189531,0 -97.6325373847257,30.1362555189531,0 -97.6325333753332,30.1362555904542,0 -97.6324689753332,30.1362543904542,0 -97.6324662889002,30.1362542746548,0 -97.6324636113374,30.1362540276944,0 -97.6324046113374,30.1362471276944,0 -97.6324014522812,30.1362466649431,0 -97.6323424522812,30.1362362649431,0 -97.6323391035255,30.1362355666339,0 -97.6322794035255,30.1362211666339,0 -97.6322755822741,30.1362200976873,0 -97.6322078822741,30.1361984976873,0 -97.6322045419456,30.1361973120538,0 -97.6319645419456,30.1361033120538,0 -97.6319641653763,30.1361031629627,0 -97.6316397691849,30.1359733445238,0 -97.6313304736378,30.1358524244553,0 -97.6313301248072,30.1358522867059,0 -97.6312627100153,30.1358253992925,0 -97.6312233119167,30.1358119397611,0 -97.6311940555141,30.135806155544,0 -97.6311613983727,30.1358022098225,0 -97.6311330342853,30.1358031500685,0 -97.6310996260418,30.1358086913397,0 -97.6310592507646,30.1358227236855,0 -97.6310009610559,30.135848412259,0 -97.6308534096994,30.1359285863535,0 -97.6307397212638,30.136007593484,0 -97.6306381734936,30.1360817863316,0 -97.6305525267984,30.1361512896881,0 -97.6304395175358,30.1362607005491,0 -97.6303880704523,30.1363184589847,0 -97.6303393940106,30.1363795240198,0 -97.6302967739542,30.13643486055,0 -97.6302953292108,30.1364366571718,0 -97.6302457292108,30.1364957571718,0 -97.6302438489796,30.1364978835917,0 -97.6302418615473,30.1364999101759,0 -97.6301975615473,30.1365428101759,0 -97.6301957057445,30.1365445264693,0 -97.6301937730423,30.1365461556806,0 -97.6301917675231,30.1365476943684,0 -97.6301314675231,30.1365917943684,0 -97.6301290799648,30.136593445583,0 -97.6301266086107,30.1365949685255,0 -97.6301240603455,30.1365963589531,0 -97.6300650603455,30.1366265589531,0 -97.6300618603031,30.1366280690712,0 -97.6300585697792,30.1366293702936,0 -97.6299941697792,30.1366524702936,0 -97.6299920248229,30.136653190239,0 -97.6299898520711,30.136653821356,0 -97.6299160520711,30.136673621356,0 -97.6299132358743,30.1366742979626,0 -97.6299103879642,30.1366748253796,0 -97.6298268879642,30.1366880253796,0 -97.629823726137,30.1366884316822,0 -97.6298205460811,30.1366886541183,0 -97.6297471460811,30.1366916541183,0 -97.6297440767638,30.1366916938386,0 -97.6297410100106,30.1366915622637,0 -97.6296592100106,30.1366857622637,0 -97.6296561772272,30.1366854625807,0 -97.6296531656986,30.1366849953755,0 -97.6295834656986,30.1366721953755,0 -97.6295808249531,30.1366716431433,0 -97.6295782144646,30.1366709620801,0 -97.6295138144646,30.1366524620801,0 -97.629511587658,30.1366517709722,0 -97.6295093921435,30.1366509861067,0 -97.6294637921435,30.1366335861067,0 -97.6294615303535,30.1366326650232,0 -97.6294593116817,30.1366316444428,0 -97.6294164116817,30.1366107444428,0 -97.6294143821042,30.1366097030528,0 -97.6294123974553,30.1366085783987,0 -97.6293694974553,30.1365830783987,0 -97.6293668748818,30.1365814176184,0 -97.6293643501826,30.1365796115241,0 -97.6293307501826,30.1365541115241,0 -97.629327512687,30.1365514542949,0 -97.629288712687,30.1365170542949,0 -97.629285815335,30.1365142907302,0 -97.629254915335,30.1364825907302,0 -97.62925342909,30.1364810044659,0 -97.6292520066867,30.1364793607118,0 -97.6292170066867,30.1364372607118,0 -97.6292153851424,30.1364352132192,0 -97.6291779851424,30.1363856132192,0 -97.6291759330181,30.1363826999433,0 -97.6291510330181,30.1363447999433,0 -97.6291496248753,30.1363425391761,0 -97.6291312724126,30.1363114197828,0 -97.6291164511186,30.1362938410387,0 -97.6290957763741,30.1362777178238,0 -97.6290642794252,30.1362566914823,0 -97.6290368405578,30.1362443672452,0 -97.6290025140523,30.1362347954312,0 -97.6289697229853,30.1362299062746,0 -97.6289281836009,30.1362279282087,0 -97.6288866876636,30.1362319981727,0 -97.6288277341257,30.1362408842003,0 -97.6287009592257,30.1362664173183,0 -97.6287003124912,30.1362665435475,0 -97.6273207124912,30.1365272435475,0 -97.6273204757179,30.1365272877533,0 -97.6271924219437,30.1365509054533,0 -97.627130422356,30.1365634014942,0 -97.6270847193872,30.1365763015257,0 -97.6270485766428,30.1365893337652,0 -97.6270172453755,30.1366058766744,0 -97.6269906693777,30.1366240341884,0 -97.6269627779021,30.1366491538403,0 -97.6268730354963,30.1367434227272,0 -97.626872986542,30.1367434740843,0 -97.6250941963819,30.1386071637747,0 -97.6246771076395,30.1390446129152,0 -97.6245728806012,30.1391636046411,0 -97.624544348547,30.1392060194559,0 -97.6245312472425,30.1392373128575,0 -97.6245255773873,30.1392685679348,0 -97.624527401589,30.1392925341718,0 -97.6245373038637,30.1393211483309,0 -97.6245507875922,30.1393415307113,0 -97.624570750674,30.1393587715546,0 -97.6245925369434,30.1393698000078,0 -97.6246166624838,30.1393769892806,0 -97.6246461850834,30.1393788,0 -97.6246809536958,30.1393788,0 -97.624718281989,30.1393735533966,0 -97.6247914477287,30.1393569857618,0 -97.6250801793351,30.1392801234169,0 -97.6258097080568,30.1390778986151,0 -97.6258101385947,30.1390777811491,0 -97.6266258385947,30.1388587811491,0 -97.6266271773626,30.1388584396835,0 -97.6279079773626,30.1385488396835,0 -97.6279092358307,30.138548551073,0 -97.6287004358307,30.138376851073,0 -97.6287013719817,30.1383766564218,0 -97.6298211719817,30.1381539564218,0 -97.6298226239367,30.1381536878736,0 -97.6311101239367,30.1379333878736,0 -97.6311116175836,30.137933153384,0 -97.6323695175836,30.137753353384,0 -97.6323707828726,30.1377531874827,0 -97.6326950788525,30.1377144879624,0 -97.6330507748627,30.1376719884391,0 -97.6330515152363,30.1376719050596,0 -97.6338079152363,30.1375919050596,0 -97.6338087561953,30.1375918226434,0 -97.6341411478429,30.1375618233972,0 -97.6342711946767,30.137550046324,0 -97.6346515500757,30.1375121706813,0 -97.634946851151,30.1374827705742,0 -97.6349470942062,30.1374827469205,0 -97.6356295810247,30.1374178576816,0 -97.6362702621452,30.1373542694805,0 -97.6364546675329,30.1373359280844,0 -97.6365027570405,30.1373283063511,0 -97.6365288214141,30.1373208182438,0 -97.6365387287843,30.1373148923401,0 -97.6365537678832,30.1373004746916,0 -97.6365596270341,30.1372913798902,0 -97.6365634037327,30.1372792944545,0 -97.6365639516501,30.1372702146801,0 -97.6365613414813,30.137257888883,0 -97.636553565807,30.1372407952517,0 -97.6365384031352,30.1372180135259,0 -97.6364248663018,30.1370961999937,0 -97.636424403296,30.1370956970037,0 -97.636188403296,30.1368360970037,0 -97.6361878795035,30.136835512507,0 -97.6360174795035,30.136642612507,0 -97.6360159105578,30.1366407552258,0 -97.6357490105578,30.1363102552258,0 -97.6357471909002,30.1363078718544,0 -97.6354936909002,30.1359563718544,0 -97.6354928779523,30.1359552135065,0 -97.6354222779523,30.1358518135065,0 -97.6354208019433,30.1358495327736,0 -97.6354194403554,30.135847181939,0 -97.6353948403554,30.135802181939,0 -97.6353934167048,30.1357993917396,0 -97.6353921542086,30.1357965250173,0 -97.635391056962,30.1357935910705,0 -97.6353803569619,30.1357622910705,0 -97.6353795190725,30.1357596197722,0 -97.6353788181997,30.1357569092979,0 -97.6353782561594,30.1357541666707,0 -97.6353778344079,30.1357513989967,0 -97.635377554038,30.1357486134471,0 -97.635374854038,30.1357126134471,0 -97.6353747090034,30.1357094951339,0 -97.63537474112,30.1357063736148,0 -97.63537604112,30.1356727736148,0 -97.6353762590545,30.1356695681258,0 -97.6353766637895,30.1356663808315,0 -97.6353772539441,30.1356632226085,0 -97.6353780275042,30.1356601042339,0 -97.6353861275042,30.1356311042339,0 -97.6353867957914,30.1356288920677,0 -97.6353875564155,30.135626709927,0 -97.6353996564155,30.135594209927,0 -97.6354006468403,30.1355917348658,0 -97.6354017560334,30.1355893107042,0 -97.6354029813892,30.1355869431375,0 -97.6354043200287,30.135584637728,0 -97.635405768807,30.1355823998919,0 -97.635423168807,30.1355568998919,0 -97.6354247337417,30.1355547224265,0 -97.6354264029458,30.1355526238237,0 -97.6354281724516,30.1355506090717,0 -97.6354495724516,30.1355274090717,0 -97.635451320974,30.1355255984278,0 -97.6354531505083,30.1355238696809,0 -97.6354550572226,30.1355222264516,0 -97.6354832572226,30.1354990264516,0 -97.6354855338243,30.1354972515993,0 -97.635487900412,30.1354955986387,0 -97.6354903504665,30.1354940721234,0 -97.6354928772385,30.1354926762584,0 -97.6355196772385,30.1354787762584,0 -97.6355221152019,30.1354775871415,0 -97.6355246088277,30.1354765196702,0 -97.6355271520506,30.1354755764409,0 -97.6355297386849,30.1354747597477,0 -97.6355619386849,30.1354654597477,0 -97.635564149996,30.1354648706317,0 -97.6355663838996,30.1354643740139,0 -97.6356012838996,30.1354573740139,0 -97.6356038257148,30.1354569259602,0 -97.6356063857513,30.1354565976476,0 -97.6356089583716,30.135456389799,0 -97.6356491583716,30.135454089799,0 -97.6356514548206,30.1354540064943,0 -97.635653752745,30.1354540191894,0 -97.635702952745,30.1354553191894,0 -97.6357045844567,30.1354553865579,0 -97.6359217009579,30.1354675818678,0 -97.6360835174434,30.1354761774316,0 -97.6360839502979,30.1354762021357,0 -97.6361773502979,30.1354819021357,0 -97.6361789334485,30.1354820217097,0 -97.6362433334485,30.1354878217097,0 -97.6362455904234,30.1354880720456,0 -97.636247835141,30.1354884153332,0 -97.636288035141,30.1354954153332,0 -97.6362909287244,30.135495999603,0 -97.6362937867922,30.1354967382809,0 -97.6363299867922,30.1355071382809,0 -97.6363324813928,30.1355079195973,0 -97.636334936051,30.1355088185634,0 -97.6363373452219,30.1355098331487,0 -97.6363709452219,30.1355249331487,0 -97.6363734546635,30.135526138139,0 -97.6363758999213,30.1355274685574,0 -97.6364120999213,30.1355483685574,0 -97.6364142744028,30.1355496920113,0 -97.6364163853183,30.1355511146623,0 -97.6364605853183,30.1355824146623,0 -97.6364627046647,30.1355839932602,0 -97.6364647457379,30.1355856718373,0 -97.6364667038257,30.1355874465183,0 -97.6364685744076,30.1355893132062,0 -97.6364940744076,30.1356160132062,0 -97.6364958260547,30.135617936351,0 -97.6364974848104,30.1356199401681,0 -97.6364990469642,30.1356220201752,0 -97.6365248469642,30.1356581201752,0 -97.6365263656301,30.1356603595986,0 -97.6365277723199,30.1356626710023,0 -97.6365290636291,30.135665048792,0 -97.6365302364324,30.1356674872127,0 -97.6365500364324,30.1357113872127,0 -97.6365506986045,30.1357129167891,0 -97.6366036128132,30.1358404100807,0 -97.6366384139302,30.1359223706658,0 -97.6366711685144,30.1359936942575,0 -97.6367022663321,30.1360516324536,0 -97.6367363013277,30.1360990351993,0 -97.6367729338245,30.1361358485973,0 -97.636861952328,30.1362186219275,0 -97.6368621152707,30.1362187740557,0 -97.6370407323654,30.1363862151087,0 -97.6370791689214,30.1364208925883,0 -97.6371190124864,30.1364500991835,0 -97.6371530411416,30.1364703939084,0 -97.6372008565623,30.1364921200958,0 -97.6372433182095,30.1365053948551,0 -97.6373003532471,30.1365172112495,0 -97.6373624618885,30.1365262627414,0 -97.6374460744842,30.1365360419924,0 -97.6375774055484,30.1365459928082,0 -97.6376156276759,30.1365477,0 -97.6376518285824,30.1365477,0 -97.6376726793698,30.1365445959993,0 -97.6376875031928,30.1365388756029,0 -97.6377039701522,30.1365297032176,0 -97.6377124053761,30.1365235334538,0 -97.6377174699701,30.1365169570407,0 -97.6377229696478,30.1365054311204,0 -97.6377268158944,30.1364941220072,0 -97.6377281088572,30.1364837285762,0 -97.6377272501727,30.1364684043618,0 -97.6377244345042,30.1364512287841,0 -97.6377190934426,30.136435205599,0 -97.6377036776849,30.1364055282047,0 -97.637560924981,30.136187840217,0 -97.6369519441726,30.1352748189164,0 -97.6369510568545,30.135273444759,0 -97.6368499568545,30.135111644759,0 -97.6368482007843,30.1351086250057,0 -97.6368136007843,30.1350445250057,0 -97.6368124507788,30.135042272048,0 -97.6368114055773,30.1350399685974,0 -97.6367926055773,30.1349958685974,0 -97.6367922638673,30.1349950487442,0 -97.6367667638673,30.1349324487442,0 -97.6367658044222,30.1349299167231,0 -97.6367649707559,30.1349273405504,0 -97.636764264889,30.1349247264698,0 -97.636749564889,30.1348644264698,0 -97.6367490157686,30.1348619215378,0 -97.6367485840075,30.1348593937325,0 -97.6367482705444,30.1348568485491,0 -97.6367415705444,30.1347895485491,0 -97.6367413123322,30.1347852646405,0 -97.6367399123322,30.1347191646405,0 -97.6367399193496,30.1347165412051,0 -97.6367400514587,30.1347139210888,0 -97.6367403083589,30.1347113102527,0 -97.6367484083589,30.1346452102527,0 -97.636748867955,30.1346421674926,0 -97.636760967955,30.1345748674926,0 -97.6367614748545,30.1345723793713,0 -97.6367620960543,30.1345699172978,0 -97.6367861960543,30.1344829172978,0 -97.6367871452978,30.1344798430865,0 -97.6367882726774,30.134476829641,0 -97.6368298726774,30.134374829641,0 -97.6368307298437,30.1343728408381,0 -97.6368977298437,30.1342254408381,0 -97.6368996021753,30.1342217052893,0 -97.6369372021753,30.1341533052893,0 -97.6369389178766,30.1341503991122,0 -97.6369778178766,30.1340888991122,0 -97.6369793069891,30.1340866672801,0 -97.6369809031705,30.1340845107237,0 -97.6370224031705,30.1340312107237,0 -97.6370248486808,30.1340282850241,0 -97.6370664486808,30.1339818850241,0 -97.6370688240522,30.1339793967317,0 -97.6370713503351,30.1339770618048,0 -97.6371046503351,30.1339481618048,0 -97.6371065340363,30.1339465991076,0 -97.6371084853958,30.1339451217623,0 -97.6371105005493,30.1339437326945,0 -97.6371449005493,30.1339211326945,0 -97.6371474087562,30.1339195795305,0 -97.6371499966354,30.1339181630908,0 -97.6372000966354,30.1338924630908,0 -97.6372021153482,30.133891479074,0 -97.6372041725493,30.1338905782889,0 -97.6375983725493,30.1337274782889,0 -97.6375996537751,30.1337269669054,0 -97.6377444537751,30.1336712669054,0 -97.6377453588455,30.1336709278518,0 -97.6378369588455,30.1336375278518,0 -97.6378371248294,30.133637467631,0 -97.6378853248295,30.133620067631,0 -97.6378871767081,30.1336194361112,0 -97.6379341767081,30.1336043361112,0 -97.6379365003172,30.1336036456958,0 -97.6379388520908,30.1336030583343,0 -97.6379412274608,30.1336025751676,0 -97.6379988274608,30.1335921751676,0 -97.6380018557361,30.1335917150671,0 -97.6380049049289,30.1335914242636,0 -97.6380747049289,30.1335867242636,0 -97.6380775491876,30.1335866065811,0 -97.6381486491876,30.1335855065811,0 -97.6381511550094,30.1335855249061,0 -97.6382275550094,30.1335878249061,0 -97.6382305189573,30.1335879942956,0 -97.6383539189573,30.1335983942956,0 -97.6383570781746,30.1335987527778,0 -97.6384802781746,30.1336163527778,0 -97.6384824823777,30.1336167134755,0 -97.6384846701186,30.1336171633687,0 -97.6385820701186,30.1336392633687,0 -97.6385833818762,30.1336395779688,0 -97.6387154818762,30.1336729779688,0 -97.6387187919699,30.1336739260585,0 -97.6388419919699,30.1337134260585,0 -97.638844690601,30.1337143693042,0 -97.638945490601,30.1337525693042,0 -97.6389465509502,30.1337529837433,0 -97.6390242509502,30.1337842837433,0 -97.6390265346555,30.1337852642277,0 -97.6390287717354,30.1337863468787,0 -97.6390945717354,30.1338200468787,0 -97.6390982543377,30.1338221151617,0 -97.6391719543377,30.1338673151617,0 -97.6391745497792,30.1338690093888,0 -97.6391770456608,30.1338708471311,0 -97.6392454456608,30.1339242471311,0 -97.6392481241551,30.1339264783987,0 -97.6392964241551,30.1339693783987,0 -97.6392990298968,30.133971849629,0 -97.6393014688109,30.1339744856423,0 -97.6393416688109,30.1340208856423,0 -97.6393423895197,30.1340217347256,0 -97.6394040895197,30.1340959347256,0 -97.639405260195,30.1340973922642,0 -97.6395629023601,30.1343006441019,0 -97.6396760227442,30.1344352970503,0 -97.6397844311567,30.1345615738844,0 -97.6397856612908,30.134563058662,0 -97.6398841468831,30.1346862649323,0 -97.6400095154643,30.1348303792902,0 -97.6401509157896,30.1349879112019,0 -97.6403661100406,30.1352195591375,0 -97.6404999827033,30.1353593292743,0 -97.6405447443185,30.1353970280938,0 -97.6405841573725,30.1354248752402,0 -97.6406156965375,30.1354413997496,0 -97.6406459558621,30.1354530186615,0 -97.640676201282,30.1354607888937,0 -97.6407108470473,30.1354657875364,0 -97.6407531587356,30.1354678023787,0 -97.6407948303118,30.1354646925596,0 -97.6408477124924,30.1354570842885,0 -97.6409185547498,30.135442723069,0 -97.6409966519466,30.1354234887346,0 -97.6410925925301,30.1353936838427,0 -97.64118794907,30.1353600689473,0 -97.6413725970554,30.1352871449315,0 -97.6413731622393,30.1352869253141,0 -97.6431034622393,30.1346255253141,0 -97.6431037882107,30.1346254018952,0 -97.6432846757185,30.1345575690798,0 -97.643318577959,30.1345425310781,0 -97.6433410962169,30.1345294688858,0 -97.6433576958665,30.1345168007322,0 -97.6433709408297,30.1345029217016,0 -97.6433791866193,30.1344915375891,0 -97.6433851022394,30.1344790770275,0 -97.6433908704364,30.1344623492561,0 -97.643393499795,30.1344490100711,0 -97.6433943122638,30.1344345106288,0 -97.6433926580602,30.134420970666,0 -97.6433882777843,30.1344042994668,0 -97.6433820090677,30.1343914105167,0 -97.6433669259237,30.1343704742123,0 -97.6433407858722,30.1343431976369,0 -97.643216501032,30.1342528261794,0</coordinates></LineString>
  </Placemark>
</Folder>
</Document></kml>
