<?xml version="1.0" encoding="utf-8" ?>
<kml xmlns="http://www.opengis.net/kml/2.2">
<Document id="root_doc">
<Schema name="cota_boundaries_w" id="cota_boundaries_w">
	<SimpleField name="FID" type="string"></SimpleField>
</Schema>
<Folder><name>cota_boundaries_w</name>
  <Placemark id="cota_boundaries_w.1">
	<Style><LineStyle><color>ff0000ff</color></LineStyle><PolyStyle><fill>0</fill></PolyStyle></Style>
	<ExtendedData><SchemaData schemaUrl="#cota_boundaries_w">
		<SimpleData name="FID">0</SimpleData>
	</SchemaData></ExtendedData>
      <LineString><coordinates>-97.6398604959657,30.1318466287445,0 -97.6376893965861,30.1303766291646,0 -97.6376876156702,30.1303754719864,0 -97.6374748156702,30.1302428719864,0 -97.6374724210319,30.1302414611052,0 -97.6372732210319,30.1301306611052,0 -97.6372710222712,30.1301295012381,0 -97.6370862222712,30.1300372012381,0 -97.6370830296391,30.130035729981,0 -97.6370315296391,30.130013929981,0 -97.6370291563316,30.1300129885616,0 -97.6370267425799,30.1300121562987,0 -97.6370242934015,30.1300114349222,0 -97.6369853934015,30.1300009349222,0 -97.6369828265334,30.1300003066504,0 -97.6369802328835,30.1299998001747,0 -97.6369776182275,30.1299994166232,0 -97.6369401182275,30.1299948166232,0 -97.6369375011353,30.1299945578075,0 -97.6369348747779,30.1299944221466,0 -97.6369322449475,30.1299944099396,0 -97.6369296174439,30.1299945212135,0 -97.6368947174439,30.1299968212135,0 -97.6368919205789,30.1299970761103,0 -97.6368891400105,30.1299974709081,0 -97.6368863827321,30.1299980046138,0 -97.6368836556787,30.1299986758851,0 -97.6368367556787,30.1300114758851,0 -97.636833650603,30.130012420823,0 -97.6368306054868,30.1300135440637,0 -97.6368276305591,30.1300148418339,0 -97.636798130559,30.1300287418339,0 -97.636795413337,30.1300301135987,0 -97.6367927746628,30.1300316309759,0 -97.6367902223324,30.1300332894823,0 -97.6367877638862,30.1300350842182,0 -97.6367622638862,30.1300547842182,0 -97.6367601301728,30.1300565178949,0 -97.6367580841178,30.1300583542028,0 -97.6367561306524,30.1300602887158,0 -97.6367542744851,30.1300623167717,0 -97.6367525200893,30.1300644334822,0 -97.6367324200893,30.1300899334822,0 -97.6367305789817,30.1300924063006,0 -97.6367288767472,30.1300949766909,0 -97.636727318545,30.1300976368627,0 -97.6367259090976,30.1301003787537,0 -97.6367246526767,30.1301031940538,0 -97.6367235530903,30.1301060742305,0 -97.6367226136709,30.1301090105547,0 -97.6367218372658,30.1301119941269,0 -97.6367151372658,30.1301409941269,0 -97.6367145891033,30.1301436607313,0 -97.6367141711835,30.130146350825,0 -97.6367138844941,30.1301490580506,0 -97.6367137297127,30.13015177601,0 -97.636713707205,30.1301544982801,0 -97.636714307205,30.1301918982801,0 -97.6367144333654,30.1301948625305,0 -97.6367147163425,30.1301978159388,0 -97.636715155342,30.1302007502149,0 -97.636721255342,30.1302352502149,0 -97.6367218841971,30.1302383073118,0 -97.6367226823937,30.1302413246255,0 -97.6367373823937,30.1302912246255,0 -97.6367380861104,30.130293442381,0 -97.6367850861104,30.130431542381,0 -97.6367865274427,30.1304353236415,0 -97.636861115361,30.1306115861454,0 -97.637186924495,30.1314473400265,0 -97.6372430661448,30.1315913384336,0 -97.6372628399405,30.131658250709,0 -97.6372765519498,30.1317242922234,0 -97.6372833150076,30.1317834232829,0 -97.6372835947499,30.1318429151399,0 -97.637280859944,30.1319114738958,0 -97.6372710074059,30.1319797971039,0 -97.6372536140289,30.1320474277347,0 -97.637227049927,30.1321214073302,0 -97.6371984520397,30.1321904235649,0 -97.6371642396409,30.1322568691328,0 -97.6371253264067,30.1323195468969,0 -97.6370814913071,30.1323804976536,0 -97.6370339730932,30.1324375946379,0 -97.6369770653203,30.1324933717928,0 -97.636919360808,30.1325421914937,0 -97.6368465600739,30.1325907888423,0 -97.636767100396,30.1326392611886,0 -97.6366665574053,30.1326929826885,0 -97.6364734101094,30.1327957014781,0 -97.6354640149628,30.1333270462833,0 -97.6354624729541,30.1333278891559,0 -97.6353217729541,30.1334076891559,0 -97.6353198826764,30.1334088108457,0 -97.6352487826764,30.1334529108457,0 -97.6352474563657,30.133453759544,0 -97.6351736563658,30.133502459544,0 -97.6351709161418,30.1335043878982,0 -97.6351682961534,30.1335064766868,0 -97.6351066961534,30.1335586766868,0 -97.6351047206888,30.1335604324495,0 -97.6351028302653,30.1335622794637,0 -97.6350451302653,30.1336213794637,0 -97.6350430008947,30.1336236864765,0 -97.635041004157,30.133626109195,0 -97.634994004157,30.133686509195,0 -97.6349916051835,30.133689836789,0 -97.6349514051835,30.133750136789,0 -97.63495001713,30.1337523271029,0 -97.6349487319607,30.1337545793255,0 -97.6349475524313,30.1337568886279,0 -97.6349062524313,30.1338425886279,0 -97.6349055265533,30.1338441562459,0 -97.6348663265533,30.1339323562459,0 -97.6348658037614,30.1339335709752,0 -97.6348334287407,30.134011310994,0 -97.634803336135,30.1340831005435,0 -97.6347688335713,30.1341561087307,0 -97.634730265,30.1342206369174,0 -97.6346870194345,30.1342772526471,0 -97.6346338120876,30.1343339641173,0 -97.6345701248141,30.1343859171674,0 -97.6344942841659,30.1344250695598,0 -97.6344031367256,30.1344628880881,0 -97.6342728260458,30.1345060633133,0 -97.6341419682551,30.1345464957814,0 -97.6341382353946,30.1345477951557,0 -97.6340604353946,30.1345779951557,0 -97.6340580057473,30.1345790045813,0 -97.6340556261933,30.1345801270111,0 -97.6339885261933,30.1346137270111,0 -97.6339863486845,30.134614877962,0 -97.6339842238902,30.134616123547,0 -97.6339821559206,30.1346174613566,0 -97.6339205559206,30.1346592613566,0 -97.6339184532478,30.1346607601135,0 -97.6339164218994,30.1346623542053,0 -97.6338600218994,30.1347087542053,0 -97.6338569982145,30.1347114302803,0 -97.6338033982145,30.1347624302803,0 -97.6338011774481,30.1347646656908,0 -97.6337990859297,30.1347670224713,0 -97.6337601859297,30.1348134224713,0 -97.6337583804771,30.134815692964,0 -97.63375669502,30.1348180539025,0 -97.6337551340808,30.1348204989517,0 -97.6337537018481,30.1348230215507,0 -97.6337215018481,30.1348833215507,0 -97.6337200441435,30.134886254705,0 -97.6337187604174,30.134889268066,0 -97.6336946604174,30.134950768066,0 -97.6336935140105,30.1349539778246,0 -97.6336925649929,30.13495725138,0 -97.6336764649929,30.13501985138,0 -97.6336759185318,30.1350221814485,0 -97.6336754721279,30.135024532738,0 -97.6336606721279,30.135112732738,0 -97.6336605077337,30.1351137721915,0 -97.6336407440477,30.1352468277138,0 -97.6336205920968,30.1353747188755,0 -97.6335976777458,30.1354737925422,0 -97.6335736475544,30.1355408618824,0 -97.6335329416921,30.1356119589994,0 -97.6334853279184,30.1356823526962,0 -97.6334174141574,30.135757395526,0 -97.6333431724562,30.1358248619563,0 -97.6332772066729,30.1358764420881,0 -97.6331934924885,30.1359299154835,0 -97.6331142821124,30.1359748465525,0 -97.6330380095785,30.1360128381813,0 -97.6329480154437,30.1360512266081,0 -97.6328419573609,30.1360912649886,0 -97.6327504945144,30.1361171380902,0 -97.6326694623626,30.136133571184,0 -97.6325944256696,30.1361412550931,0 -97.632533400824,30.1361445716608,0 -97.6324737830955,30.1361434607715,0 -97.6324191199076,30.136137067958,0 -97.6323634371956,30.1361272527002,0 -97.6323073959632,30.1361137352171,0 -97.6322433416751,30.1360932983984,0 -97.6320052147335,30.136000032013,0 -97.6316808061623,30.1358702086198,0 -97.6316803904778,30.135870044191,0 -97.6313710683031,30.1357491137123,0 -97.6313025456508,30.1357217844449,0 -97.6312999039122,30.1357208070914,0 -97.6312557039122,30.1357057070914,0 -97.6312533194924,30.1357049515344,0 -97.6312509037122,30.1357043032056,0 -97.6312484613911,30.1357037633985,0 -97.6312135613911,30.1356968633985,0 -97.6312094172152,30.1356962043255,0 -97.6311705172152,30.1356915043255,0 -97.6311676673136,30.1356912336963,0 -97.6311648073057,30.1356911090602,0 -97.6311619446655,30.135691130743,0 -97.6311257446655,30.135692330743,0 -97.6311232989035,30.1356924654178,0 -97.6311208613705,30.135692706917,0 -97.6311184367301,30.1356930547786,0 -97.6310768367301,30.1356999547786,0 -97.6310737203696,30.1357005629185,0 -97.6310706434854,30.1357013467043,0 -97.631067615969,30.1357023036163,0 -97.631020715969,30.1357186036163,0 -97.6310185995201,30.1357193873305,0 -97.6310165163686,30.1357202556872,0 -97.6309541163686,30.1357477556872,0 -97.6309520189168,30.1357487322755,0 -97.6309499635946,30.1357497946687,0 -97.6307977635946,30.1358324946687,0 -97.6307951088488,30.1358340328181,0 -97.6307925423287,30.1358357140538,0 -97.6306758423287,30.1359168140538,0 -97.6306747634653,30.1359175828862,0 -97.6305715634653,30.1359929828862,0 -97.6305693126864,30.1359947166066,0 -97.6304807126864,30.1360666166066,0 -97.630478844665,30.1360682015384,0 -97.6304770477496,30.1360698666533,0 -97.6303608477496,30.1361823666533,0 -97.6303579832977,30.1361853526725,0 -97.6303041832977,30.1362457526725,0 -97.6303022099927,30.1362480939079,0 -97.6302523099927,30.1363106939079,0 -97.6302517337921,30.1363114292582,0 -97.6302095501239,30.1363661991957,0 -97.6301625645729,30.1364221839953,0 -97.6301231207682,30.1364603812689,0 -97.6300695287026,30.1364995754662,0 -97.6300176960778,30.1365261067419,0 -97.6299588623816,30.136547210133,0 -97.6298901400333,30.1365656478362,0 -97.6298127659103,30.136577879434,0 -97.6297457395116,30.1365806189326,0 -97.6296701594787,30.1365752599572,0 -97.6296062191063,30.1365635176793,0 -97.6295467448749,30.1365464326905,0 -97.6295056892491,30.136530766728,0 -97.6294671156591,30.1365119744662,0 -97.6294289336631,30.1364892788742,0 -97.6293995540844,30.1364669818725,0 -97.6293638769795,30.1364353506249,0 -97.6293359465441,30.1364066970715,0 -97.6293032125527,30.1363673227561,0 -97.6292677060988,30.1363202339829,0 -97.6292445474938,30.13628498454,0 -97.6292245364906,30.1362510528389,0 -97.6292228722696,30.1362484029952,0 -97.6292210626394,30.1362458502435,0 -97.6292191132501,30.1362434025539,0 -97.6291976132501,30.1362179025539,0 -97.6291956794791,30.1362157264035,0 -97.6291936352305,30.1362136536883,0 -97.629191486029,30.1362116900097,0 -97.6291892376828,30.1362098406748,0 -97.6291624376828,30.1361889406747,0 -97.6291590922541,30.1361865245587,0 -97.6291220922541,30.1361618245587,0 -97.6291194611386,30.1361601717553,0 -97.6291167424023,30.1361586674279,0 -97.6291139444151,30.1361573162079,0 -97.6290785444151,30.1361414162079,0 -97.629075958954,30.1361403318776,0 -97.6290733224633,30.1361393783067,0 -97.6290706415512,30.1361385578853,0 -97.6290290415512,30.1361269578853,0 -97.6290256723388,30.1361261299671,0 -97.629022258324,30.136125512275,0 -97.628983358324,30.136119712275,0 -97.6289805678781,30.136119367583,0 -97.6289777636484,30.1361191633843,0 -97.6289294636484,30.1361168633843,0 -97.6289267514273,30.1361168000211,0 -97.6289240393202,30.1361168680892,0 -97.6289213336924,30.1361170674289,0 -97.6288744336924,30.1361216674289,0 -97.6288715534389,30.136122025503,0 -97.6288098534389,30.136131325503,0 -97.6288071433338,30.1361318023668,0 -97.6286793721955,30.1361575361323,0 -97.6273002223172,30.1364181510738,0 -97.6271718429054,30.136441828833,0 -97.6271709356719,30.1364420039105,0 -97.6271064356719,30.1364550039105,0 -97.6271022879079,30.1364560057308,0 -97.6270526879079,30.1364700057308,0 -97.6270489048069,30.1364712199977,0 -97.6270073048069,30.1364862199977,0 -97.627004872641,30.1364871615396,0 -97.6270024869507,30.1364882153013,0 -97.6270001529105,30.1364893789973,0 -97.6269626529105,30.1365091789973,0 -97.6269598841319,30.1365107430133,0 -97.6269572085948,30.1365124616705,0 -97.6269250085948,30.1365344616705,0 -97.6269229788185,30.1365359158939,0 -97.6269210158854,30.1365374591537,0 -97.6269191236978,30.1365390883817,0 -97.6268869236978,30.1365680883817,0 -97.626883840222,30.1365710877687,0 -97.6267926651274,30.1366668616071,0 -97.6250138900663,30.1385305354778,0 -97.6245959700531,30.1389688564572,0 -97.6245943748828,30.1389706018361,0 -97.6244870748828,30.1390931018361,0 -97.6244848151086,30.13909585353,0 -97.6244827347762,30.1390987432731,0 -97.6244492347762,30.1391485432731,0 -97.6244477619466,30.1391508527543,0 -97.6244464038095,30.1391532314923,0 -97.6244451636144,30.1391556737958,0 -97.6244440443284,30.1391581738217,0 -97.6244265443284,30.1391999738217,0 -97.624425447517,30.1392028070349,0 -97.6244245059704,30.1392056955609,0 -97.6244237224597,30.139208630898,0 -97.6244230992912,30.1392116044066,0 -97.6244150992912,30.1392557044066,0 -97.6244146607726,30.1392585310239,0 -97.6244143671601,30.1392613763457,0 -97.6244142192197,30.1392642329482,0 -97.6244142173375,30.1392670933784,0 -97.6244143615184,30.1392699501731,0 -97.6244172615184,30.1393080501731,0 -97.6244175539015,30.139310915542,0 -97.6244179932236,30.1393137620878,0 -97.6244185783226,30.1393165822803,0 -97.6244193076506,30.1393193686592,0 -97.6244201792784,30.1393221138535,0 -97.6244346792784,30.1393640138535,0 -97.6244356660946,30.1393666492118,0 -97.6244367840525,30.1393692316698,0 -97.6244380303291,30.1393717547065,0 -97.6244394017773,30.1393742119507,0 -97.624440894934,30.1393765971975,0 -97.624462394934,30.1394090971975,0 -97.6244641573296,30.1394116089267,0 -97.624466054651,30.1394140203564,0 -97.6244680812021,30.1394163242471,0 -97.6244702308987,30.1394185136821,0 -97.6244724972873,30.1394205820884,0 -97.6245032972873,30.1394471820884,0 -97.6245054061115,30.1394489154356,0 -97.6245075968987,30.1394505439575,0 -97.6245098644431,30.1394520637845,0 -97.6245122033568,30.1394534713052,0 -97.6245146080821,30.1394547631753,0 -97.6245468080821,30.1394710631753,0 -97.624549832261,30.1394724823686,0 -97.6245529356819,30.1394737187126,0 -97.6245561073009,30.1394747678076,0 -97.6245910073009,30.1394851678076,0 -97.6245940955743,30.1394859928968,0 -97.624597225895,30.1394866404286,0 -97.6246003880632,30.1394871082934,0 -97.6246035717754,30.1394873949665,0 -97.6246410717754,30.1394896949665,0 -97.6246445,30.1394898,0 -97.6246848,30.1394898,0 -97.6246874056398,30.1394897393479,0 -97.6246900056355,30.1394895575229,0 -97.624692594355,30.1394892549189,0 -97.624735994355,30.1394831549189,0 -97.6247382896341,30.1394827835664,0 -97.6247405675196,30.1394823172542,0 -97.6248169675196,30.1394650172542,0 -97.6248190058783,30.139464515346,0 -97.6251090058783,30.139387315346,0 -97.6251095590695,30.1393871650465,0 -97.6258391401291,30.1391849257366,0 -97.6266539413326,30.1389661670464,0 -97.6279334186446,30.1386568867717,0 -97.6287235005204,30.1384854294183,0 -97.6298420857314,30.1382629710092,0 -97.6311280859579,30.1380429276306,0 -97.6323845807476,30.1378633284867,0 -97.6327082356206,30.1378247054722,0 -97.6330635671462,30.1377822494991,0 -97.633819162139,30.13770233464,0 -97.6341511336921,30.1376723733085,0 -97.6342814507052,30.1376605717704,0 -97.6342819490138,30.1376605243972,0 -97.6346625483582,30.1376226244625,0 -97.6349577242085,30.1375932368228,0 -97.6356402004446,30.13752834859,0 -97.6356404308776,30.1375283262002,0 -97.6362812308776,30.1374647262002,0 -97.6364672425444,30.1374462250411,0 -97.6364704660561,30.1374458096398,0 -97.6365234660561,30.1374374096398,0 -97.6365268372736,30.1374367688814,0 -97.6365301629157,30.1374359228412,0 -97.6365663629157,30.1374255228412,0 -97.6365691319753,30.1374246489856,0 -97.6365718520173,30.1374236327736,0 -97.6365745157285,30.1374224769374,0 -97.6365771159475,30.1374211845845,0 -97.6365796456834,30.1374197591894,0 -97.6366010456834,30.1374069591894,0 -97.6366037051397,30.1374052650429,0 -97.6366062650244,30.1374034238938,0 -97.6366087172214,30.1374014415795,0 -97.6366110539559,30.137399324385,0 -97.6366352539559,30.137376124385,0 -97.6366375528848,30.1373737875393,0 -97.6366397111406,30.1373713201815,0 -97.6366417213276,30.1373687307664,0 -97.6366435765577,30.137366028167,0 -97.6366569765577,30.137345228167,0 -97.6366585416654,30.1373426486646,0 -97.6366599655727,30.1373399886115,0 -97.6366612441463,30.1373372557294,0 -97.6366623736746,30.1373344579516,0 -97.6366633508788,30.1373316033996,0 -97.6366713508788,30.1373060033996,0 -97.6366720981423,30.1373033911805,0 -97.6366727178244,30.1373007457909,0 -97.6366732084662,30.1372980734582,0 -97.6366735689128,30.1372953804729,0 -97.6366737983157,30.1372926731742,0 -97.6366751983157,30.1372694731742,0 -97.6366752988239,30.1372664629356,0 -97.636675237342,30.1372634516471,0 -97.6366750140478,30.1372604480196,0 -97.6366746295872,30.1372574607419,0 -97.6366740850724,30.1372544984552,0 -97.6366686850724,30.1372289984552,0 -97.6366679709247,30.1372260282774,0 -97.6366670958753,30.1372231014614,0 -97.6366660625281,30.1372202267168,0 -97.636664873958,30.1372174125981,0 -97.636652773958,30.1371908125981,0 -97.63665146258,30.1371881228258,0 -97.6366500093947,30.1371855069436,0 -97.6366484185515,30.137182972421,0 -97.6366283185515,30.137152772421,0 -97.6366265646761,30.1371502864081,0 -97.6366246783764,30.1371478993153,0 -97.63662266522,30.1371456181882,0 -97.6365063025233,30.1370207727906,0 -97.6362708054253,30.1367617259828,0 -97.6361014895996,30.1365700533139,0 -97.6358363268917,30.136241704588,0 -97.6355841416258,30.1358920275822,0 -97.6355155090705,30.1357915090806,0 -97.6354945377745,30.1357531469537,0 -97.6354877072303,30.1357331660161,0 -97.6354857811645,30.1357074851382,0 -97.6354867039912,30.1356836336176,0 -97.6354924022437,30.1356632324667,0 -97.6355013011931,30.1356393303298,0 -97.6355125445573,30.1356228529857,0 -97.6355285517712,30.1356054993706,0 -97.6355492212816,30.1355884946671,0 -97.6355658633505,30.1355798631463,0 -97.6355904987883,30.1355727479422,0 -97.6356192410842,30.1355669830118,0 -97.6356531612981,30.135565042303,0 -97.6356991896426,30.1355662584991,0 -97.6359155594623,30.1355784118684,0 -97.6359157295122,30.1355784211606,0 -97.6360774091002,30.1355870094525,0 -97.6361697819413,30.1355926467672,0 -97.6362310725962,30.135598166733,0 -97.6362660290102,30.1356042536708,0 -97.6362954929895,30.1356127184604,0 -97.6363228570799,30.1356250160129,0 -97.6363543536671,30.1356432005066,0 -97.6363920310295,30.1356698815348,0 -97.636411053598,30.135689799283,0 -97.6364313249544,30.1357181634678,0 -97.6364485030901,30.1357562503443,0 -97.6365011777845,30.135883166542,0 -97.636501354197,30.1358835867583,0 -97.636536554197,30.1359664867583,0 -97.6365372098438,30.1359679707511,0 -97.6365710098438,30.1360415707511,0 -97.6365725582291,30.136044683762,0 -97.6366061582292,30.136107283762,0 -97.6366079840733,30.1361104350588,0 -97.6366100108961,30.1361134610078,0 -97.6366487108961,30.1361673610078,0 -97.6366505193919,30.1361697428948,0 -97.6366524524672,30.1361720248376,0 -97.6366545046087,30.136174200328,0 -97.6366950046087,30.136214900328,0 -97.6366965667206,30.1362164104011,0 -97.6367862836105,30.1362998331217,0 -97.6369652008153,30.136467555507,0 -97.6369659874535,30.1364682789472,0 -97.6370068874535,30.1365051789472,0 -97.6370090444747,30.1365070279499,0 -97.6370112924953,30.1365087651761,0 -97.6370554924953,30.1365411651761,0 -97.6370576693267,30.1365426829032,0 -97.637059915615,30.1365440958008,0 -97.637098815615,30.1365672958008,0 -97.637101534719,30.1365688165717,0 -97.6371043341885,30.1365701837737,0 -97.6371580341885,30.1365945837737,0 -97.6371612241812,30.1365959160268,0 -97.6371644902996,30.1365970489094,0 -97.6372127902996,30.1366121489094,0 -97.6372154476846,30.1366129082321,0 -97.6372181392965,30.1366135355215,0 -97.6372794392965,30.1366262355215,0 -97.6372827240718,30.1366268146135,0 -97.6373472240718,30.1366362146135,0 -97.6373487946361,30.1366364208616,0 -97.6374342946361,30.1366464208616,0 -97.6374365690666,30.1366466399427,0 -97.6375698690666,30.1366567399427,0 -97.6375716012505,30.1366568442245,0 -97.6376119012505,30.1366586442245,0 -97.6376144,30.1366587,0 -97.6376559,30.1366587,0 -97.6376586574818,30.1366586320686,0 -97.6376614082737,30.1366584284391,0 -97.6376641457018,30.1366580896055,0 -97.6376950457018,30.1366534896055,0 -97.6376980850312,30.1366529511447,0 -97.6377010900757,30.1366522460408,0 -97.6377040517055,30.1366513764362,0 -97.6377069609231,30.1366503449728,0 -97.6377310609231,30.1366410449728,0 -97.6377334749824,30.1366400481236,0 -97.6377358399369,30.1366389398,0 -97.6377381506423,30.136637722413,0 -97.6377609506423,30.136625022413,0 -97.6377639128895,30.1366232506236,0 -97.6377667603533,30.1366212997018,0 -97.6377842603533,30.1366084997018,0 -97.6377867646642,30.1366065568452,0 -97.6377891550428,30.1366044754141,0 -97.6377914238312,30.1366022620764,0 -97.6377935637615,30.1365999239226,0 -97.6377955679783,30.1365974684431,0 -97.6378089679783,30.1365800684431,0 -97.6378107081619,30.1365776810857,0 -97.6378123200231,30.1365752052793,0 -97.6378137990761,30.1365726479142,0 -97.6378151412045,30.1365700161077,0 -97.6378245412045,30.1365503161077,0 -97.6378258687208,30.1365473100878,0 -97.6378270176331,30.1365442313777,0 -97.6378337176331,30.1365245313777,0 -97.637834568143,30.1365218043514,0 -97.6378352784851,30.1365190375023,0 -97.6378358468111,30.1365162380299,0 -97.6378362716421,30.1365134132186,0 -97.6378388716421,30.1364925132186,0 -97.6378391858804,30.1364891732862,0 -97.6378392995658,30.1364858205307,0 -97.6378392122903,30.1364824669837,0 -97.6378379122903,30.1364592669837,0 -97.6378376662432,30.1364562951357,0 -97.6378372623493,30.1364533405985,0 -97.6378332623492,30.1364289405985,0 -97.6378327037842,30.1364260210185,0 -97.6378319910866,30.1364231351904,0 -97.6378311262647,30.1364202912451,0 -97.6378230262647,30.1363959912451,0 -97.6378220249352,30.1363932307271,0 -97.6378208802767,30.136390526494,0 -97.6378195954369,30.1363878859814,0 -97.6378008954369,30.1363518859814,0 -97.6377995242592,30.1363494021914,0 -97.6377980290451,30.1363469910349,0 -97.6376536290451,30.1361267910349,0 -97.6376533877515,30.1361264261942,0 -97.6370447498813,30.1352139190475,0 -97.6369450340471,30.1350543342603,0 -97.6369125035275,30.1349940681821,0 -97.6368948916531,30.1349527552214,0 -97.6368711253253,30.1348944112168,0 -97.6368583358754,30.1348419483711,0 -97.6368522411434,30.1347807281527,0 -97.6368509724401,30.1347208272328,0 -97.636858393592,30.1346602669685,0 -97.6368697583995,30.1345970560969,0 -97.6368922919942,30.1345157107549,0 -97.6369322368357,30.1344177690763,0 -97.6369978996281,30.1342733109331,0 -97.6370336461141,30.1342082827512,0 -97.6370701656384,30.1341505462282,0 -97.6371087925387,30.1341009362573,0 -97.6371467543069,30.1340585942852,0 -97.6371745775694,30.1340344473697,0 -97.6372033353398,30.1340155541833,0 -97.6372487239832,30.133992270987,0 -97.6376401607728,30.1338303142635,0 -97.6377838460007,30.1337750430813,0 -97.6378748992689,30.1337418424354,0 -97.6379220776641,30.1337248112305,0 -97.6379645990529,30.1337111501035,0 -97.6380154775524,30.1337019637077,0 -97.6380807158189,30.1336975708732,0 -97.6381490903781,30.1336965130389,0 -97.6382227036524,30.1336987291454,0 -97.6383429834556,30.133708866179,0 -97.6384623277368,30.133725915362,0 -97.6385568388385,30.1337473598728,0 -97.6386865727446,30.1337801616325,0 -97.6388067163892,30.1338186817134,0 -97.6389056130265,30.1338561603994,0 -97.6389804264081,30.1338862975788,0 -97.6390420571759,30.133917862273,0 -97.6391112294591,30.1339602854372,0 -97.639175739349,30.1340106484214,0 -97.6392199735388,30.1340499371738,0 -97.6392574041096,30.1340931406187,0 -97.6393181329872,30.1341661727535,0 -97.6394758496196,30.1343695206037,0 -97.639477222395,30.1343712209799,0 -97.639591222395,30.1345069209799,0 -97.639591610095,30.1345073774995,0 -97.6396995705932,30.1346331325919,0 -97.6397981575948,30.134756465726,0 -97.6397996496037,30.1347582546462,0 -97.6399260496037,30.1349035546462,0 -97.6399266257899,30.1349042066867,0 -97.6400686257899,30.1350624066867,0 -97.640069271743,30.1350631140674,0 -97.640285071743,30.1352954140674,0 -97.6402856580066,30.1352960355802,0 -97.6404218580066,30.1354382355802,0 -97.6404239870431,30.1354403425922,0 -97.6404262256954,30.1354423327509,0 -97.6404750256954,30.1354834327509,0 -97.6404768747903,30.1354849242036,0 -97.6404787854773,30.1354863358899,0 -97.6405230854773,30.1355176358899,0 -97.6405251362295,30.1355190179817,0 -97.6405272460015,30.1355203081849,0 -97.6405294106788,30.1355215039836,0 -97.6405670106788,30.1355412039836,0 -97.6405699296531,30.1355426270428,0 -97.6405729262067,30.1355438785121,0 -97.6406091262067,30.1355577785121,0 -97.6406121677551,30.1355588470021,0 -97.6406152657482,30.1355597387005,0 -97.6406514657482,30.1355690387005,0 -97.6406544184147,30.1355697127015,0 -97.6406574032013,30.1355702260878,0 -97.6406976032013,30.1355760260878,0 -97.6407002636677,30.1355763451662,0 -97.6407029363516,30.1355765366157,0 -97.6407512363516,30.1355788366157,0 -97.6407546533365,30.1355788949327,0 -97.6407580675158,30.1355787447116,0 -97.6408049675158,30.1355752447116,0 -97.6408087747259,30.135574829268,0 -97.6408650747259,30.135566729268,0 -97.6408682260652,30.1355661836102,0 -97.6409417260652,30.1355512836102,0 -97.6409439918998,30.1355507751508,0 -97.6410247918998,30.1355308751508,0 -97.6410280137247,30.1355299788197,0 -97.6411265137247,30.1354993788197,0 -97.6411285180504,30.1354987144696,0 -97.6412258180504,30.1354644144696,0 -97.6412277702709,30.1354636851606,0 -97.6414130831572,30.1353904985519,0 -97.6431429290601,30.1347292721287,0 -97.6433251629127,30.1346609344339,0 -97.6433282063497,30.1346596900546,0 -97.6433663063496,30.1346427900546,0 -97.643369039752,30.1346414880649,0 -97.6433716987928,30.1346400402502,0 -97.6433997987928,30.1346237402502,0 -97.6434027981707,30.1346218714911,0 -97.6434056737059,30.1346198172698,0 -97.6434284737059,30.1346024172698,0 -97.6434307544646,30.1346005803678,0 -97.6434329360776,30.1345986267472,0 -97.6434350125789,30.1345965617505,0 -97.6434538125789,30.1345768617505,0 -97.6434555127289,30.134574997901,0 -97.643457127209,30.1345730593711,0 -97.6434586527428,30.1345710500947,0 -97.6434720527428,30.1345525500947,0 -97.6434735124422,30.1345504342685,0 -97.6434748735094,30.1345482536862,0 -97.6434761330767,30.1345460129423,0 -97.6434772884902,30.1345437167579,0 -97.6434866884902,30.134523916758,0 -97.6434879447786,30.1345210688198,0 -97.643489040887,30.1345181554783,0 -97.643497040887,30.1344949554783,0 -97.643497821386,30.1344925117895,0 -97.6434984891524,30.1344900349203,0 -97.643499042785,30.1344875300682,0 -97.643503142785,30.1344667300682,0 -97.6435035844531,30.1344641802385,0 -97.6435039078518,30.134461612727,0 -97.6435041122903,30.1344590330163,0 -97.6435054122903,30.1344358330163,0 -97.6435054997122,30.1344325204719,0 -97.6435053910531,30.1344292085561,0 -97.6435050866935,30.1344259088655,0 -97.6435023866935,30.1344038088655,0 -97.6435020237838,30.1344013084068,0 -97.6435015484543,30.134398826863,0 -97.6435009616726,30.134396369286,0 -97.6434942616726,30.134370869286,0 -97.6434935007284,30.1343682369573,0 -97.6434926119325,30.134365645002,0 -97.6434915974129,30.1343630996257,0 -97.6434904595985,30.1343606069226,0 -97.6434797595985,30.1343386069226,0 -97.6434782767493,30.1343357675398,0 -97.6434766339763,30.1343330175884,0 -97.6434748366545,30.1343303660661,0 -97.6434547366545,30.1343024660661,0 -97.643453162265,30.1343003847489,0 -97.643451492618,30.1342983790415,0 -97.6434497313395,30.1342964532997,0 -97.6434175313395,30.1342628532997,0 -97.6434151630156,30.1342605243765,0 -97.6434126607813,30.1342583399626,0 -97.6434100334397,30.1342563077429,0 -97.6432810334396,30.1341625077429,0 -97.6432794954393,30.1341614283881,0</coordinates></LineString>
  </Placemark>
</Folder>
</Document></kml>
