<?xml version="1.0" encoding="utf-8" ?>
<kml xmlns="http://www.opengis.net/kml/2.2">
<Document id="root_doc">
<Schema name="cota_boundaries_w" id="cota_boundaries_w">
	<SimpleField name="FID" type="string"></SimpleField>
</Schema>
<Folder><name>cota_boundaries_w</name>
  <Placemark id="cota_boundaries_w.1">
	<Style><LineStyle><color>ff0000ff</color></LineStyle><PolyStyle><fill>0</fill></PolyStyle></Style>
	<ExtendedData><SchemaData schemaUrl="#cota_boundaries_w">
		<SimpleData name="FID">0</SimpleData>
	</SchemaData></ExtendedData>
      <LineString><coordinates>-97.6397977045606,30.1319393716119,0 -97.6376274828983,30.1304699663133,0 -97.6374167641376,30.1303386631758,0 -97.6372198654732,30.130229143236,0 -97.6370377509444,30.1301381845184,0 -97.6369914030212,30.1301185653975,0 -97.6369600403542,30.1301100998961,0 -97.6369317182491,30.1301066257179,0 -97.6369077067754,30.1301082081359,0 -97.6368709535855,30.1301182388573,0 -97.6368513989218,30.1301274527496,0 -97.6368362032119,30.1301391921805,0 -97.6368281406698,30.1301494207786,0 -97.6368258025183,30.1301595411361,0 -97.6368262212483,30.130185641976,0 -97.6368310006054,30.1302126727658,0 -97.6368444887891,30.1302584591855,0 -97.6368904615781,30.1303935409334,0 -97.6369645725574,30.1305686763585,0 -97.636965175505,30.1305701599735,0 -97.6372912751353,30.131406659025,0 -97.6373482748293,30.1315528582403,0 -97.6373490866296,30.1315550777184,0 -97.6373498040625,30.1315573294717,0 -97.6373709040625,30.1316287294717,0 -97.6373715136812,30.1316309609374,0 -97.6373720306225,30.1316332156758,0 -97.6373867306225,30.1317040156758,0 -97.6373871909701,30.1317065169471,0 -97.6373875372751,30.1317090365404,0 -97.6373949372751,30.1317737365404,0 -97.6373952015981,30.1317767816673,0 -97.6373952993809,30.13177983668,0 -97.6373955993809,30.13184363668,0 -97.6373955554993,30.1318461320626,0 -97.6373926554993,30.1319188320626,0 -97.6373924655195,30.1319217192616,0 -97.6373921266655,30.1319245927941,0 -97.6373814266655,30.1319987927941,0 -97.6373809116771,30.1320017867063,0 -97.6373802350929,30.1320047482866,0 -97.6373614350929,30.1320778482865,0 -97.637360728038,30.1320803544568,0 -97.6373599052421,30.1320828250483,0 -97.6373320052421,30.1321605250483,0 -97.63733103449,30.1321630369434,0 -97.63730103449,30.1322354369434,0 -97.6373001045345,30.1322375563001,0 -97.6372990878015,30.1322396354212,0 -97.6372627878015,30.1323101354212,0 -97.6372617212437,30.1323121087017,0 -97.6372605765178,30.132314037687,0 -97.6372194765178,30.132380237687,0 -97.6372173634052,30.1323833967703,0 -97.6371712634052,30.1324474967703,0 -97.6371688435942,30.1324506224649,0 -97.6371182435942,30.1325114224649,0 -97.6371163739936,30.1325135565837,0 -97.6371143987026,30.1325155932709,0 -97.6370539987026,30.1325747932709,0 -97.6370509696593,30.1325775522601,0 -97.6369892696593,30.1326297522601,0 -97.6369867848026,30.1326317362725,0 -97.6369841913423,30.13263357605,0 -97.6369077913423,30.13268457605,0 -97.6369058633672,30.1326858068825,0 -97.6368240633672,30.1327357068825,0 -97.6368212906332,30.1327372916438,0 -97.6367192906332,30.1327917916438,0 -97.6367191945086,30.1327918428844,0 -97.6365258945086,30.1328946428844,0 -97.6365256850372,30.1328947537167,0 -97.6355169626549,30.1334257443793,0 -97.6353779831936,30.1335045685514,0 -97.6353084864456,30.1335476741293,0 -97.6352381440837,30.1335940924629,0 -97.6351811218791,30.1336424132272,0 -97.6351274655261,30.1336973714675,0 -97.63508365631,30.1337536709708,0 -97.6350467560762,30.1338090213215,0 -97.6350075225989,30.1338904331618,0 -97.6349689420147,30.1339772394761,0 -97.6349367962386,30.1340544290248,0 -97.6349367461405,30.1340545489301,0 -97.6349061461405,30.1341275489301,0 -97.6349051308326,30.1341298273648,0 -97.6348689308327,30.1342064273648,0 -97.6348677079594,30.1342088600748,0 -97.6348663682859,30.1342112304697,0 -97.6348247682859,30.1342808304697,0 -97.6348230601481,30.1342835123649,0 -97.6348212025476,30.1342860929883,0 -97.6347743025476,30.1343474929883,0 -97.6347725257807,30.1343497009346,0 -97.6347706395844,30.134351816163,0 -97.6347129395844,30.134413316163,0 -97.6347112014104,30.1344150883986,0 -97.6347093864043,30.1344167818628,0 -97.6347074981324,30.1344183932278,0 -97.6346363981324,30.1344763932278,0 -97.6346340980928,30.1344781720738,0 -97.6346317088227,30.1344798291385,0 -97.6346292367633,30.1344813599545,0 -97.6346266885793,30.1344827603948,0 -97.6345435885793,30.1345256603948,0 -97.6345414953728,30.1345266863996,0 -97.6345393612792,30.1345276243994,0 -97.6344441612792,30.1345671243994,0 -97.6344403126569,30.1345685582008,0 -97.6343075126569,30.1346125582008,0 -97.6343064317449,30.1346129042186,0 -97.6341769211172,30.13465292044,0 -97.634103419327,30.1346814519832,0 -97.6340419823141,30.1347122162699,0 -97.6339855824523,30.1347504876046,0 -97.6339327382134,30.1347939622976,0 -97.6338828872783,30.1348413950903,0 -97.6338497551909,30.1348809151124,0 -97.6338218429948,30.1349331854671,0 -97.6338001848673,30.1349884541329,0 -97.6337855315425,30.1350454291719,0 -97.633771214953,30.135130748307,0 -97.6337514922663,30.1352635278085,0 -97.6337514174813,30.1352640164363,0 -97.6337309174813,30.1353941164363,0 -97.633730159723,30.1353980188995,0 -97.633706059723,30.1355022188995,0 -97.6337052305761,30.1355053805322,0 -97.6337042183852,30.1355084884054,0 -97.6336774183852,30.1355832884054,0 -97.6336762206226,30.1355863459664,0 -97.6336748457035,30.135589328065,0 -97.6336732983554,30.135592224447,0 -97.6336290983554,30.135669424447,0 -97.6336268855505,30.1356729748419,0 -97.6335758855505,30.1357483748419,0 -97.6335743617614,30.1357505174934,0 -97.6335727390805,30.1357525862602,0 -97.6335710210849,30.1357545765819,0 -97.6334986210849,30.1358345765819,0 -97.6334967385948,30.135836557323,0 -97.6334947617215,30.1358384438745,0 -97.6334169617215,30.1359091438745,0 -97.6334137944869,30.1359118149677,0 -97.6333440944869,30.1359663149677,0 -97.6333419566468,30.1359679060982,0 -97.633339745529,30.1359693937187,0 -97.633252545529,30.1360250937187,0 -97.6332500297357,30.1360266093185,0 -97.6331682297357,30.1360730093185,0 -97.6331655678882,30.1360744258871,0 -97.6330864678881,30.1361138258871,0 -97.6330834721741,30.1361152094512,0 -97.6329908721741,30.1361547094512,0 -97.6329886783244,30.1361555910096,0 -97.6328792783244,30.1361968910096,0 -97.6328770266884,30.1361976866073,0 -97.6328747431799,30.1361983854847,0 -97.6327789431799,30.1362254854847,0 -97.6327748300777,30.1362264827967,0 -97.6326890300777,30.1362438827967,0 -97.6326863275023,30.1362443622363,0 -97.6326836046811,30.1362447086763,0 -97.6326045046811,30.1362528086763,0 -97.6326018389935,30.1362530174795,0 -97.6325374389935,30.1362565174795,0 -97.6325333567028,30.1362565902807,0 -97.6324689567028,30.1362553902807,0 -97.6324662214256,30.1362552723758,0 -97.6324634951799,30.1362550209252,0 -97.6324044951799,30.1362481209252,0 -97.6324012786863,30.1362476497603,0 -97.6323422786863,30.1362372497603,0 -97.6323388690441,30.1362365387546,0 -97.6322791690441,30.1362221387546,0 -97.6322752783154,30.1362210503726,0 -97.6322075783154,30.1361994503726,0 -97.6322041772537,30.136198243182,0 -97.6319641772537,30.136104243182,0 -97.6319637938377,30.1361040913802,0 -97.6316394013523,30.1359742744244,0 -97.6313301095222,30.135853355809,0 -97.6313297543492,30.1358532155551,0 -97.6312623629246,30.1358263374614,0 -97.6312230521334,30.1358129077568,0 -97.6311938983416,30.1358071438266,0 -97.6311613547068,30.1358032118193,0 -97.6311331330905,30.1358041473425,0 -97.631099873788,30.1358096639095,0 -97.6310596171421,30.1358236550252,0 -97.631001402166,30.1358493106637,0 -97.6308539353304,30.1359294388326,0 -97.6307403016503,30.1360084079111,0 -97.6306387839208,30.1360825788103,0 -97.630553190922,30.1361520385915,0 -97.6304402396727,30.1362613932864,0 -97.6303888353697,30.1363191036935,0 -97.6303401811745,30.1363801408202,0 -97.6302975662079,30.1364354707418,0 -97.6302960951964,30.1364373000295,0 -97.6302464951964,30.1364964000295,0 -97.6302445807792,30.1364985651115,0 -97.6302425572118,30.1365006285427,0 -97.6301982572118,30.1365435285427,0 -97.6301963676671,30.1365452760415,0 -97.6301943998249,30.1365469348748,0 -97.6301923578417,30.1365485015387,0 -97.6301320578417,30.1365926015387,0 -97.6301296268733,30.1365942827755,0 -97.6301271105854,30.1365958334077,0 -97.6301245159881,30.1365972491159,0 -97.6300655159881,30.1366274491158,0 -97.6300622577632,30.1366289866907,0 -97.6300589074116,30.1366303115717,0 -97.6299945074116,30.1366534115717,0 -97.6299923234561,30.136654144607,0 -97.6299901111997,30.1366547871989,0 -97.6299163111997,30.1366745871989,0 -97.6299134437993,30.1366752761074,0 -97.629910544109,30.1366758131138,0 -97.629827044109,30.1366890131138,0 -97.629823824794,30.1366894268037,0 -97.629820586919,30.1366896532841,0 -97.629747186919,30.1366926532841,0 -97.6297440617958,30.1366926937266,0 -97.6297409392836,30.1366925597594,0 -97.6296591392836,30.1366867597594,0 -97.6296560513586,30.1366864546277,0 -97.6296529850749,30.1366859789278,0 -97.6295832850749,30.1366731789278,0 -97.6295805963159,30.136672616655,0 -97.6295779383639,30.1366719232088,0 -97.6295135383639,30.1366534232088,0 -97.6295112710699,30.1366527195354,0 -97.629509035637,30.1366519203996,0 -97.629463435637,30.1366345203996,0 -97.6294611327236,30.136633582569,0 -97.6294588737123,30.1366325434327,0 -97.6294159737123,30.1366116434327,0 -97.6294139072334,30.1366105831083,0 -97.6294118865,30.1366094380059,0 -97.6293689865,30.1365839380059,0 -97.6293663162433,30.1365822470297,0 -97.6293637456405,30.1365804080973,0 -97.6293301456405,30.1365549080973,0 -97.6293268492813,30.1365522025548,0 -97.6292880492813,30.1365178025548,0 -97.6292850992502,30.1365149887435,0 -97.6292541992502,30.1364832887435,0 -97.6292526859825,30.136481673638,0 -97.6292512377174,30.1364799999974,0 -97.6292162377174,30.1364378999974,0 -97.6292145866905,30.1364358152777,0 -97.6291771866905,30.1363862152777,0 -97.6291750972548,30.1363832490331,0 -97.6291501972548,30.1363453490331,0 -97.6291487635094,30.1363430471611,0 -97.6291304537292,30.1363120001425,0 -97.6291157538662,30.1362945654213,0 -97.62909519049,30.136278529057,0 -97.6290637935966,30.1362575695092,0 -97.629036499477,30.136245310286,0 -97.6290023052169,30.1362357753481,0 -97.6289696252214,30.1362309027524,0 -97.6289282087573,30.1362289305398,0 -97.6288868110756,30.1362329908668,0 -97.6288279074735,30.1362418693676,0 -97.6287011566662,30.1362673976332,0 -97.6287004981728,30.1362675261574,0 -97.6273208981728,30.1365282261574,0 -97.6273206570946,30.136528271167,0 -97.6271926114335,30.1365518873706,0 -97.6271306573079,30.1365643742486,0 -97.6270850251942,30.1365772542807,0 -97.6270489816727,30.1365902507428,0 -97.6270177625642,30.1366067344321,0 -97.6269912888209,30.1366248220828,0 -97.6269634756822,30.1366498711829,0 -97.626873759778,30.1367441122313,0 -97.6268737099336,30.1367441645222,0 -97.625094919945,30.138607854033,0 -97.6246778459601,30.1390452876956,0 -97.624573674794,30.1391642156344,0 -97.624545233066,30.1392064961734,0 -97.6245322117379,30.1392375985458,0 -97.6245265842488,30.1392686200791,0 -97.6245283888906,30.1392923293385,0 -97.6245382075703,30.1393207019369,0 -97.6245515455484,30.1393408639969,0 -97.6245713115954,30.1393579346738,0 -97.6245929085242,30.1393688672807,0 -97.6246168381653,30.1393759981766,0 -97.6246462157213,30.1393778,0 -97.624680883763,30.1393778,0 -97.6247181016615,30.1393725689129,0 -97.6247912085966,30.1393560145938,0 -97.6250799171413,30.1392791583881,0 -97.6258094409305,30.1390769349535,0 -97.6258098792964,30.1390768153518,0 -97.6266255792964,30.1388578153518,0 -97.6266269424056,30.1388574676777,0 -97.6279077424056,30.1385478676777,0 -97.6279090237549,30.1385475738198,0 -97.6287002237549,30.1383758738198,0 -97.6287011769269,30.1383756756295,0 -97.6298209769269,30.1381529756295,0 -97.629822455281,30.1381527021986,0 -97.631109955281,30.1379324021986,0 -97.6311114760852,30.1379321634455,0 -97.6323693760852,30.1377523634455,0 -97.6323706643794,30.1377521945278,0 -97.6326949603041,30.1377134950141,0 -97.6330506562238,30.1376709955016,0 -97.6330514100588,30.1376709106061,0 -97.6338078100588,30.1375909106061,0 -97.6338086663079,30.1375908266915,0 -97.6341410578055,30.1375608274588,0 -97.6342711000346,30.1375490508026,0 -97.6346514509862,30.1375111756028,0 -97.634946752081,30.1374817754938,0 -97.6349469995554,30.13748175141,0 -97.6356294843155,30.1374168623667,0 -97.6362701633043,30.1373532743772,0 -97.6364545396698,30.1373349358677,0 -97.6365025398958,30.1373273282848,0 -97.6365284199853,30.1373198931209,0 -97.6365381183985,30.1373140922008,0 -97.6365529909356,30.1372998342314,0 -97.6365587129801,30.1372909522518,0 -97.6365624128915,30.1372791125355,0 -97.6365629453165,30.1372702894924,0 -97.6365603858719,30.1372582032264,0 -97.6365526888216,30.1372412824381,0 -97.6365376159194,30.13721863559,0 -97.63642413478,30.1370968818118,0 -97.6364236633559,30.1370963696765,0 -97.6361876633559,30.1368367696765,0 -97.6361871300399,30.1368361745526,0 -97.6360167300399,30.1366432745526,0 -97.6360151325679,30.1366413835027,0 -97.6357482325679,30.1363108835027,0 -97.6357463798256,30.1363084567972,0 -97.6354928798256,30.1359569567972,0 -97.6354920520969,30.1359557773884,0 -97.6354214520969,30.1358523773884,0 -97.6354199492514,30.1358500551877,0 -97.6354185629074,30.1358476616107,0 -97.6353939629074,30.1358026616107,0 -97.6353925133722,30.1357998206804,0 -97.6353912279215,30.1357969018358,0 -97.6353901107249,30.1357939145445,0 -97.6353794107249,30.1357626145445,0 -97.6353785576011,30.1357598946771,0 -97.6353778439851,30.1357571349215,0 -97.6353772717259,30.1357543424283,0 -97.6353768423062,30.135751524433,0 -97.6353765568387,30.1357486882371,0 -97.6353738568387,30.1357126882371,0 -97.6353737091671,30.1357095132272,0 -97.6353737418677,30.1357063349532,0 -97.6353750418677,30.1356727349532,0 -97.6353752637645,30.1356694711826,0 -97.6353756758584,30.1356662259375,0 -97.6353762767431,30.1356630102923,0 -97.635377064368,30.13565983522,0 -97.635385164368,30.13563083522,0 -97.6353858448058,30.1356285828326,0 -97.6353866192595,30.1356263610166,0 -97.6353987192595,30.1355938610166,0 -97.6353997276919,30.1355913409543,0 -97.6354008570522,30.135588872717,0 -97.6354021046872,30.1355864621036,0 -97.6354034676656,30.1355841147776,0 -97.6354049427853,30.1355818362535,0 -97.6354223427853,30.1355563362535,0 -97.6354239361734,30.1355541191979,0 -97.6354256357266,30.1355519824386,0 -97.6354274374053,30.1355499310549,0 -97.6354488374053,30.1355267310549,0 -97.635450617719,30.1355248874901,0 -97.6354524805175,30.1355231273114,0 -97.6354544218994,30.1355214542053,0 -97.6354826218994,30.1354982542053,0 -97.6354849398938,30.1354964470829,0 -97.6354873495104,30.1354947640685,0 -97.6354898441113,30.1354932097983,0 -97.6354924168246,30.135491788554,0 -97.6355192168246,30.135477888554,0 -97.6355216991146,30.1354766778168,0 -97.6355242380791,30.1354755909369,0 -97.6355268275425,30.135474630558,0 -97.6355294612064,30.1354737990159,0 -97.6355616612065,30.1354644990159,0 -97.6355639127232,30.1354638991886,0 -97.6355661872433,30.1354633935415,0 -97.6356010872433,30.1354563935415,0 -97.6356036752732,30.1354559373413,0 -97.6356062818559,30.1354556030593,0 -97.6356089012511,30.1354553914317,0 -97.6356491012511,30.1354530914317,0 -97.6356514394537,30.1354530066124,0 -97.6356537791585,30.1354530195383,0 -97.6357029791585,30.1354543195383,0 -97.6357046405377,30.1354543881316,0 -97.6359217555207,30.1354665833563,0 -97.6360835704878,30.1354751788394,0 -97.6360840112124,30.1354752039927,0 -97.6361774112124,30.1354809039927,0 -97.6361790231476,30.1354810257408,0 -97.6362434231476,30.1354868257408,0 -97.6362457211583,30.1354870806282,0 -97.636248006689,30.1354874301575,0 -97.636288206689,30.1354944301575,0 -97.6362911528831,30.1354950250504,0 -97.6362940629157,30.1354957771588,0 -97.6363302629157,30.1355061771588,0 -97.6363328028727,30.1355069726809,0 -97.6363353021611,30.1355078879919,0 -97.636337755135,30.1355089210241,0 -97.636371355135,30.1355240210241,0 -97.6363739102028,30.1355252479233,0 -97.6363763999199,30.1355266025311,0 -97.6364125999199,30.1355475025311,0 -97.6364148139374,30.1355488500479,0 -97.6364169632332,30.1355502985653,0 -97.6364611632332,30.1355815985653,0 -97.6364633211132,30.135583205865,0 -97.6364653992967,30.1355849149616,0 -97.6364673929861,30.1355867219096,0 -97.6364692975786,30.1355886225373,0 -97.6364947975786,30.1356153225373,0 -97.6364965810739,30.1356172806483,0 -97.6364982699888,30.1356193208985,0 -97.6364998605454,30.1356214387238,0 -97.6365256605454,30.1356575387238,0 -97.6365272068233,30.135659818864,0 -97.6365286390893,30.1356621722932,0 -97.6365299538769,30.1356645933155,0 -97.6365311480039,30.1356670760711,0 -97.6365509480039,30.1357109760711,0 -97.6365516222155,30.135712533458,0 -97.6366045348643,30.1358400229911,0 -97.6366393287289,30.1359219664962,0 -97.6366720643055,30.1359932486985,0 -97.636703116629,30.1360511021345,0 -97.6367370668063,30.1360983867484,0 -97.6367736289851,30.1361351294811,0 -97.6368626332794,30.1362178895989,0 -97.6368627991847,30.136218044493,0 -97.6370414093176,30.1363854790198,0 -97.6370798010836,30.1364201160899,0 -97.6371195654407,30.1364492646231,0 -97.637153505526,30.1364695065249,0 -97.6372012139543,30.1364911840975,0 -97.6372435694496,30.1365044256706,0 -97.6373005269425,30.1365162259995,0 -97.6373625921048,30.1365252711549,0 -97.6374461703839,30.1365350463922,0 -97.6375774656494,30.1365449944956,0 -97.6376156499973,30.1365467,0 -97.6376517545567,30.1365467,0 -97.6376724226311,30.1365436231993,0 -97.6376870777963,30.1365379678866,0 -97.6377034296095,30.1365288596397,0 -97.6377117000193,30.1365228104257,0 -97.6377166130605,30.136516430805,0 -97.6377220418232,30.1365050535045,0 -97.6377258361834,30.1364938969528,0 -97.6377271053818,30.1364836945503,0 -97.6377262547213,30.1364685135322,0 -97.6377234605861,30.1364514693074,0 -97.637718169687,30.13643559661,0 -97.6377028136428,30.136406034172,0 -97.6375600908888,30.136188391856,0 -97.6369511122485,30.1352753738058,0 -97.6369502087973,30.1352739746637,0 -97.6368491087973,30.1351121746637,0 -97.6368473207986,30.1351091000058,0 -97.6368127207986,30.1350450000058,0 -97.6368115498838,30.1350427060853,0 -97.6368104856787,30.1350403607537,0 -97.6367916856787,30.1349962607537,0 -97.6367913377558,30.1349954259941,0 -97.6367658377558,30.1349328259941,0 -97.6367648608662,30.1349302479363,0 -97.6367640120424,30.1349276249241,0 -97.6367632933416,30.1349249633147,0 -97.6367485933416,30.1348646633147,0 -97.6367480342371,30.1348621128385,0 -97.6367475946258,30.1348595390731,0 -97.6367472754634,30.1348569476136,0 -97.6367405754634,30.1347896476136,0 -97.6367403125564,30.1347852858158,0 -97.6367389125564,30.1347191858158,0 -97.6367389197014,30.1347165146816,0 -97.6367390542125,30.1347138469267,0 -97.6367393157836,30.134711188621,0 -97.6367474157836,30.134645088621,0 -97.636747883736,30.134641990538,0 -97.636759983736,30.134574690538,0 -97.6367604998518,30.134572157178,0 -97.6367611323462,30.1345696503396,0 -97.6367852323462,30.1344826503396,0 -97.6367861988487,30.1344795202335,0 -97.6367873467261,30.1344764519981,0 -97.6368289467261,30.1343744519981,0 -97.6368298194773,30.1343724270351,0 -97.6368968194773,30.1342250270351,0 -97.6368987258512,30.1342212235673,0 -97.6369363258512,30.1341528235673,0 -97.6369380727471,30.1341498645506,0 -97.6369769727471,30.1340883645506,0 -97.6369784889343,30.1340860921397,0 -97.6369801141372,30.1340838963733,0 -97.6370216141372,30.1340305963733,0 -97.6370241041113,30.1340276174791,0 -97.6370657041113,30.1339812174791,0 -97.6370681226713,30.133978683945,0 -97.6370706948866,30.1339763065649,0 -97.6371039948866,30.1339474065649,0 -97.637105912837,30.133945815455,0 -97.6371078996757,30.1339443112489,0 -97.6371099514684,30.1339428969253,0 -97.6371443514684,30.1339202969253,0 -97.6371469052791,30.133918715522,0 -97.6371495402106,30.1339172733288,0 -97.6371996402106,30.1338915733288,0 -97.6372016956272,30.1338905714208,0 -97.637203790232,30.1338896542578,0 -97.637597990232,30.1337265542578,0 -97.6375992947528,30.1337260335764,0 -97.6377440947528,30.1336703335764,0 -97.6377450162791,30.1336699883582,0 -97.6378366162791,30.1336365883582,0 -97.6378367852809,30.1336365270424,0 -97.6378849852809,30.1336191270424,0 -97.63788687083,30.1336184840405,0 -97.63793387083,30.1336033840405,0 -97.6379362366866,30.1336026810721,0 -97.6379386312197,30.1336020830313,0 -97.6379410497783,30.1336015910798,0 -97.6379986497783,30.1335911910798,0 -97.6380017331131,30.1335907226137,0 -97.6380048377458,30.1335904265229,0 -97.6380746377458,30.1335857265229,0 -97.6380775337183,30.1335856067008,0 -97.6381486337183,30.1335845067008,0 -97.6381511851005,30.133584525359,0 -97.6382275851005,30.133586825359,0 -97.6382306029383,30.1335869978283,0 -97.6383540029383,30.1335973978283,0 -97.6383572195959,30.1335977628284,0 -97.638480419596,30.1336153628284,0 -97.6384826638755,30.1336157300841,0 -97.6384848913935,30.1336161881573,0 -97.6385822913935,30.1336382881573,0 -97.6385836270012,30.1336386084773,0 -97.6387157270012,30.1336720084773,0 -97.6387190972784,30.133672973805,0 -97.6388422972784,30.133712473805,0 -97.6388450449756,30.1337134342006,0 -97.6389458449756,30.1337516342006,0 -97.6389469246039,30.133752056175,0 -97.6390246246039,30.133783356175,0 -97.6390269498311,30.1337843544864,0 -97.6390292275851,30.1337854568219,0 -97.6390950275851,30.1338191568219,0 -97.6390987771439,30.1338212627101,0 -97.6391724771439,30.1338664627101,0 -97.6391751197752,30.1338681877413,0 -97.6391776610365,30.1338700588971,0 -97.6392460610365,30.1339234588971,0 -97.6392487882307,30.1339257307333,0 -97.6392970882307,30.1339686307333,0 -97.6392997413494,30.133971146895,0 -97.6393022246074,30.1339738308358,0 -97.6393424246074,30.1340202308358,0 -97.63934315842,30.1340210953569,0 -97.63940485842,30.1340952953569,0 -97.6394060503804,30.1340967793963,0 -97.6395636805849,30.1343000158128,0 -97.6396767849754,30.1344346497233,0 -97.639785189905,30.1345609225005,0 -97.6397864424052,30.134562434274,0 -97.6398849150084,30.1346856242948,0 -97.640010264836,30.1348297170951,0 -97.6401516542586,30.1349872368602,0 -97.6403668374959,30.1352188729401,0 -97.6405006678433,30.1353585988975,0 -97.6405453560335,30.1353962358773,0 -97.6405846802337,30.1354240202446,0 -97.6406161092018,30.1354404870177,0 -97.6406462605141,30.1354520644553,0 -97.6406763976689,30.1354598068736,0 -97.6407109424481,30.1354647909462,0 -97.6407531452581,30.1354668006038,0 -97.640794721772,30.1354636978789,0 -97.6408475418105,30.1354560985483,0 -97.6409183357452,30.1354417471248,0 -97.6409963838002,30.1354225248934,0 -97.6410922778487,30.135392734458,0 -97.6411875990531,30.1353591320191,0 -97.6413722297291,30.1352862148394,0 -97.6413728051891,30.1352859912289,0 -97.6431031051891,30.1346245912289,0 -97.6431034370873,30.1346244655661,0 -97.6432842970952,30.1345566430631,0 -97.6433181230128,30.1345416389159,0 -97.6433405397845,30.1345286355928,0 -97.6433570267004,30.1345160534728,0 -97.6433701706628,30.1345022802781,0 -97.6433783227396,30.1344910255452,0 -97.6433841750075,30.1344786984279,0 -97.6433899026262,30.1344620883336,0 -97.6433925052459,30.1344488847997,0 -97.6433933088504,30.1344345435492,0 -97.6433916736613,30.1344211592237,0 -97.6433873355622,30.134404648548,0 -97.6433811474144,30.1343919252534,0 -97.6433661554859,30.1343711155617,0 -97.6433401256153,30.1343439539575,0 -97.6432159265053,30.1342536448373,0</coordinates></LineString>
  </Placemark>
</Folder>
</Document></kml>
