<?xml version="1.0" encoding="utf-8" ?>
<kml xmlns="http://www.opengis.net/kml/2.2">
<Document id="root_doc">
<Schema name="monaco_circuit_boundaries" id="monaco_circuit_boundaries">
	<SimpleField name="addr_count" type="string"></SimpleField>
	<SimpleField name="bicycle" type="string"></SimpleField>
	<SimpleField name="bus" type="string"></SimpleField>
	<SimpleField name="check_date" type="string"></SimpleField>
	<SimpleField name="crossing" type="string"></SimpleField>
	<SimpleField name="crossing_i" type="string"></SimpleField>
	<SimpleField name="crossing_m" type="string"></SimpleField>
	<SimpleField name="crossing_r" type="string"></SimpleField>
	<SimpleField name="descriptio" type="string"></SimpleField>
	<SimpleField name="disused_hi" type="string"></SimpleField>
	<SimpleField name="foot" type="string"></SimpleField>
	<SimpleField name="highway" type="string"></SimpleField>
	<SimpleField name="kerb" type="string"></SimpleField>
	<SimpleField name="lanes" type="string"></SimpleField>
	<SimpleField name="layer" type="string"></SimpleField>
	<SimpleField name="lit" type="string"></SimpleField>
	<SimpleField name="maxheight" type="string"></SimpleField>
	<SimpleField name="maxspeed" type="string"></SimpleField>
	<SimpleField name="maxweight" type="string"></SimpleField>
	<SimpleField name="motor_vehi" type="string"></SimpleField>
	<SimpleField name="name_de" type="string"></SimpleField>
	<SimpleField name="name_en" type="string"></SimpleField>
	<SimpleField name="name_fr" type="string"></SimpleField>
	<SimpleField name="name_pt" type="string"></SimpleField>
	<SimpleField name="name_ru" type="string"></SimpleField>
	<SimpleField name="oneway" type="string"></SimpleField>
	<SimpleField name="public_tra" type="string"></SimpleField>
	<SimpleField name="raceway" type="string"></SimpleField>
	<SimpleField name="ref_STTM" type="string"></SimpleField>
	<SimpleField name="sidewalk" type="string"></SimpleField>
	<SimpleField name="smoothness" type="string"></SimpleField>
	<SimpleField name="source" type="string"></SimpleField>
	<SimpleField name="sport" type="string"></SimpleField>
	<SimpleField name="supervised" type="string"></SimpleField>
	<SimpleField name="surface" type="string"></SimpleField>
	<SimpleField name="tactile_pa" type="string"></SimpleField>
	<SimpleField name="tourism" type="string"></SimpleField>
	<SimpleField name="tourist_bu" type="string"></SimpleField>
	<SimpleField name="tunnel" type="string"></SimpleField>
	<SimpleField name="wheelchair" type="string"></SimpleField>
</Schema>
<Folder><name>monaco_circuit_boundaries</name>
  <Placemark id="monaco_circuit_boundaries.1">
	<name>Boulevard Albert 1er</name>
	<Style><LineStyle><color>ff0000ff</color></LineStyle><PolyStyle><fill>0</fill></PolyStyle></Style>
	<ExtendedData><SchemaData schemaUrl="#monaco_circuit_boundaries">
		<SimpleData name="highway">secondary</SimpleData>
		<SimpleData name="lanes">2</SimpleData>
		<SimpleData name="lit">yes</SimpleData>
		<SimpleData name="maxspeed">50</SimpleData>
		<SimpleData name="oneway">yes</SimpleData>
		<SimpleData name="surface">asphalt</SimpleData>
	</SchemaData></ExtendedData>
      <LineString><coordinates>7.42121093164602,43.7350179587609,0 7.42121049635121,43.7350211981749,0 7.42119032100478,43.7352147616471,0 7.42118564770278,43.7352561253414,0 7.42118564102332,43.7352561847512,0 7.42117604149638,43.7353419867084,0 7.42116847141679,43.7353940924511,0 7.42116803664237,43.7353981254691,0 7.42116553664237,43.7354335254691,0 7.42116053819591,43.7355045033935,0 7.42115544171391,43.7355756542794,0 7.42115284288264,43.7356116380971,0 7.42115271629783,43.7356142611587,0 7.42115271506634,43.7356168872727,0 7.42115411434482,43.7356766564534,0 7.42115631365784,43.7357753256328,0 7.42115654273158,43.7357792615458,0 7.42116114273158,43.7358280615458,0 7.4211765425345,43.7359897597478,0 7.42117763742953,43.7360015049854,0 7.42117798071882,43.7360043713133,0 7.42117847392977,43.7360072156808,0 7.42119257196523,43.7360775072942,0 7.42120697960355,43.7361570970755,0 7.4212075512833,43.7361598512923,0 7.42120826303105,43.7361625726786,0 7.42123176303105,43.7362438726786,0 7.42123221955055,43.7362453716581,0 7.42125251955055,43.7363087716581,0 7.42125288988131,43.7363098870779,0 7.42127238988131,43.7363665870779,0 7.4212732208413,43.7363688418399,0 7.42127414949759,43.7363710581531,0 7.42132456589156,43.7364843702464,0 7.42136567205504,43.7365786495378,0 7.42137997291189,43.7366182655761,0 7.42138859102514,43.7366570470857,0 7.4213939418775,43.7367224363154,0 7.42139041838406,43.7368586780617,0 7.42139046712423,43.7368628164609,0 7.42139136712423,43.7368810164609,0 7.42139158394089,43.7368838814761,0 7.42139195007942,43.7368867312593,0 7.42139246454062,43.7368895580333,0 7.42139312592052,43.7368923540838,0 7.42139393241417,43.7368951117802,0 7.42139488182063,43.7368978235968,0 7.42139597154895,43.7369004821328,0 7.42139719862522,43.7369030801331,0 7.42140259862522,43.7369137801331,0 7.42140393909313,43.7369162744528,0 7.42140540616272,43.736918696475,0 7.42140699594518,43.7369210397797,0 7.42140870422642,43.7369232981553,0 7.42142960422642,43.7369494981553,0 7.42143150028136,43.7369517487774,0 7.42143351400138,43.7369538947634,0 7.42143563962139,43.7369559299695,0 7.42147993962139,43.7369961299695,0 7.42148214098049,43.7369980240608,0 7.42148443924617,43.7369997993182,0 7.42148682801098,43.7370014507923,0 7.42148930061514,43.7370029738789,0 7.42149185016514,43.7370043643316,0 7.42149446955296,43.737005618274,0 7.42149715147585,43.7370067322101,0 7.42149988845675,43.7370077030343,0 7.42156998845675,43.7370305030343,0 7.42157309842609,43.7370314141545,0 7.42157625665824,43.7370321405284,0 7.42160031807483,43.7370369328438,0 7.42163067950218,43.7370430251039,0 7.42167221361257,43.7370513319372,0 7.4216750507944,43.7370518225149,0 7.42167790976169,43.7370521639432,0 7.42170910976169,43.7370550639432,0 7.42180475855214,43.7370638684563,0 7.42180756752224,43.7370640546726,0 7.42211356555073,43.7370764855318,0 7.42254460961177,43.7371208328561,0 7.42275814081562,43.7371488271841,0 7.42277963456075,43.7371522970264,0 7.42289968571813,43.7371716601168,0 7.42312509934099,43.7372153526252,0 7.42313246882482,43.7372169902883,0 7.42313277120878,43.7372170565923,0 7.42348683366345,43.7372936484704,0 7.42359699612452,43.7373176402949,0 7.42359706238813,43.7373176546834,0 7.42361646238813,43.7373218546834,0 7.42361660185977,43.737321884689,0 7.42372980185977,43.737346084689,0 7.42373035378338,43.7373461997249,0 7.42400265378338,43.7374014997249,0 7.42400326939093,43.7374016210933,0 7.42418576939093,43.7374365210933,0 7.42418967570356,43.7374371235152,0 7.42435037570356,43.7374560235152,0 7.42435225142572,43.7374562115907,0 7.42456795142572,43.7374741115907,0 7.42456823091175,43.7374741340668,0 7.42468383091175,43.7374831340668,0 7.42468438896429,43.7374831746591,0 7.42486240360534,43.7374952133433,0 7.42493011599395,43.7375057525994,0 7.42499927923886,43.7375232122191,0 7.42504909929594,43.7375359058351,0 7.42516803835874,43.7375775148802,0 7.42516810776215,43.7375775391079,0 7.42554341934272,43.7377082734747,0 7.42563101276105,43.73773949983,0 7.42571999412529,43.7377712931714,0 7.4257215234621,43.7377718144068,0 7.4258235234621,43.7378049144068,0 7.42582561931422,43.7378055487034,0 7.42582773875372,43.737806099071,0 7.4258487874967,43.737811119872,0 7.42590504156789,43.737826219649,0 7.42590706383317,43.7378267216022,0 7.42600566383317,43.7378492216022,0 7.42600789554379,43.737849682445,0 7.42621169554379,43.737887382445,0 7.42621286401598,43.737887585591,0 7.42642236401598,43.737921685591,0 7.42642558989214,43.7379221131309,0 7.42689377751971,43.7379701195791,0 7.42697866877374,43.7379816956592,0 7.42697916102079,43.7379817605221,0 7.42707389662095,43.7379938089471,0 7.42716957897811,43.7380159850778,0 7.42722317504748,43.7380320542764,0 7.42729296801281,43.7380542260748,0 7.42733748542264,43.7380725623327,0 7.42738934276799,43.7380950466061,0 7.42743451320382,43.7381187658098,0 7.42749631111444,43.7381539096695,0 7.42749688699661,43.738154232609,0 7.42753247682349,43.7381739105821,0 7.42757129883754,43.7382002908422,0 7.42763690073358,43.7382473970495,0 7.42768621648335,43.7382896676922,0 7.42773326205714,43.7383357609264,0 7.4277613947421,43.7383664264576,0 7.42778861584206,43.7384032848414,0 7.42779529975852,43.7384175438632,0 7.42779533079471,43.7384176099595,0 7.42780604278761,43.7384403834877,0 7.42781899375215,43.7384871372843,0 7.42782100738207,43.7385382331435,0 7.42781616325705,43.7385948376415,0 7.42780698118491,43.7386407480022,0 7.42780390782032,43.7386559227398,0 7.42779033202765,43.7387164634369,0 7.42775932481005,43.7387892392006,0 7.42774928940103,43.7388077114579,0 7.42771421302524,43.7388720664614,0 7.42766274205985,43.7389488447776,0 7.42764531068013,43.7389708194425,0 7.42764350963018,43.7389732217889,0 7.42764184236169,43.7389757188403,0 7.42764031384342,43.7389783031548,0 7.42763892863063,43.7389809670307,0 7.42763769085151,43.7389837025293,0 7.42763660419486,43.7389865014982,0 7.42763401078271,43.7389937630522,0 7.42757977624037,43.7390179787395,0 7.42757679312112,43.7390194199784,0 7.42757390219037,43.7390210382149,0 7.42757111393782,43.7390228275773,0 7.42753745888914,43.7390458857011,0 7.42738861613958,43.7391417623351,0 7.42738820761385,43.739142028054,0 7.42731420761385,43.739190628054,0 7.4273133332189,43.7391912143733,0 7.4272778332189,43.7392155143733,0 7.42727581067416,43.7392169671363,0 7.42727385596208,43.739218509961,0 7.42723865596208,43.739247609961,0 7.42723761017067,43.7392484966963,0 7.42722381017067,43.7392604966963,0 7.42722217462251,43.7392619775576,0 7.42722059978375,43.7392635228249,0 7.42720189978375,43.7392826228249,0 7.42719958012631,43.739285144665,0 7.42719742200197,43.7392878060533,0 7.42717392200197,43.7393187060533,0 7.4271719545793,43.739321465487,0 7.42717016084142,43.7393243408532,0 7.42715416084143,43.7393518408532,0 7.42715261028549,43.7393546967758,0 7.42714301028549,43.7393736967758,0 7.42714177612645,43.7393763074843,0 7.42713467612645,43.7393924074843,0 7.42713353998521,43.7393951869405,0 7.42712723998521,43.7394118869405,0 7.42712618677163,43.7394149488274,0 7.42712531556473,43.7394180673861,0 7.42712462938404,43.739421231808,0 7.42712413060782,43.7394244311255,0 7.42712233060782,43.7394387311255,0 7.42712214956164,43.7394403665022,0 7.42712084956164,43.7394539665022,0 7.42712062077211,43.7394576885436,0 7.42711982077211,43.7394867885436,0 7.42711982494471,43.7394899562896,0 7.42712001148242,43.7394931185414,0 7.42712037976646,43.7394962648089,0 7.42712092857514,43.7394993846553,0 7.42712592857514,43.7395236846553,0 7.42712641327651,43.7395258233791,0 7.42712698285085,43.7395279410807,0 7.42713398285085,43.7395520410807,0 7.4271349535646,43.7395550561199,0 7.42713609623278,43.739558010279,0 7.42714769623278,43.739585610279,0 7.4271486222557,43.7395876917971,0 7.42716112225571,43.7396142917971,0 7.42716221682502,43.7396164919611,0 7.42716340858048,43.7396186410359,0 7.42716469514301,43.7396207347313,0 7.42720679514301,43.7396859347313,0 7.42720822958665,43.7396880469887,0 7.42720976051623,43.7396900903963,0 7.42725386051623,43.7397461903963,0 7.42725606746488,43.7397488241868,0 7.42725843457572,43.7397513150222,0 7.42736283457572,43.7398545150222,0 7.42736326330551,43.7398549342281,0 7.4274605114626,43.7399489906508,0 7.42749829696697,43.7399864794104,0 7.42760752212712,43.7400967029724,0 7.42771501166971,43.740205292408,0 7.4277150953785,43.7402053767908,0 7.4278001953785,43.7402909767908,0 7.42780053545035,43.7402913158868,0 7.42785253545035,43.7403427158868,0 7.42785349401896,43.7403436407167,0 7.42788775881067,43.7403759075614,0 7.42802386770439,43.7405045324617,0 7.42836521061272,43.7408354831971,0 7.42859500634497,43.7410583790575,0 7.42859586107868,43.7410591905345,0 7.42863966107867,43.7410998905345,0 7.42866627518954,43.741124603642,0 7.42866865586884,43.7411266899619,0 7.42867115263244,43.7411286358643,0 7.42867375720976,43.7411304349034,0 7.42867646097308,43.7411320811198,0 7.42867925496615,43.7411335690605,0 7.42870525496615,43.7411464690605,0 7.42870739595605,43.7411474745425,0 7.42870957819798,43.7411483870402,0 7.42872407819798,43.7411540870402,0 7.42872705870977,43.741155160656,0 7.42873009609156,43.7411560608857,0 7.42875459609156,43.7411625608857,0 7.42875717742884,43.7411631794603,0 7.42875978560489,43.74116367277,0 7.42876241454467,43.7411640396655,0 7.42876505812476,43.7411642792925,0 7.42880875812476,43.7411671792925,0 7.42881178854547,43.741167296601,0 7.42881482082525,43.7411672466978,0 7.42881784574475,43.7411670297347,0 7.42885804574475,43.7411630297347,0 7.42886166820252,43.7411625472829,0 7.42889516820252,43.7411569472829,0 7.42889839662754,43.7411563077695,0 7.42893719662754,43.7411474077695,0 7.42893988062211,43.7411467205155,0 7.42894252660233,43.7411458989721,0 7.42894512785383,43.7411449452239,0 7.42897622785383,43.7411326452239,0 7.42897920358318,43.7411313657571,0 7.42898209883252,43.7411299133343,0 7.42901919883252,43.7411099133343,0 7.42902150086127,43.7411085997991,0 7.42902373693702,43.7411071768879,0 7.42905653693702,43.7410851768879,0 7.42905862242074,43.7410837068228,0 7.42906063748004,43.7410821416168,0 7.42906257777815,43.7410804846385,0 7.42909207777815,43.7410540846385,0 7.42909424105844,43.7410520406238,0 7.42909629060469,43.7410498825835,0 7.42909822041544,43.7410476168368,0 7.42911942041544,43.7410213168368,0 7.4291213395128,43.7410187902484,0 7.42912310972618,43.741016157203,0 7.42913198296679,43.7410020995971,0 7.42915185613016,43.7409707419424,0 7.42915329772795,43.7409683334544,0 7.42915461456967,43.7409658545542,0 7.42915580322545,43.7409633116984,0 7.42915686059926,43.7409607115101,0 7.42915778393703,43.740958060762,0 7.42915857083381,43.7409553663582,0 7.42916857083381,43.7409175663581,0 7.42916930923753,43.740914399271,0 7.42916985916955,43.740911194079,0 7.42917021870725,43.7409079619878,0 7.42917371870725,43.7408649619878,0 7.42917388657431,43.7408617151729,0 7.42917503726335,43.7408096464941,0 7.42917992231116,43.740762483578,0 7.42918479786792,43.7407424642464,0 7.4291906505232,43.7407272769764,0 7.42920083690336,43.7407059566458,0 7.42921430934724,43.7406861110099,0 7.42923455665585,43.7406597171969,0 7.42926198567423,43.740628754949,0 7.42929766437266,43.7405918055024,0 7.42935395305814,43.7405335172189,0 7.42938818017915,43.7404981132341,0 7.42941329448509,43.7404738750086,0 7.42941562270503,43.740471487503,0 7.42943792270503,43.740447187503,0 7.42944003988696,43.7404447396033,0 7.42947213988696,43.7404053396033,0 7.42947441176241,43.74040234797,0 7.42950311176241,43.74036174797,0 7.4295045911871,43.7403595441663,0 7.42950596256329,43.740357271552,0 7.42950722269696,43.7403549354203,0 7.42952192269696,43.7403260354203,0 7.42952301145187,43.7403237680919,0 7.429523995409,43.7403214533579,0 7.42953108458569,43.7403036565706,0 7.4295395648989,43.740291891629,0 7.42954995310413,43.740280363255,0 7.42956541489017,43.7402693102513,0 7.42957882592476,43.7402633686537,0 7.42959174462824,43.7402605769,0 7.42960002577405,43.7402604031696,0 7.42961279638592,43.7402604733378,0 7.42962664300232,43.7402629364379,0 7.42964643824146,43.7402682415619,0 7.42966383921545,43.7402750272699,0 7.42967574082586,43.7402830402354,0 7.42968320414422,43.7402897795005,0 7.42968532844392,43.7402923644917,0 7.42969002857647,43.740301313544,0 7.42969083743362,43.7403109187227,0 7.42969032887446,43.740313445626,0 7.42968792137763,43.7403189946126,0 7.42968441285746,43.7403229595257,0 7.42966168097459,43.7403414184982,0 7.42961962248679,43.7403744372658,0 7.42957451728898,43.7404041875026,0 7.42957141192683,43.7404063937468,0 7.42952651192683,43.7404406937468,0 7.42952446211186,43.7404423386628,0 7.42952249321816,43.7404440796246,0 7.42947959321816,43.7404838796246,0 7.42947854706431,43.7404848760666,0 7.42935677795568,43.7406039480744,0 7.42931700969544,43.7406423209571,0 7.42931613512128,43.7406431839148,0 7.42929393512128,43.7406655839148,0 7.42929206900629,43.740667562366,0 7.42929030297473,43.7406696306471,0 7.42928864134487,43.7406717837008,0 7.42927244134487,43.7406938837008,0 7.42927104175154,43.7406958847137,0 7.42926973235738,43.7406979458787,0 7.42926851574349,43.7407000631328,0 7.42925771574349,43.7407198631328,0 7.42925633554095,43.740722568633,0 7.4292551067894,43.7407253461966,0 7.4292467067894,43.7407458461966,0 7.42924566834495,43.7407485863807,0 7.42924477731732,43.7407513779834,0 7.42924403623582,43.7407542130802,0 7.42924344720416,43.7407570836232,0 7.4292430118944,43.7407599814639,0 7.4292406118944,43.7407794814639,0 7.42924031024255,43.7407827194071,0 7.42924020048293,43.7407859695182,0 7.42924028299924,43.740789220435,0 7.42924138299924,43.740809220435,0 7.42924162226397,43.7408121451814,0 7.429242017182,43.7408150530035,0 7.42924256662912,43.7408179356233,0 7.42924326904118,43.7408207848348,0 7.42924412241861,43.7408235925271,0 7.42925232241861,43.7408481925271,0 7.42925328905882,43.7408508608949,0 7.42925439205692,43.7408534758471,0 7.42925562847598,43.7408560304209,0 7.42926832847598,43.7408806304209,0 7.42926973708124,43.7408831897705,0 7.42927127959374,43.7408856707167,0 7.42927295166157,43.7408880662601,0 7.42927474856733,43.740890369642,0 7.42927666524141,43.7408925743641,0 7.42929436524141,43.7409118743641,0 7.42929644778671,43.7409140246398,0 7.42929864423548,43.7409160584277,0 7.42931404423548,43.7409295584277,0 7.42931599894704,43.7409311934619,0 7.42931802729795,43.7409327361954,0 7.42932012493366,43.7409341833162,0 7.42932228735083,43.7409355317176,0 7.42934188735083,43.7409471317176,0 7.42934418723651,43.7409484194796,0 7.42934654617915,43.7409495955726,0 7.42934895876072,43.7409506572954,0 7.42937785876072,43.7409625572954,0 7.42938000929286,43.7409633905148,0 7.42938219286586,43.7409641328437,0 7.42951069286586,43.7410048328437,0 7.42951347032178,43.7410056328846,0 7.42951628597196,43.741006285909,0 7.42951913204026,43.7410067901134,0 7.42963349990312,43.7410239651483,0 7.42967447948444,43.7410314076284,0 7.42975401178079,43.7410545162859,0 7.42989087085252,43.7410962124171,0 7.42989392245049,43.7410970470131,0 7.42998782245049,43.7411198470131,0 7.42999067124168,43.7411204593031,0 7.43008247124168,43.7411376593031,0 7.43008643181053,43.7411382530277,0 7.43012453181053,43.7411425530277,0 7.43012740066402,43.7411428009506,0 7.43016900066402,43.7411453009506,0 7.43017134480909,43.7411453917049,0 7.43021164480909,43.7411460917049,0 7.43021455328807,43.7411460653042,0 7.43021745630434,43.7411458851833,0 7.43025355630434,43.7411426851833,0 7.4302563853332,43.7411423604045,0 7.43025919376058,43.7411418896378,0 7.43029469376058,43.7411349896378,0 7.43029752829919,43.7411343606263,0 7.43030032569364,43.741133582906,0 7.43030307814796,43.7411326586443,0 7.43030577799146,43.7411315904169,0 7.43033367799146,43.7411196904169,0 7.4303362066359,43.7411185355146,0 7.43033867369613,43.7411172543214,0 7.43034107286963,43.7411158501104,0 7.43034339802735,43.7411143264688,0 7.43037099802735,43.7410952264688,0 7.43037336561861,43.7410934928284,0 7.43037563737697,43.7410916353808,0 7.4303778068356,43.7410896594135,0 7.4303798678189,43.7410875705513,0 7.43038181446006,43.7410853747403,0 7.43038364121774,43.7410830782313,0 7.43038534289188,43.7410806875613,0 7.43040114289188,43.7410571875613,0 7.43040271932624,43.7410547016884,0 7.43040416050714,43.7410521350355,0 7.4304054623065,43.7410494949544,0 7.43040662099548,43.7410467890074,0 7.43040763325518,43.7410440249452,0 7.43040849618612,43.7410412106851,0 7.43041629618612,43.7410131106851,0 7.43041696302834,43.74101045319,0 7.43041749669828,43.7410077657832,0 7.43041789587156,43.741005055134,0 7.43041815955759,43.7410023279691,0 7.43041828710199,43.7409995910564,0 7.43041888710199,43.7409718910564,0 7.43041883220636,43.7409679700358,0 7.43041473220636,43.7408854700358,0 7.43041468825724,43.7408846958285,0 7.43038108825723,43.7403583958285,0 7.43038102244795,43.7403574842101,0 7.43037572244795,43.7402916842101,0 7.4303694191725,43.7402141437318,0 7.43036900925508,43.7402105605372,0 7.43034790925508,43.7400677605372,0 7.4303472546026,43.7400641620148,0 7.4303165546026,43.7399223620148,0 7.43031568097763,43.7399188804033,0 7.43027548097762,43.7397782804033,0 7.43027441684139,43.7397749605058,0 7.43022491684139,43.7396358605058,0 7.43022364725385,43.7396326210903,0 7.43016484725385,43.7394955210903,0 7.43016342776855,43.7394924722351,0 7.43009552776855,43.7393575722351,0 7.43009395986943,43.7393546764807,0 7.43001705986943,43.7392222764807,0 7.43001539309548,43.7392195878937,0 7.42992979309548,43.7390899878937,0 7.42992800027768,43.7390874341285,0 7.42983380027767,43.7389610341285,0 7.42983192117903,43.7389586527016,0 7.42972932117903,43.7388357527016,0 7.4297274337326,43.7388336076209,0 7.4296168337326,43.7387143076209,0 7.42961482125665,43.738712247734,0 7.42949622125665,43.738597047734,0 7.42949422198105,43.7385951997132,0 7.42936812198105,43.7384842997132,0 7.42936609529824,43.7384826019475,0 7.42923269529824,43.7383762019475,0 7.4292306644982,43.7383746578609,0 7.4290902644982,43.7382729578609,0 7.42908841657484,43.7382716760764,0 7.42897331657484,43.7381952760764,0 7.42897171657216,43.7381942533868,0 7.42885271657216,43.7381210533868,0 7.42885106182556,43.7381200749518,0 7.42872816182556,43.7380502749518,0 7.42872660811789,43.7380494253218,0 7.42860020811789,43.7379829253218,0 7.42859858475107,43.7379821052355,0 7.42846878475107,43.7379192052355,0 7.42846719717414,43.7379184668776,0 7.42833419717414,43.7378591668776,0 7.42833260004052,43.7378584847929,0 7.42819650004052,43.7378028847929,0 7.42819491824296,43.7378022669122,0 7.42805601824296,43.7377504669122,0 7.42805587345404,43.7377504131475,0 7.42799177345404,43.7377267131475,0 7.42799159430145,43.7377266472617,0 7.42774324899092,43.7376358038463,0 7.42732660333823,43.7374805613562,0 7.42732353796085,43.7374795208576,0 7.4273204166785,43.7374786625031,0 7.4268565166785,43.737365662503,0 7.42685345470483,43.7373650083754,0 7.42652525470483,43.7373046083754,0 7.42652384431514,43.7373043677381,0 7.42618364431514,43.7372508677381,0 7.42618162450557,43.7372505883636,0 7.42552434693527,43.73717206277,0 7.42551295904371,43.7371570128898,0 7.42551130322577,43.7371549312074,0 7.42550954869924,43.7371529320147,0 7.42550769956775,43.7371510199876,0 7.42550471041909,43.7371480751226,0 7.42550173273381,43.7371166064033,0 7.42550362834635,43.7370795065578,0 7.42550369736256,43.7370761613798,0 7.42550356284344,43.737072818195,0 7.42550206284344,43.737051618195,0 7.42550179225752,43.7370488152847,0 7.42550137856727,43.7370460298971,0 7.42550082285713,43.7370432693339,0 7.42550012658377,43.7370405408312,0 7.42549929157238,43.7370378515415,0 7.42549832001178,43.7370352085142,0 7.42549721444876,43.7370326186776,0 7.42549597778137,43.7370300888205,0 7.42548727778137,43.7370133888205,0 7.42548580839048,43.7370107479735,0 7.4254841961645,43.7370081918222,0 7.42548244597111,43.7370057280841,0 7.42548056309457,43.7370033641978,0 7.4254785532197,43.7370011073006,0 7.4254764224148,43.7369989642064,0 7.42547417711326,43.7369969413857,0 7.42547182409418,43.736995044946,0 7.42546937046186,43.7369932806131,0 7.4254668236244,43.7369916537138,0 7.4254405236244,43.7369758537138,0 7.42543792498365,43.7369743869851,0 7.42543525062024,43.7369730633511,0 7.42543250840625,43.7369718867078,0 7.42541010840625,43.7369629867078,0 7.42540735307867,43.7369619762105,0 7.42540454777305,43.7369611141227,0 7.42540170047682,43.736960402899,0 7.42539881929695,43.7369598445645,0 7.42539591243687,43.7369594407088,0 7.42534941243687,43.7369542407088,0 7.42534900238719,43.7369541964098,0 7.42520990238719,43.7369396964098,0 7.42520676092733,43.7369394596537,0 7.42520361106524,43.7369394031532,0 7.42520046313541,43.7369395270937,0 7.42517256313541,43.7369414270937,0 7.42516987487988,43.7369416765817,0 7.42516720210615,43.7369420576888,0 7.42516455125447,43.7369425694968,0 7.42516192871227,43.7369432107724,0 7.42513052871227,43.7369517107724,0 7.4251276313983,43.7369525812735,0 7.42512478633084,43.7369536097635,0 7.4251220021177,43.7369547931306,0 7.42508543600753,43.73697153656,0 7.42501508430984,43.7369989908811,0 7.42498249900655,43.7370088871583,0 7.42496321796546,43.7370102824968,0 7.42469158911825,43.7369805270591,0 7.42469099637148,43.736980465375,0 7.42454189637148,43.736965765375,0 7.42448146819154,43.7369598625999,0 7.42431899030272,43.736943864777,0 7.42404689104017,43.7369170648496,0 7.4239753986204,43.7369100655823,0 7.42384963824331,43.7368975695194,0 7.4236190406199,43.7368746697553,0 7.42333410171486,43.7368463156386,0 7.42330275648916,43.7368426685526,0 7.42330266841136,43.7368426583765,0 7.42325694843622,43.7368374134443,0 7.42303412741903,43.7368078769369,0 7.4230325959048,43.7368076957345,0 7.42229399258528,43.7367307910515,0 7.42227626723544,43.7367264095044,0 7.42225978259954,43.7367186677321,0 7.42224216408662,43.7367073363233,0 7.4222279336636,43.7366948847032,0 7.42217832977099,43.7366338551949,0 7.42212672408078,43.7365635980099,0 7.4220335654662,43.7364189906567,0 7.42200732872605,43.7363742170893,0 7.42198393865669,43.7363286532342,0 7.42193698628656,43.7362181885293,0 7.42190158737842,43.7361236638774,0 7.42188471880223,43.7360535360887,0 7.42187002759333,43.7359858246836,0 7.42185803377892,43.7358369659709,0 7.42185366126691,43.7356910212365,0 7.42186461666689,43.7355438504651,0 7.42187061227609,43.7355009113227,0 7.421878797597,43.7354730279937,0 7.42190577956217,43.7354386224191,0 7.42194161284567,43.7354111688567,0 7.42212888624732,43.7353107738584,0 7.42213136960821,43.7353093582767,0 7.42213377606866,43.735307815584,0 7.42216797606866,43.735284615584,0 7.42217032041419,43.7352829338235,0 7.42217257334292,43.7352811314399,0 7.42220077334292,43.7352573314399,0 7.42220228273187,43.7352560096738,0 7.42221648273187,43.7352431096738,0 7.42221903569454,43.7352406351783,0 7.42223373569454,43.7352254351783,0 7.42223572696547,43.7352232626003,0 7.4222375990059,43.7352209864808,0 7.42223934644089,43.735218613355,0 7.42224096425329,43.7352161500365,0 7.42224244779809,43.7352136035979,0 7.4222437928158,43.7352109813503,0 7.4222601928158,43.7351767813503,0 7.42226145930254,43.7351739363642,0 7.42226256273797,43.7351710242576,0 7.42226349958457,43.7351680543665,0 7.42226426683887,43.7351650362123,0 7.42229209780413,43.7350409440231,0 7.42234953909237,43.7347979155171,0 7.42235744798564,43.7347663788052,0 7.42235751250322,43.7347661188604,0 7.42236170182778,43.7347490623248,0 7.42237091571729,43.7347118104704,0 7.42239613688052,43.734614614288,0 7.42240904271406,43.7345647917874,0 7.42240943648725,43.7345631707533,0 7.42246314652348,43.7343264707225,0 7.42250790785534,43.7341914014404,0 7.42252351074126,43.7341442927296,0 7.42252431682597,43.7341416361253,0 7.42252498783049,43.73413894223,0 7.42252552204517,43.7341362179074,0 7.42252591810892,43.7341334700988,0 7.42252617501261,43.7341307058051,0 7.42252629210167,43.7341279320695,0 7.42252709210167,43.7340807320695,0 7.42252706332875,43.7340777918932,0 7.42252687747036,43.734074857456,0 7.42252653505769,43.7340719371446,0 7.42252603706936,43.7340690393054,0 7.42252538492862,43.7340661722202,0 7.42252458049929,43.7340633440833,0 7.42252362608044,43.7340605629775,0 7.4225225243998,43.7340578368512,0 7.42252127860598,43.7340551734957,0 7.42251989225945,43.7340525805229,0 7.42251836932242,43.7340500653434,0 7.42251671414744,43.7340476351458,0 7.422514931465,43.7340452968754,0 7.422485931465,43.7340092968754,0 7.42248386753031,43.7340068810554,0 7.42248166753298,43.7340045884532,0 7.42247933881554,43.7340024267206,0 7.42247688915016,43.7340004030723,0 7.42243668915016,43.7339691030723,0 7.42243439056552,43.7339674073811,0 7.4224320070463,43.7339658333111,0 7.42242954502118,43.7339643851079,0 7.42242701113061,43.7339630666774,0 7.42238211113061,43.7339411666774,0 7.42237968560911,43.7339400556199,0 7.42237720906296,43.7339390634896,0 7.42234420906296,43.7339267634896,0 7.42234405544218,43.7339267064915,0 7.42228861603014,43.7339062306111,0 7.42227271644413,43.7338989433008,0 7.42226448765209,43.7338935344881,0 7.42226006520989,43.7338885563463,0 7.42225854593572,43.7338810506784,0 7.42227137197652,43.7338193900848,0 7.4223134273396,43.7337137342173,0 7.42241248815953,43.7335161010431,0 7.42250364350694,43.7333734146213,0 7.4225801412604,43.7332653834428,0 7.42264609912232,43.7331871899195,0 7.42271088078767,43.7331226944765,0 7.42281501701027,43.7330331585971,0 7.42288403683668,43.7329846735951,0 7.42296942283881,43.7329321877362,0 7.42302824602119,43.7329015996813,0 7.42309388705014,43.7328738065867,0 7.42317471846706,43.7328453008213,0 7.42335084307704,43.7327860271565,0 7.42335332166748,43.7327851262904,0 7.42335575422482,43.7327841076467,0 7.42341165422482,43.7327591076467,0 7.4234133281027,43.7327583250408,0 7.4234725281027,43.7327294250408,0 7.42347513333789,43.7327280658782,0 7.42347766226532,43.7327265695161,0 7.42348010766641,43.7327249402258,0 7.42348246256099,43.7327231826578,0 7.42348472022725,43.7327213018292,0 7.42348687422089,43.7327193031084,0 7.42348891839355,43.7327171922006,0 7.42349084691032,43.7327149751312,0 7.42349265426644,43.7327126582287,0 7.42350645426644,43.7326939582287,0 7.42350791577075,43.7326918788866,0 7.42350927965249,43.7326897342456,0 7.42352147965249,43.7326695342456,0 7.42352354726126,43.7326657889998,0 7.42353424726126,43.7326444889998,0 7.42353549884384,43.7326418217288,0 7.42353660579768,43.7326390912624,0 7.42354690579768,43.7326115912624,0 7.4235479289725,43.7326086005229,0 7.42354877864701,43.7326055559437,0 7.42354945201476,43.7326024675808,0 7.42354994685167,43.732599345635,0 7.42355304685167,43.732575345635,0 7.42355333702424,43.7325725309304,0 7.4235534820507,43.7325697050271,0 7.42355348154717,43.7325668754049,0 7.42355333551499,43.7325640495534,0 7.42355304434069,43.7325612349523,0 7.42355260879496,43.7325584390514,0 7.42354870879496,43.7325370390514,0 7.42354810357819,43.7325341576642,0 7.42354734503733,43.7325313127925,0 7.42354643534612,43.7325285125888,0 7.42354537711145,43.7325257650774,0 7.42354417336587,43.732523078132,0 7.42354282755892,43.7325204594524,0 7.42353032755893,43.7324976594523,0 7.4235288319651,43.7324950978718,0 7.42352720044697,43.7324926206467,0 7.42352543774998,43.7324902349823,0 7.42351113774998,43.7324719349823,0 7.42350922748123,43.7324696231594,0 7.42350719404411,43.7324674188941,0 7.42350504348424,43.73246532874,0 7.42350278219546,43.7324633589114,0 7.42350041690084,43.7324615152647,0 7.42348371690084,43.7324492152647,0 7.42348136593725,43.7324475764435,0 7.42347893280273,43.732446062303,0 7.42347642410317,43.7324446769542,0 7.42345502410317,43.7324335769542,0 7.42345291614164,43.7324325400886,0 7.42345076582625,43.7324315941838,0 7.42341796582625,43.7324179941838,0 7.42341549920627,43.7324170402712,0 7.4234129895827,43.7324162060333,0 7.42341044275807,43.7324154933991,0 7.42337344275807,43.7324060933991,0 7.42337092827439,43.7324055170049,0 7.42306276051962,43.7323424440716,0 7.42301999263199,43.7323334717875,0 7.4230177447357,43.7323330487995,0 7.42301548119588,43.7323327196429,0 7.42298248119588,43.7323286196429,0 7.42288635899089,43.7323167168887,0 7.42288469207011,43.7323165362271,0 7.42282769207011,43.7323112362271,0 7.42282616008599,43.732311115341,0 7.42277066008598,43.732307515341,0 7.42276787095228,43.7323074054036,0 7.42270367095228,43.7323065054036,0 7.42270109063506,43.7323065297699,0 7.42263729063506,43.7323086297699,0 7.42263708036564,43.7323086370936,0 7.42259898036564,43.7323100370936,0 7.42259567044029,43.7323102588291,0 7.42259237990356,43.7323106797097,0 7.42255267990356,43.7323169797097,0 7.42254972902831,43.7323175309325,0 7.42254681262313,43.7323182423341,0 7.42251861262313,43.7323259423341,0 7.42251648911262,43.7323265683453,0 7.42251439251551,43.7323272793076,0 7.42249089251551,43.7323357793076,0 7.42248805428046,43.7323368958305,0 7.42248528230083,43.7323381679667,0 7.42248258510075,43.7323395918043,0 7.42244658510075,43.7323598918043,0 7.42244428360675,43.7323612645395,0 7.42244205170915,43.7323627477487,0 7.42243989470644,43.7323643379109,0 7.42241539470644,43.7323833379109,0 7.42241317171268,43.7323851567752,0 7.42241104670479,43.7323870892115,0 7.42240902547821,43.7323891299495,0 7.42239022547821,43.7324091299495,0 7.42238840080329,43.7324111705555,0 7.4223866799208,43.7324132994225,0 7.4223850670937,43.732415511277,0 7.42238356631728,43.7324178006397,0 7.42238218130925,43.7324201618394,0 7.42238091550055,43.732422589027,0 7.42237977202682,43.7324250761899,0 7.42236627202682,43.7324564761899,0 7.42236525174168,43.7324590224855,0 7.4223643596814,43.7324616164845,0 7.42236359806494,43.7324642517347,0 7.4223629687868,43.7324669216807,0 7.4223624734123,43.7324696196813,0 7.42236211317367,43.7324723390251,0 7.42236188896699,43.732475072948,0 7.42235958079519,43.7325156044449,0 7.4223534958601,43.7325491538168,0 7.42234726936107,43.7325676672739,0 7.42234724456049,43.7325677411876,0 7.42234102313271,43.7325863267187,0 7.42232297396398,43.7326182397417,0 7.42230465633377,43.7326503632705,0 7.42227155908495,43.7326930078027,0 7.42224517249921,43.7327234674855,0 7.42213417446533,43.7328211028387,0 7.42213183284657,43.7328232866871,0 7.42210553284657,43.7328492866871,0 7.4221031664422,43.732851776959,0 7.4220566664422,43.732903876959,0 7.42205580070516,43.7329048706709,0 7.42202010706607,43.7329468455928,0 7.42198561417143,43.7329869211525,0 7.42198441508488,43.7329883633327,0 7.42194161508488,43.7330416633327,0 7.42194018196449,43.73304352836,0 7.42193882989353,43.7330454529549,0 7.42192863970632,43.7330606383319,0 7.42190439512735,43.7330967175528,0 7.42182913651264,43.7331527979456,0 7.42182683053391,43.7331546139662,0 7.42182462472095,43.7331565504211,0 7.4218225253561,43.7331586017952,0 7.42182053841853,43.733160762246,0 7.42181866956724,43.7331630256204,0 7.42181692412486,43.7331653854719,0 7.42181530706257,43.7331678350797,0 7.42181382298592,43.7331703674669,0 7.42181247612167,43.7331729754211,0 7.42176247612167,43.7332764754211,0 7.42176149644196,43.7332786194898,0 7.42172949644196,43.7333528194898,0 7.42172915074719,43.7333536392393,0 7.42170215074719,43.7334191392393,0 7.42170120963688,43.7334215862676,0 7.42166339524201,43.733527368354,0 7.42165952082402,43.7335361064031,0 7.42165867571194,43.7335381192907,0 7.42165389302081,43.7335501756579,0 7.4216421638198,43.7335795964038,0 7.42158673297198,43.7337091672545,0 7.421586233782,43.7337103735128,0 7.42154308205112,43.73381825284,0 7.42151804678413,43.7338799931996,0 7.42150576273775,43.7339101540289,0 7.42150538395481,43.7339111095097,0 7.42148548395481,43.7339627095097,0 7.42148545903053,43.7339627742591,0 7.42147817579547,43.7339817306243,0 7.42143019263427,43.7341059870189,0 7.4214298340266,43.7341069419197,0 7.4213787340266,43.7342469419197,0 7.42137770882414,43.7342500316777,0 7.42135750882414,43.7343175316777,0 7.4213495087295,43.734344331949,0 7.42134291955431,43.7343662958663,0 7.4213420881621,43.7343693923958,0 7.42133119749113,43.7344152531111,0 7.42132632919943,43.734435620454,0 7.4213213518467,43.7344561271473,0 7.42132124942865,43.7344565566229,0 7.42131864942865,43.7344676566229,0 7.42131849016069,43.7344683571472,0 7.42130429542088,43.7345327332912,0 7.42129190070196,43.7345887094411,0 7.42129188053149,43.7345888009025,0 7.42127959787938,43.7346447219202,0 7.42127471545957,43.7346666429887,0 7.42127468915876,43.7346667616921,0 7.42126389111599,43.7347157528121,0 7.42125219307395,43.7347687439427,0 7.42125163814908,43.7347716193801,0 7.42124213814908,43.7348290193801,0 7.42122943633838,43.7349059303238,0 7.42121813763634,43.7349742224786,0</coordinates></LineString>
  </Placemark>
</Folder>
</Document></kml>
