<?xml version="1.0" encoding="utf-8" ?>
<kml xmlns="http://www.opengis.net/kml/2.2">
<Document id="root_doc">
<Schema name="monaco_circuit_boundaries" id="monaco_circuit_boundaries">
	<SimpleField name="addr_count" type="string"></SimpleField>
	<SimpleField name="bicycle" type="string"></SimpleField>
	<SimpleField name="bus" type="string"></SimpleField>
	<SimpleField name="check_date" type="string"></SimpleField>
	<SimpleField name="crossing" type="string"></SimpleField>
	<SimpleField name="crossing_i" type="string"></SimpleField>
	<SimpleField name="crossing_m" type="string"></SimpleField>
	<SimpleField name="crossing_r" type="string"></SimpleField>
	<SimpleField name="descriptio" type="string"></SimpleField>
	<SimpleField name="disused_hi" type="string"></SimpleField>
	<SimpleField name="foot" type="string"></SimpleField>
	<SimpleField name="highway" type="string"></SimpleField>
	<SimpleField name="kerb" type="string"></SimpleField>
	<SimpleField name="lanes" type="string"></SimpleField>
	<SimpleField name="layer" type="string"></SimpleField>
	<SimpleField name="lit" type="string"></SimpleField>
	<SimpleField name="maxheight" type="string"></SimpleField>
	<SimpleField name="maxspeed" type="string"></SimpleField>
	<SimpleField name="maxweight" type="string"></SimpleField>
	<SimpleField name="motor_vehi" type="string"></SimpleField>
	<SimpleField name="name_de" type="string"></SimpleField>
	<SimpleField name="name_en" type="string"></SimpleField>
	<SimpleField name="name_fr" type="string"></SimpleField>
	<SimpleField name="name_pt" type="string"></SimpleField>
	<SimpleField name="name_ru" type="string"></SimpleField>
	<SimpleField name="oneway" type="string"></SimpleField>
	<SimpleField name="public_tra" type="string"></SimpleField>
	<SimpleField name="raceway" type="string"></SimpleField>
	<SimpleField name="ref_STTM" type="string"></SimpleField>
	<SimpleField name="sidewalk" type="string"></SimpleField>
	<SimpleField name="smoothness" type="string"></SimpleField>
	<SimpleField name="source" type="string"></SimpleField>
	<SimpleField name="sport" type="string"></SimpleField>
	<SimpleField name="supervised" type="string"></SimpleField>
	<SimpleField name="surface" type="string"></SimpleField>
	<SimpleField name="tactile_pa" type="string"></SimpleField>
	<SimpleField name="tourism" type="string"></SimpleField>
	<SimpleField name="tourist_bu" type="string"></SimpleField>
	<SimpleField name="tunnel" type="string"></SimpleField>
	<SimpleField name="wheelchair" type="string"></SimpleField>
</Schema>
<Folder><name>monaco_circuit_boundaries</name>
  <Placemark id="monaco_circuit_boundaries.1">
	<name>Boulevard Albert 1er</name>
	<Style><LineStyle><color>ff0000ff</color></LineStyle><PolyStyle><fill>0</fill></PolyStyle></Style>
	<ExtendedData><SchemaData schemaUrl="#monaco_circuit_boundaries">
		<SimpleData name="highway">secondary</SimpleData>
		<SimpleData name="lanes">2</SimpleData>
		<SimpleData name="lit">yes</SimpleData>
		<SimpleData name="maxspeed">50</SimpleData>
		<SimpleData name="oneway">yes</SimpleData>
		<SimpleData name="surface">asphalt</SimpleData>
	</SchemaData></ExtendedData>
      <LineString><coordinates>7.42131973415046,43.7350342280021,0 7.42129970364879,43.7352264018251,0 7.42129965229722,43.7352268746586,0 7.42129495565302,43.7352684449562,0 7.42128525897668,43.7353551152488,0 7.42128502858321,43.7353569075489,0 7.42127762038229,43.7354078990618,0 7.42127526374101,43.7354412691022,0 7.42127026412351,43.7355122636707,0 7.42127025944517,43.7355123295389,0 7.42126515944517,43.7355835295389,0 7.42126274645035,43.7356169403692,0 7.42126408493365,43.7356741127273,0 7.42126408634216,43.7356741743672,0 7.42126624238531,43.7357709023029,0 7.42127065477253,43.735817711976,0 7.42128605225099,43.7359793854999,0 7.42128606257047,43.7359794950146,0 7.42128689434541,43.7359884176913,0 7.42130052607023,43.7360563843192,0 7.42130072039645,43.7360574029245,0 7.42131471884242,43.7361347322709,0 7.4213372193868,43.7362125745797,0 7.42135710124324,43.7362746686535,0 7.42137562805351,43.7363285389173,0 7.42142515050241,43.7364398418469,0 7.4214253163069,43.7364402182803,0 7.4214672163069,43.7365363182803,0 7.42146853252273,43.7365396252552,0 7.42148463252273,43.7365842252552,0 7.42148571913673,43.7365875657639,0 7.42148659028831,43.7365909688248,0 7.42149679028831,43.7366368688248,0 7.42149727904499,43.7366393326306,0 7.42149765480081,43.7366418161823,0 7.42149791677204,43.7366443143002,0 7.42150381677204,43.7367164143002,0 7.42150397860082,43.7367193659035,0 7.42150398161594,43.7367223219383,0 7.42150043515345,43.7368594518212,0 7.42150056404224,43.7368620582389,0 7.42151283676935,43.7368774431887,0 7.42154512675266,43.7369067447086,0 7.42160092574733,43.7369248933117,0 7.42162184334176,43.7369290594716,0 7.42162192049782,43.7369290748961,0 7.42165230343369,43.7369351714721,0 7.42169096011333,43.736942902808,0 7.42171926584283,43.7369455337893,0 7.42181343934644,43.73695420248,0 7.42211973247776,43.7369666453274,0 7.42212312888037,43.7369668887973,0 7.42255662888038,43.7370114887973,0 7.42255814942049,43.7370116666544,0 7.42277324942049,43.7370398666544,0 7.42277486543925,43.7370401029736,0 7.42279716161504,43.7370437023563,0 7.42291805778413,43.7370632017384,0 7.42291976599639,43.7370635049732,0 7.42314676599639,43.7371075049732,0 7.42314823117518,43.7371078097117,0 7.42315618007629,43.7371095761342,0 7.42351012879122,43.7371861434077,0 7.42351020387548,43.7371861597051,0 7.42362037074827,43.7372101524904,0 7.42363966789596,43.7372143302234,0 7.42375252247299,43.7372384563786,0 7.42402423875878,43.7372936378351,0 7.42420448828277,43.7373281074701,0 7.42436228804725,43.7373466663721,0 7.42457690886069,43.7373644768151,0 7.4246920901652,43.7373734442177,0 7.42487221103571,43.7373856253409,0 7.42487459064298,43.737385838276,0 7.42487695875783,43.7373861543524,0 7.42494955875783,43.7373974543524,0 7.42495207216727,43.7373979055518,0 7.42495456192467,43.7373984729282,0 7.42502626192467,43.7374165729282,0 7.42502637956413,43.7374166027633,0 7.42507857956413,43.7374299027633,0 7.42508088564627,43.7374305440769,0 7.42508316164126,43.7374312851198,0 7.42520432694735,43.7374736729827,0 7.42557979223785,43.7376044608921,0 7.42558016859572,43.7376045935238,0 7.42566796859572,43.7376358935238,0 7.42575624503463,43.7376674349779,0 7.42585539248886,43.7376996092988,0 7.42587506124628,43.737704300929,0 7.42587655843211,43.737704680351,0 7.42593255205435,43.737719710218,0 7.42602902508604,43.737741724855,0 7.42623112131549,43.7377791096826,0 7.42643842937254,43.7378128529033,0 7.42690591010786,43.7378607868691,0 7.42690773122626,43.7378610043408,0 7.42699328524917,43.7378726707984,0 7.42709053897921,43.7378850394779,0 7.42709329094816,43.7378854604994,0 7.42709601808716,43.737886020236,0 7.42719611808716,43.737909220236,0 7.4271994954561,43.7379101169518,0 7.4272551954561,43.7379268169518,0 7.42725605229205,43.7379270814807,0 7.42732845229205,43.7379500814807,0 7.42733061572704,43.7379508185873,0 7.42733274666974,43.737951644941,0 7.42737984666974,43.737971044941,0 7.42738077885966,43.7379714389705,0 7.42743497885966,43.7379949389705,0 7.42743866985738,43.7379967052118,0 7.42748646985738,43.7380218052118,0 7.42748808888556,43.7380226903305,0 7.42755040191353,43.7380581271323,0 7.42758791300339,43.738078867391,0 7.42759009283768,43.7380801387954,0 7.42759221205808,43.7380815088507,0 7.42763371205808,43.7381097088507,0 7.42763487970292,43.7381105245855,0 7.42770297970292,43.7381594245855,0 7.42770486792588,43.7381608428617,0 7.42770669352554,43.7381623408869,0 7.42775919352554,43.7382073408869,0 7.42776189120371,43.7382098135235,0 7.42781129120371,43.7382582135235,0 7.42781332858668,43.7382603189072,0 7.42784442858668,43.7382942189072,0 7.42784634531777,43.7382964229361,0 7.42784814233761,43.738298725613,0 7.42788034233761,43.738342325613,0 7.42788190322855,43.7383445522701,0 7.42788335215698,43.7383468533544,0 7.42788468558111,43.7383492232409,0 7.42788590024148,43.7383516561368,0 7.42789488474624,43.7383708230803,0 7.42790756920529,43.7383977900405,0 7.42790881131121,43.7384006367773,0 7.42790989074185,43.7384035490903,0 7.42791080405489,43.7384065176921,0 7.42792670405489,43.7384639176921,0 7.42792746265985,43.7384669992929,0 7.4279280422619,43.7384701195182,0 7.42792844093127,43.7384732679794,0 7.42792865734057,43.7384764341935,0 7.42793105734057,43.7385373341935,0 7.42793108546455,43.7385407643925,0 7.4279308996986,43.7385441896731,0 7.4279254996986,43.7386072896731,0 7.42792515121335,43.7386103501848,0 7.42792463193716,43.7386133863874,0 7.42791483193716,43.7386623863874,0 7.42791480553335,43.7386625175764,0 7.42791160553335,43.7386783175764,0 7.42791136722966,43.7386794344697,0 7.42789656722966,43.7387454344697,0 7.42789573794467,43.7387486693026,0 7.42789471386919,43.7387518478443,0 7.42789349877853,43.7387549583768,0 7.42785949877853,43.7388347583768,0 7.42785841940467,43.7388371338372,0 7.42785722858579,43.7388394554336,0 7.42784592858579,43.7388602554336,0 7.42784589256751,43.7388603216246,0 7.42780959256751,43.7389269216246,0 7.42780833766147,43.738929103656,0 7.42780698423214,43.7389312259846,0 7.42775288423214,43.7390119259846,0 7.42775162234383,43.7390137292363,0 7.42775028931987,43.7390154805575,0 7.42773713848149,43.739032059008,0 7.42772969580514,43.7390528985018,0 7.42772862494277,43.7390556598255,0 7.42772740699225,43.7390583595016,0 7.42772604548529,43.7390609897019,0 7.42772454436987,43.7390635427994,0 7.42772290799882,43.739066011391,0 7.42772114111714,43.7390683883184,0 7.42771924884832,43.7390706666892,0 7.42771723667938,43.7390728398967,0 7.42771511044507,43.7390749016392,0 7.42771287631087,43.7390768459383,0 7.42771054075514,43.739078667156,0 7.42770811055034,43.7390803600114,0 7.42770559274339,43.7390819195956,0 7.42770299463523,43.7390833413862,0 7.42770032375963,43.7390846212605,0 7.42762917460167,43.7391163893125,0 7.42759898606218,43.7391370724227,0 7.42759768386042,43.7391379376649,0 7.42744838871197,43.7392341057104,0 7.42737503238951,43.7392822829708,0 7.42734202327697,43.7393048779408,0 7.42730927246055,43.7393319531896,0 7.42729765575661,43.7393420546713,0 7.42728290079728,43.7393571252447,0 7.42726353242827,43.7393825925895,0 7.42725005664078,43.7394057540993,0 7.42724184107404,43.7394220140751,0 7.42723592989407,43.7394354183001,0 7.42723245674562,43.7394446249,0 7.42723157214753,43.7394516525404,0 7.42723052795914,43.7394625763574,0 7.42722995413244,43.7394834493035,0 7.42723322919374,43.7394993661014,0 7.42723873255543,43.7395183133895,0 7.42724866231551,43.7395419393704,0 7.42725910754505,43.7395641668189,0 7.42729781870837,43.7396241185492,0 7.42733821277281,43.7396755041958,0 7.42743995220181,43.7397760742061,0 7.42753723669449,43.7398701657719,0 7.42753773725709,43.7398706561155,0 7.42757593725709,43.7399085561156,0 7.42757626740619,43.7399088864652,0 7.42768566740619,43.7400192864652,0 7.42779314652076,43.7401278653547,0 7.42787803532589,43.7402132529189,0 7.42792939086506,43.7402640158942,0 7.42796320598104,43.7402958592833,0 7.42796327634038,43.7402959256569,0 7.42809967634038,43.7404248256569,0 7.42810018513237,43.7404253126775,0 7.42844178513237,43.7407565126775,0 7.42867117063557,43.7409790106246,0 7.42871453187711,43.7410193029198,0 7.42873528450134,43.7410385732138,0 7.42875202468907,43.7410468789223,0 7.42876136977246,43.7410505525068,0 7.42877765609253,43.7410548733672,0 7.42881149186536,43.7410571187618,0 7.42884533500787,43.7410537512849,0 7.42887540801376,43.7410487241556,0 7.42890854453521,43.7410411232524,0 7.42893275610688,43.7410315476148,0 7.4289646661239,43.7410143454493,0 7.42899207910311,43.7409959586949,0 7.42901538780001,43.7409750993865,0 7.42903178592113,43.7409547564344,0 7.42903899027382,43.740943342797,0 7.42903904386984,43.7409432580576,0 7.42905440004911,43.7409190277044,0 7.42906097813287,43.7408941625478,0 7.42906394935694,43.7408576589378,0 7.42906511342569,43.7408049848271,0 7.42906520791308,43.7408027563401,0 7.42906539267904,43.7408005335167,0 7.42907089267904,43.7407474335167,0 7.42907120481341,43.7407449658943,0 7.42907162819427,43.7407425149073,0 7.42907216195574,43.7407400855686,0 7.42907876195574,43.7407129855686,0 7.42907971139524,43.7407095699553,0 7.4290808789071,43.7407062226032,0 7.4290887789071,43.7406857226032,0 7.42909047329013,43.7406817894608,0 7.42910337329013,43.7406547894608,0 7.42910462632376,43.7406523277352,0 7.42910600137397,43.7406499320258,0 7.42910749497237,43.7406476083756,0 7.42912419497237,43.7406230083756,0 7.42912606127348,43.7406204237166,0 7.42914846127348,43.7405912237166,0 7.42915093115672,43.7405882291028,0 7.42918043115672,43.7405549291028,0 7.42918203472326,43.7405531954338,0 7.42921853472326,43.7405153954338,0 7.42927483642778,43.7404570936687,0 7.42930975746391,43.7404209718972,0 7.42931110551491,43.7404196249914,0 7.42933570519823,43.7403958834365,0 7.42935578267691,43.7403740052871,0 7.42938567306336,43.7403373173984,0 7.42941098573193,43.7403015092332,0 7.42942273609439,43.7402784081804,0 7.429431404591,43.7402566466421,0 7.42943246504004,43.7402541635646,0 7.42943364607293,43.7402517355228,0 7.4294349448434,43.7402493683681,0 7.42943635822141,43.7402470678055,0 7.42943788280074,43.7402448393792,0 7.42945208280074,43.7402251393792,0 7.42945389858659,43.7402227596032,0 7.42945584115536,43.74022048214,0 7.42947224115536,43.74020228214,0 7.4294742951716,43.7402001232724,0 7.42947646309691,43.7401980788185,0 7.42947873856747,43.7401961547796,0 7.42948111490381,43.7401943568036,0 7.42950601490381,43.7401765568036,0 7.42950833254283,43.7401749875612,0 7.42951072701293,43.7401735382561,0 7.42951319211306,43.7401722126417,0 7.42951572145925,43.7401710141509,0 7.42953942145925,43.7401605141509,0 7.4295420167214,43.7401594427362,0 7.42954466327926,43.7401585051614,0 7.42954735423574,43.7401577038697,0 7.42955008257807,43.7401570409495,0 7.42957368257807,43.7401519409495,0 7.42957627340853,43.7401514457776,0 7.42957888500044,43.7401510753922,0 7.42958151134705,43.7401508306451,0 7.42958414640769,43.7401507120993,0 7.42959844640769,43.7401504120993,0 7.42959990219325,43.7401504008302,0 7.42961810219324,43.7401505008302,0 7.42962122670081,43.7401506068518,0 7.4296243401367,43.7401508902334,0 7.42962743244137,43.7401513500593,0 7.42964823244137,43.7401550500593,0 7.4296505459956,43.7401555130073,0 7.42965283756582,43.7401560747544,0 7.42967783756582,43.7401627747544,0 7.42968073581936,43.7401636375499,0 7.42968358227294,43.7401646583298,0 7.42970948227294,43.7401747583298,0 7.42971227813802,43.7401759384736,0 7.42971500465514,43.7401772710295,0 7.42971765352343,43.7401787519406,0 7.42972021667844,43.7401803766982,0 7.42974041667844,43.7401939766982,0 7.42974253955267,43.7401954801203,0 7.42974458896538,43.7401970822379,0 7.42974656033208,43.740198779467,0 7.42975996033208,43.740210879467,0 7.42976193435223,43.7402127526883,0 7.42976381329928,43.7402147212593,0 7.42976559257326,43.7402167803606,0 7.42977389257326,43.7402268803606,0 7.42977561966661,43.7402290949379,0 7.42977723146423,43.7402313947885,0 7.42977872376364,43.7402337739158,0 7.42978009267389,43.7402362261167,0 7.42979259267389,43.7402600261167,0 7.42979380882486,43.7402624891973,0 7.42979490047948,43.7402650099273,0 7.42979586491463,43.7402675820188,0 7.42979669972455,43.7402701990556,0 7.42979740282683,43.7402728545098,0 7.4297979724676,43.7402755417572,0 7.42979840722591,43.7402782540948,0 7.42979870601725,43.7402809847564,0 7.42980110601725,43.7403094847564,0 7.42980127922122,43.7403125883009,0 7.42980127681905,43.7403156966738,0 7.42980109881841,43.7403187999469,0 7.42980074578785,43.7403218882081,0 7.42980021885495,43.7403249515935,0 7.42979701885495,43.7403408515935,0 7.4297963725601,43.7403436760499,0 7.42979557841845,43.7403464625514,0 7.42979463863399,43.7403492033645,0 7.42979355581489,43.7403518908826,0 7.42978535581489,43.7403707908827,0 7.42978413734053,43.7403734088616,0 7.42978278314211,43.7403759592813,0 7.42978129695252,43.7403784351113,0 7.42977968286849,43.7403808295269,0 7.42977794533929,43.740383135928,0 7.42977608915445,43.7403853479568,0 7.42976378915445,43.7403992479568,0 7.42976173152017,43.7404014487274,0 7.42975955646223,43.740403533523,0 7.42975727050741,43.7404054960878,0 7.42973067050741,43.7404270960878,0 7.42972996289228,43.7404276610905,0 7.42968576289228,43.7404623610905,0 7.42968395014581,43.7404637247479,0 7.42968208271102,43.7404650124974,0 7.42963667361616,43.7404949631769,0 7.42959537839501,43.7405265094149,0 7.42955493640302,43.7405640290252,0 7.42943355293569,43.7406827239334,0 7.42943329030456,43.7406829790429,0 7.42939383241132,43.7407210524487,0 7.42937494214164,43.740740112901,0 7.42936332754487,43.7407559575052,0 7.42935574030019,43.7407698674538,0 7.42935128777266,43.7407807337412,0 7.42935038562686,43.7407880636759,0 7.4293508116584,43.7407958097039,0 7.4293553285266,43.7408093603085,0 7.42936270094753,43.7408236407459,0 7.4293734092495,43.7408353170299,0 7.42938271179415,43.740843471858,0 7.42939450389734,43.7408504508579,0 7.42941760724211,43.7408599639999,0 7.42953976486057,43.7408986551677,0 7.42965066795974,43.7409153098866,0 7.42965232802156,43.7409155852147,0 7.42969692802156,43.7409236852147,0 7.42969970374556,43.7409242636049,0 7.42970244597411,43.7409249842724,0 7.42978504597411,43.7409489842724,0 7.42978572914748,43.7409491875829,0 7.42992141535519,43.7409905263838,0 7.43001236126635,43.7410126090971,0 7.4301007592891,43.7410291716896,0 7.43013543700881,43.741033085448,0 7.4301744282315,43.7410354286705,0 7.43021064397675,43.7410360577281,0 7.43024100435221,43.7410333665037,0 7.43026798398567,43.7410281225749,0 7.43028538992078,43.7410206985381,0 7.4302998558901,43.741010687668,0 7.430304886549,43.7410032053589,0 7.43030846201961,43.7409903244968,0 7.43030887041088,43.740971470433,0 7.43030488703921,43.7408913172227,0 7.43027134085995,43.7403658602541,0 7.43026607918228,43.7403005360294,0 7.43025992701358,43.7402248545891,0 7.43023935821122,43.7400856496138,0 7.43020942537323,43.7399473930527,0 7.43017019845463,43.739810196417,0 7.43012186669508,43.7396743792907,0 7.43006441585968,43.7395404250469,0 7.42999801281771,43.7394084991211,0 7.42992273484299,43.7392788917888,0 7.42983886707902,43.7391519144266,0 7.42974650642234,43.7390279825051,0 7.42964579467564,43.7389073443601,0 7.42953714553234,43.7387901486748,0 7.42942055550444,43.7386769010255,0 7.42929647095164,43.7385677735322,0 7.42916510219163,43.7384629936516,0 7.42902664635766,43.7383627019257,0 7.42891327459786,43.7382874490808,0 7.42879590225014,43.7382152502921,0 7.42867460818851,43.738146362371,0 7.4285497967849,43.7380806981437,0 7.42842160316043,43.7380185765799,0 7.42829019600761,43.7379599867742,0 7.42815568608819,43.7379050363589,0 7.42801765411385,43.7378535600718,0 7.42795371606443,43.7378299199506,0 7.42770530569855,43.7377390527383,0 7.42770499666177,43.7377389386438,0 7.42729123403815,43.7375847703725,0 7.42683200499499,43.7374729081568,0 7.42650604892495,43.7374129211165,0 7.42616756299987,43.7373596906727,0 7.42548807549444,43.7372785116364,0 7.42548515861798,43.7372780835797,0 7.42548226886842,43.7372774998432,0 7.42547941454854,43.7372767621042,0 7.42547660385936,43.7372758724823,0 7.42547384487652,43.7372748335336,0 7.42547114552709,43.7372736482432,0 7.42546851356683,43.7372723200166,0 7.42546595655786,43.73727085267,0 7.42546348184695,43.7372692504195,0 7.42546109654441,43.7372675178686,0 7.42545880750368,43.7372656599953,0 7.42545662130161,43.7372636821376,0 7.42545454421956,43.7372615899782,0 7.42545258222539,43.7372593895283,0 7.4254507409563,43.7372570871102,0 7.42542765291912,43.7372265746846,0 7.42541700043225,43.7372160800124,0 7.42541489196471,43.7372138845355,0 7.42541290818829,43.7372115757727,0 7.42541105517942,43.737209160796,0 7.42540933861397,43.7372066470026,0 7.4254077637499,43.7372040420923,0 7.42540633541109,43.7372013540442,0 7.42540505797264,43.737198591092,0 7.42540393534741,43.7371957616986,0 7.42539933534741,43.7371831616986,0 7.42539843871818,43.7371804960382,0 7.42539767952478,43.7371777880289,0 7.42539705975234,43.7371750447514,0 7.42539658102141,43.7371722733788,0 7.42539624458378,43.7371694811577,0 7.42539184458378,43.7371229811577,0 7.42539165787245,43.7371203224235,0 7.42539160018391,43.7371176577658,0 7.42539167165365,43.7371149934422,0 7.42539360068112,43.7370772396187,0 7.42539350821132,43.7370759327122,0 7.4253877221866,43.7370724566974,0 7.4253763516203,43.7370679389277,0 7.42533739250475,43.7370635822094,0 7.42520320994601,43.7370495948111,0 7.42518544192361,43.7370508048198,0 7.42516366204871,43.7370567006458,0 7.4251297978823,43.7370722068694,0 7.42512689483671,43.7370734367691,0 7.42505309483671,43.7371022367691,0 7.42504908286188,43.7371036264964,0 7.42500858286188,43.7371159264964,0 7.42500563084963,43.7371167340431,0 7.42500263848911,43.7371173761383,0 7.42499961504574,43.7371178507941,0 7.42499656988122,43.7371181565406,0 7.42496616988122,43.7371203565406,0 7.42496284853658,43.7371204961762,0 7.42495952482273,43.7371204349017,0 7.42495621088175,43.7371201729409,0 7.42467990708819,43.7370899053886,0 7.42453112828056,43.7370752370555,0 7.42447075293319,43.7370693394636,0 7.42430821067624,43.7370533353194,0 7.42403612498097,43.7370265367283,0 7.42396464100587,43.7370195382972,0 7.42396456175669,43.7370195304806,0 7.42383876330667,43.7370070306346,0 7.42360816489529,43.7369841307924,0 7.42332275387737,43.7369557296971,0 7.42332184351084,43.7369556314474,0 7.4232900875434,43.7369519365707,0 7.42324393158864,43.7369466416235,0 7.42324297258097,43.7369465230631,0 7.42302043706777,43.7369170244013,0 7.4222788040952,43.7368398042655,0 7.4222762840023,43.7368394828776,0 7.42227378143911,43.7368390454581,0 7.42227130174511,43.7368384929402,0 7.42224460174511,43.7368318929402,0 7.42224199277501,43.7368311795182,0 7.42223942203329,43.7368303386954,0 7.42223689573707,43.7368293725053,0 7.42223441999596,43.7368282832845,0 7.42220971999596,43.7368166832845,0 7.42220754499621,43.736815602585,0 7.42220541982691,43.7368144269189,0 7.42220334863198,43.7368131585787,0 7.42217924863198,43.7367976585787,0 7.42217701435955,43.7367961428073,0 7.42217485716497,43.7367945192163,0 7.42217278224657,43.7367927917182,0 7.42215198224657,43.7367745917182,0 7.4221497029407,43.7367724807386,0 7.42214754646234,43.7367702444311,0 7.42214551969188,43.7367678899308,0 7.42209211969188,43.7367021899308,0 7.42209047293819,43.7367000593549,0 7.42203707293819,43.7366273593549,0 7.42203516381972,43.7366245861651,0 7.42194046381972,43.7364775861651,0 7.42193924706518,43.7364756068153,0 7.42191164706518,43.7364285068153,0 7.4219101705041,43.736425817811,0 7.4218851705041,43.736377117811,0 7.42188348260292,43.7363735146256,0 7.42183528260292,43.7362601146256,0 7.42183439333062,43.7362578889349,0 7.42179739333062,43.7361590889349,0 7.42179631105159,43.7361559059773,0 7.42179542526481,43.7361526628417,0 7.42177762526481,43.7360786628417,0 7.42177735058154,43.7360774619044,0 7.42176175058154,43.7360055619044,0 7.42176128575398,43.7360031636671,0 7.42176092787825,43.7360007471547,0 7.42176067766037,43.7359983171346,0 7.42174827766037,43.7358444171346,0 7.42174812466753,43.7358416470639,0 7.42174362466753,43.7356914470639,0 7.42174361352321,43.7356885804223,0 7.42174375175593,43.7356857170938,0 7.42175505175593,43.7355339170938,0 7.42175542844304,43.7355303941153,0 7.42176222844304,43.7354816941153,0 7.42176266568184,43.7354790387885,0 7.42176323228036,43.7354764080274,0 7.42176392688216,43.7354738081301,0 7.42177622688216,43.7354319081301,0 7.42177714393414,43.7354290711039,0 7.42177821337786,43.7354262879416,0 7.42177943207047,43.7354235668222,0 7.42178079643057,43.7354209157425,0 7.42178230244865,43.7354183424933,0 7.4217839456989,43.7354158546366,0 7.42178572135223,43.7354134594837,0 7.42182352135223,43.7353652594837,0 7.42182528610409,43.7353631223553,0 7.4218271562761,43.7353610768423,0 7.42182912711914,43.735359128139,0 7.42183119362847,43.7353572811939,0 7.42183335055641,43.7353555406972,0 7.42187825055641,43.7353211406972,0 7.42188065056389,43.7353194025054,0 7.42188314070555,43.7353177960991,0 7.42188571375268,43.7353163261416,0 7.42207439188957,43.7352151780818,0 7.42210383381443,43.7351952057819,0 7.42212905990658,43.7351739156757,0 7.42214120077595,43.7351628862944,0 7.42214846376775,43.7351553762621,0 7.42215830220477,43.7351348595215,0 7.42218483316113,43.7350165637877,0 7.4221849747569,43.7350159489782,0 7.4222425747569,43.7347722489782,0 7.42224275201436,43.7347715211948,0 7.42225071943911,43.7347397510886,0 7.42225488749678,43.7347227811396,0 7.42225490891867,43.7347226942272,0 7.42226420891867,43.7346850942272,0 7.42226436311948,43.734684485712,0 7.42228966019993,43.7345869969632,0 7.42230234810626,43.7345380157435,0 7.42235646351275,43.7342995292467,0 7.42235711568909,43.7342969466005,0 7.42235789214466,43.7342943985596,0 7.42240349070105,43.7341568029157,0 7.42241645014523,43.7341176753631,0 7.42241677026942,43.7340987880363,0 7.42240427351454,43.7340832748233,0 7.42237363519739,43.7340594196162,0 7.42233628884852,43.7340412039137,0 7.42230586770444,43.7340298651237,0 7.42224854455782,43.7340086935085,0 7.42224468399093,43.7340070985653,0 7.42222308399093,43.7339971985653,0 7.42222058561144,43.7339959761095,0 7.42221815222808,43.733994628911,0 7.42221579006411,43.7339931604153,0 7.42219799006411,43.7339814604153,0 7.42219561588196,43.733979808862,0 7.42219333179753,43.7339780347911,0 7.4221911441265,43.7339761431081,0 7.42218905891794,43.7339741390437,0 7.42218708193764,43.7339720281391,0 7.42216798193764,43.7339505281391,0 7.42216611613275,43.7339483130756,0 7.42216436951373,43.7339460028686,0 7.42216274692362,43.7339436039239,0 7.42216125286154,43.7339411228933,0 7.42215989147022,43.7339385666562,0 7.42215866652456,43.7339359423006,0 7.42215758142107,43.7339332571032,0 7.42215663916855,43.7339305185097,0 7.42215584237966,43.7339277341136,0 7.42215519326376,43.7339249116354,0 7.42214849326376,43.7338918116354,0 7.42214801036185,43.7338890711237,0 7.42214766669021,43.7338863096949,0 7.42214746312858,43.7338835344181,0 7.42214740019806,43.7338807523975,0 7.42214747805974,43.7338779707547,0 7.42214769651431,43.7338751966104,0 7.42214805500254,43.733872437066,0 7.42214855260677,43.7338696991856,0 7.42216465260677,43.7337922991856,0 7.42216539115154,43.7337892013911,0 7.42216630775192,43.7337861515349,0 7.42216739933487,43.7337831598421,0 7.42221209933487,43.7336708598421,0 7.42221301889359,43.7336686865249,0 7.42221403083359,43.7336665546541,0 7.42231543083359,43.7334642546541,0 7.42231677639881,43.7334617356268,0 7.42231825090665,43.7334592898405,0 7.42241165090665,43.7333130898405,0 7.42241311388564,43.7333109157785,0 7.42249171388564,43.7331999157785,0 7.42249309766342,43.7331980466686,0 7.42249455921926,43.7331962377277,0 7.42256355921926,43.7331144377277,0 7.42256513909352,43.7331126452681,0 7.4225667953274,43.7331109231173,0 7.4226346953274,43.7330433231173,0 7.42263764273757,43.733040595603,0 7.42274534273757,43.732947995603,0 7.42274742338501,43.7329462933153,0 7.42274958472649,43.7329446947283,0 7.42282218472649,43.7328936947283,0 7.42282499827707,43.7328918442559,0 7.42291349827707,43.7328374442559,0 7.42291692559948,43.7328355030759,0 7.42297942559948,43.7328030030759,0 7.42298137226534,43.7328020391595,0 7.42298335547569,43.7328011528641,0 7.42305255547569,43.7327718528641,0 7.42305570800113,43.7327706309073,0 7.42313850800113,43.7327414309073,0 7.42313925692296,43.7327411728435,0 7.4233132552895,43.732682614753,0 7.42336590226212,43.7326590695953,0 7.42341215327105,43.7326364909777,0 7.42341643536581,43.732630688429,0 7.42342621365881,43.7326144981406,0 7.42343462873787,43.7325977466281,0 7.42344166668973,43.7325789559799,0 7.42344285686276,43.7325697417371,0 7.42344208878564,43.7325655271601,0 7.42343601634315,43.732554451025,0 7.42342910796844,43.7325456102378,0 7.42342195176321,43.7325403394998,0 7.4234064626621,43.7325323054334,0 7.42337950535563,43.7325211280136,0 7.42334760772325,43.7325130242908,0 7.42304057172561,43.7324501829951,0 7.42304030736801,43.7324501282125,0 7.42299964743574,43.7324415981568,0 7.42296892991862,43.732437781738,0 7.42287367309228,43.7324259861476,0 7.42281827307771,43.7324208349182,0 7.42276493308554,43.7324173750268,0 7.42270341949212,43.7324165126867,0 7.4226410145075,43.7324185667693,0 7.42260633927165,43.732419840925,0 7.42257288823247,43.7324251492763,0 7.422549724355,43.7324314741648,0 7.4225326201417,43.7324376607951,0 7.42250412287476,43.7324537300873,0 7.42248621725786,43.7324676160759,0 7.42247700453435,43.7324774168456,0 7.42247115950059,43.7324910119612,0 7.42246921103301,43.732525227052,0 7.42246891653546,43.7325285833675,0 7.4224684170845,43.7325319153536,0 7.4224610170845,43.7325727153536,0 7.42246047959215,43.7325753188287,0 7.42245981692759,43.732577893291,0 7.42245903063893,43.7325804327261,0 7.42245154306542,43.732602695778,0 7.42244365543951,43.7326262588124,0 7.42244275916138,43.7326287373613,0 7.42244174517326,43.7326311701266,0 7.42244061580363,43.7326335515219,0 7.42243937364595,43.7326358760784,0 7.42241867364595,43.7326724760784,0 7.42241857813003,43.7326726442708,0 7.42239827813003,43.7327082442708,0 7.42239693778777,43.7327104708647,0 7.42239549375894,43.7327126316559,0 7.42239394926779,43.7327147218198,0 7.42235754926779,43.7327616218198,0 7.42235567087311,43.7327639119773,0 7.42232587087311,43.7327983119773,0 7.42232420261429,43.7328001520987,0 7.42232245297875,43.7328019150251,0 7.42232062553467,43.7328035971613,0 7.42220802814175,43.7329026393321,0 7.42218408926027,43.7329263051464,0 7.42213917237962,43.7329766313718,0 7.42210379929484,43.7330182293291,0 7.42210358582857,43.7330184788475,0 7.42206959766859,43.7330579679813,0 7.4220288585973,43.733108701451,0 7.42201997010647,43.7331219470451,0 7.42199045047145,43.7331658762849,0 7.42198864688338,43.7331684031748,0 7.42198670359257,43.7331708242744,0 7.42198462679065,43.7331731318698,0 7.42198242309462,43.7331753186085,0 7.42198009952578,43.7331773775234,0 7.42197766348736,43.7331793020544,0 7.42190566451386,43.7332329534634,0 7.42186203669703,43.7333232630442,0 7.42183067972053,43.7333959720334,0 7.42180434897772,43.7334598484651,0 7.42176629036312,43.7335663137324,0 7.42176477917598,43.7335700935969,0 7.42176052171021,43.733579695541,0 7.42175612428806,43.7335907807093,0 7.42175608959589,43.7335908679452,0 7.42174408959589,43.7336209679452,0 7.42174356702802,43.7336222327455,0 7.42168812378137,43.7337518325788,0 7.421645166218,43.7338592264872,0 7.4216450691099,43.7338594676035,0 7.4216199691099,43.7339213676035,0 7.42161993726225,43.733921445971,0 7.42160783111783,43.7339511700004,0 7.42158812852787,43.7340022581232,0 7.42158084096947,43.7340212257409,0 7.42158080736573,43.7340213129811,0 7.42153299109707,43.7341451371935,0 7.4214826243147,43.7342831283781,0 7.4214628966171,43.7343490501399,0 7.42145490204574,43.734375831954,0 7.42145488044569,43.7343759041337,0 7.42144874128865,43.7343963679905,0 7.4214382118379,43.7344407076042,0 7.4214381931219,43.7344407861608,0 7.4214332931219,43.7344612861608,0 7.4214332481533,43.7344614728527,0 7.42142830022428,43.7344818583203,0 7.4214258324929,43.7344923936351,0 7.42141170983931,43.7345564428528,0 7.42139930942228,43.7346124448365,0 7.42138701946851,43.7346683990976,0 7.42138698454043,43.7346685570113,0 7.42138209775636,43.7346904976744,0 7.42137131084124,43.7347394383079,0 7.42135992267798,43.734791025728,0 7.4213506634058,43.7348469712252,0 7.42133796495693,43.7349238618329,0 7.42132666536497,43.7349921593807,0</coordinates></LineString>
  </Placemark>
</Folder>
</Document></kml>
