<?xml version="1.0" encoding="utf-8" ?>
<kml xmlns="http://www.opengis.net/kml/2.2">
<Document id="root_doc">
<Schema name="mexico_gp_boundaries" id="mexico_gp_boundaries">
	<SimpleField name="FID" type="string"></SimpleField>
</Schema>
<Folder><name>mexico_gp_boundaries</name>
  <Placemark id="mexico_gp_boundaries.1">
	<Style><LineStyle><color>ff0000ff</color></LineStyle><PolyStyle><fill>0</fill></PolyStyle></Style>
	<ExtendedData><SchemaData schemaUrl="#mexico_gp_boundaries">
		<SimpleData name="FID">0</SimpleData>
	</SchemaData></ExtendedData>
      <LineString><coordinates>-99.0949391669128,19.4062342511702,0 -99.0949384964269,19.406234159733,0 -99.0938288214604,19.4060897760015,0 -99.0925238464171,19.4059138928431,0 -99.0925229891627,19.4059137841528,0 -99.0918075891627,19.4058287841528,0 -99.0918065436572,19.4058286700576,0 -99.0916394597605,19.4058120512305,0 -99.0913356730805,19.4057726567004,0 -99.09133546635,19.4057726302901,0 -99.09036826635,19.4056509302901,0 -99.090367173967,19.4056508039187,0 -99.089563873967,19.4055660039187,0 -99.0895635781557,19.4055659734999,0 -99.0883716034865,19.405446656116,0 -99.0849790457433,19.4050033707,0 -99.0839142986401,19.4048315535632,0 -99.0837432116942,19.404797853113,0 -99.0836038568763,19.4047699622983,0 -99.0835572555134,19.4047588912563,0 -99.0835244398647,19.4047416420051,0 -99.0834954057169,19.4047115271818,0 -99.0834878226122,19.4046976774837,0 -99.0834795108521,19.4046656369891,0 -99.0834834298972,19.404620448,0 -99.0835374676858,19.4042761557659,0 -99.0835708938252,19.4040830823935,0 -99.0835714450111,19.4040789899674,0 -99.0835757450111,19.4040344899674,0 -99.08357594439,19.4040316726513,0 -99.0835759988788,19.4040288488148,0 -99.0835759083338,19.4040260259043,0 -99.0835756729937,19.4040232113641,0 -99.0835752934792,19.4040204126161,0 -99.0835696934792,19.4039858126161,0 -99.0835692010704,19.4039831787554,0 -99.0835685809673,19.4039805720025,0 -99.0835678346419,19.4039779985444,0 -99.0835669638654,19.403975464489,0 -99.0835659707047,19.4039729758507,0 -99.0835648575168,19.4039705385364,0 -99.083563626944,19.4039681583307,0 -99.083547726944,19.4039391583307,0 -99.0835462412637,19.4039366128603,0 -99.08354462136,19.40393415063,0 -99.0835428718847,19.4039317787106,0 -99.0835409978616,19.4039295039132,0 -99.0835390046722,19.4039273327702,0 -99.0835368980402,19.4039252715164,0 -99.0835079980402,19.4038984715164,0 -99.0835059404378,19.4038966567508,0 -99.0835037948979,19.4038949468501,0 -99.0835015667591,19.4038933460692,0 -99.0834992615659,19.4038918583911,0 -99.0834968850541,19.4038904875179,0 -99.0834944431373,19.4038892368604,0 -99.0833522100468,19.4038208133681,0 -99.0832648743029,19.4037771952885,0 -99.0832645615368,19.4037770403218,0 -99.0831841496881,19.4037375158538,0 -99.0831505029149,19.4037170969677,0 -99.0831349428491,19.4037055688897,0 -99.0831296816193,19.4036958610722,0 -99.0831276440488,19.4036833930815,0 -99.0831273248765,19.4036579390845,0 -99.0831321342094,19.4035913483204,0 -99.083150266503,19.4034941902555,0 -99.0831503525962,19.4034937175011,0 -99.0831723469386,19.4033698754831,0 -99.0832052208758,19.4032218443406,0 -99.0832289662439,19.4031339962503,0 -99.0832837845536,19.4029541175316,0 -99.0833978085322,19.4026738456049,0 -99.0834813516619,19.4024955415401,0 -99.0835431515905,19.4023831245272,0 -99.0836199679721,19.4022516370271,0 -99.0842237822869,19.4013019581925,0 -99.0848054514371,19.4003913064905,0 -99.084805626098,19.4003910312497,0 -99.085259844267,19.3996705369213,0 -99.0857590463663,19.398922581907,0 -99.0858702957244,19.3987714019757,0 -99.0860641928596,19.3985080058674,0 -99.0860644416598,19.3985076651599,0 -99.0861874416598,19.3983378651599,0 -99.0861892041778,19.398335280349,0 -99.0861908168737,19.3983325995041,0 -99.0861922745292,19.3983298312993,0 -99.0862108745292,19.3982919312993,0 -99.086212147551,19.3982891435439,0 -99.0862132633199,19.3982862892096,0 -99.0862142183715,19.3982833771586,0 -99.0862150097407,19.3982804164325,0 -99.0862251097407,19.3982379164325,0 -99.0862257205296,19.39823499634,0 -99.0862261720878,19.3982320474253,0 -99.0862264630868,19.3982290783644,0 -99.0862265926703,19.3982260978928,0 -99.0862265604572,19.3982231147794,0 -99.0862251604572,19.3981862147794,0 -99.0862249745926,19.3981833256656,0 -99.0862246369612,19.3981804503344,0 -99.0862241484986,19.3981775967527,0 -99.086223510558,19.398174772827,0 -99.0862227249071,19.3981719863818,0 -99.0862095249071,19.3981294863818,0 -99.08620853178,19.3981265782507,0 -99.0862073777797,19.3981237301266,0 -99.0862060665087,19.3981209509009,0 -99.0862046020604,19.3981182492497,0 -99.0862029890068,19.3981156336072,0 -99.0862012323834,19.398113112139,0 -99.0861760323834,19.398079012139,0 -99.0861744129748,19.3980769273904,0 -99.0861726953992,19.3980749227472,0 -99.0861708836132,19.3980730028273,0 -99.0861689817908,19.3980711720537,0 -99.0861669943131,19.3980694346439,0 -99.0861649257586,19.3980677946003,0 -99.0861091257586,19.3980256946003,0 -99.0861066960628,19.3980239628252,0 -99.0861041760297,19.3980223653586,0 -99.0861015730755,19.3980209069018,0 -99.0858643748415,19.3978963330183,0 -99.0857424536356,19.3978257568837,0 -99.0857209964101,19.3978015536442,0 -99.0857102191004,19.3977750722547,0 -99.0857084944815,19.3977542043658,0 -99.0857119564582,19.3977343713465,0 -99.0857209264635,19.3977148274276,0 -99.0857385699208,19.3976940516174,0 -99.0858400613646,19.3976268605227,0 -99.0858414322718,19.3976259228553,0 -99.0860451747759,19.3974820047433,0 -99.0865562745611,19.3971296903413,0 -99.086591441456,19.3971098593855,0 -99.0866119173918,19.3971010547332,0 -99.0866426616601,19.3970967790402,0 -99.0866596303659,19.3970989138129,0 -99.0866778251761,19.3971060390532,0 -99.0867832003318,19.3971677654777,0 -99.0868128488008,19.3971913972648,0 -99.0868205849391,19.3972048337156,0 -99.0868245601695,19.3972224307353,0 -99.0868228909575,19.397252635524,0 -99.0868199986236,19.3973008410893,0 -99.0868091992068,19.3973899853665,0 -99.0868091907068,19.3973900559111,0 -99.0867889269307,19.3975591536288,0 -99.0867510040138,19.3978484655663,0 -99.0865794445306,19.3990585797765,0 -99.0865794064119,19.3990588536008,0 -99.0865137345824,19.3995394474464,0 -99.0864685643119,19.3998523415104,0 -99.0864682922589,19.3998545375746,0 -99.0864617922589,19.3999173375746,0 -99.0864615502394,19.3999206497214,0 -99.086461508562,19.3999239704371,0 -99.086462408562,19.3999749704371,0 -99.0864625187593,19.3999776123983,0 -99.0864627558113,19.3999802460097,0 -99.0864631191699,19.3999828651838,0 -99.0864636079954,19.3999854638666,0 -99.0864642211577,19.3999880360513,0 -99.0864784211577,19.4000418360513,0 -99.0864793673944,19.4000450265758,0 -99.0864805048596,19.4000481540322,0 -99.0864818293889,19.4000512069706,0 -99.0865008293889,19.4000916069706,0 -99.0865020043735,19.4000939578161,0 -99.0865032903179,19.4000962498481,0 -99.0865046842857,19.4000984778331,0 -99.0865061830941,19.400100636684,0 -99.0865077833208,19.4001027214713,0 -99.0865489833208,19.4001538214713,0 -99.086550711057,19.4001558608912,0 -99.0865525358352,19.4001578139632,0 -99.0865544533457,19.4001596760748,0 -99.0865564590598,19.4001614428279,0 -99.0865585482405,19.4001631100501,0 -99.0866224482405,19.4002116100501,0 -99.0866250270685,19.4002134527247,0 -99.0866277077591,19.40021514379,0 -99.0867329077591,19.40027734379,0 -99.0867338410153,19.4002778833097,0 -99.0870742302469,19.4004702381629,0 -99.0871253013121,19.4005008429014,0 -99.0871883664701,19.4005472335198,0 -99.0872418783012,19.4005969756171,0 -99.0872858272467,19.400648723436,0 -99.087323344819,19.4007035423449,0 -99.087360538286,19.4007640985425,0 -99.0874016145471,19.4008562604525,0 -99.0874406490046,19.4009685580752,0 -99.08744194211,19.4009719191078,0 -99.08746714211,19.4010315191078,0 -99.0874680315307,19.4010335115241,0 -99.0874689992777,19.4010354670949,0 -99.0875017992777,19.4010985670949,0 -99.0875031062942,19.4011009371214,0 -99.087504528321,19.4011032399799,0 -99.087543128321,19.4011624399799,0 -99.0875447148043,19.4011647429647,0 -99.0875464162972,19.4011669623318,0 -99.0875482284008,19.4011690923433,0 -99.0875885284008,19.4012140923433,0 -99.0875891613337,19.4012147870566,0 -99.0876309613337,19.4012598870566,0 -99.0876327067532,19.4012616862387,0 -99.0876345323389,19.401263404023,0 -99.0876879323389,19.401311404023,0 -99.0876902368045,19.4013133635994,0 -99.0877499368045,19.4013613635994,0 -99.0877527218098,19.4013634610083,0 -99.0877556341079,19.4013653777501,0 -99.0878304341079,19.4014112777501,0 -99.0878326174277,19.4014125494221,0 -99.0878348568479,19.4014137194784,0 -99.0878371476426,19.4014147854496,0 -99.0879093476426,19.4014463854496,0 -99.0879114050475,19.4014472367239,0 -99.0879134952217,19.4014480040278,0 -99.0880107952216,19.4014815040278,0 -99.0880131668212,19.4014822609738,0 -99.0880155702442,19.401482909826,0 -99.0880180005667,19.4014834492551,0 -99.0881254005667,19.4015047492551,0 -99.0881285942355,19.401505285443,0 -99.0883666942355,19.401538085443,0 -99.0883674504682,19.4015381842818,0 -99.0885809504682,19.4015645842818,0 -99.0885810817748,19.401564600358,0 -99.0891906455737,19.4016384868791,0 -99.0892618037237,19.4016495992477,0 -99.0893336723149,19.4016633021924,0 -99.0893894305354,19.4016787808152,0 -99.0894383174354,19.4017039854799,0 -99.089478160045,19.4017333036265,0 -99.089518785727,19.4017777084418,0 -99.0895505109737,19.4018263594903,0 -99.0895747877799,19.4018887729521,0 -99.0895986840382,19.4019802946539,0 -99.0895987570783,19.4019805714458,0 -99.0896087570783,19.4020180714458,0 -99.0896301636903,19.4020981962176,0 -99.0896303626102,19.4020989208835,0 -99.0896679626102,19.4022323208835,0 -99.089669127202,19.4022359627959,0 -99.089694727202,19.4023073627959,0 -99.0896958015953,19.4023101230336,0 -99.0896970230262,19.4023128214293,0 -99.0897238230262,19.4023680214293,0 -99.0897252052183,19.4023706813038,0 -99.08972673027,19.4023732619248,0 -99.08976663027,19.4024367619248,0 -99.0897683904566,19.4024393920808,0 -99.0897702990105,19.4024419166399,0 -99.0897723496125,19.4024443272432,0 -99.0898199496125,19.4024971272432,0 -99.0898214694383,19.4024987461561,0 -99.0898230533729,19.4025003024017,0 -99.0898762533729,19.4025505024017,0 -99.0898781239009,19.4025521881939,0 -99.0898800696296,19.4025537866026,0 -99.0898820864806,19.4025552942773,0 -99.0899519864806,19.4026050942773,0 -99.0899543993569,19.4026067188761,0 -99.0899568947502,19.4026082136357,0 -99.0899594656805,19.402609574375,0 -99.0900687519914,19.4026637675868,0 -99.0902147287227,19.4027362560322,0 -99.0904694659529,19.4028628757138,0 -99.0907900499204,19.4030280008721,0 -99.0909500972557,19.403116882881,0 -99.0909530159493,19.4031183915207,0 -99.0910927159492,19.4031853915207,0 -99.0910963891195,19.4031869913321,0 -99.0912167891195,19.4032342913321,0 -99.0912192895133,19.4032352044217,0 -99.0913482895133,19.4032788044217,0 -99.0913504365076,19.4032794814399,0 -99.0913526094087,19.4032800700308,0 -99.0915325094087,19.4033248700308,0 -99.091534666371,19.4033253613248,0 -99.0915368413453,19.4033257654817,0 -99.0917270413453,19.4033571654817,0 -99.0917287196073,19.4033574160149,0 -99.0922303375678,19.4034244050589,0 -99.0926167546791,19.4034771937354,0 -99.0934100537537,19.4035855936089,0 -99.0936520636025,19.4036185949541,0 -99.0945432584049,19.4037402942443,0 -99.0945433531989,19.4037403071052,0 -99.0949011825457,19.4037885375337,0 -99.094927235702,19.4038076271735,0 -99.0949351900027,19.4038177278729,0 -99.09493752692,19.4038205020561,0 -99.094953834896,19.4038386140117,0 -99.0949677443891,19.4038720363483,0 -99.0950196956134,19.4047519416558,0 -99.0950200622068,19.4047558154134,0 -99.0950373622068,19.4048884154134,0 -99.0950376696778,19.4048904690867,0 -99.0950528696778,19.4049803690867,0 -99.0950534916786,19.404983494221,0 -99.0951247916785,19.405294394221,0 -99.0951254597193,19.4052970106229,0 -99.0951262553738,19.4052995910823,0 -99.0951271767243,19.4053021293791,0 -99.0951282215497,19.4053046193945,0 -99.0951293873316,19.4053070551264,0 -99.0951306712596,19.4053094307033,0 -99.0951511712596,19.4053452307033,0 -99.0951527420017,19.4053478071763,0 -99.0951544516824,19.4053502936268,0 -99.0951562951553,19.4053526825705,0 -99.0951582668715,19.4053549668163,0 -99.0951603608961,19.4053571394887,0 -99.0951625709258,19.4053591940476,0 -99.0951966709258,19.4053891940476,0 -99.0951987707517,19.4053909506511,0 -99.0952009553861,19.4053926005897,0 -99.0952032194162,19.4053941397754,0 -99.0952055572325,19.4053955643946,0 -99.0952079630426,19.4053968709175,0 -99.0952104308859,19.4053980561072,0 -99.0952129546477,19.405399117027,0 -99.0952155280752,19.4054000510483,0 -99.0952549280752,19.4054132510483,0 -99.0952575826676,19.4054140664673,0 -99.0952602750344,19.4054147468565,0 -99.095262998312,19.4054152904813,0 -99.0952657455578,19.4054156959559,0 -99.095268509768,19.4054159622465,0 -99.095323509768,19.4054198622465,0 -99.0953262617926,19.4054199882213,0 -99.0953290166729,19.4054199762346,0 -99.095331767497,19.4054198263164,0 -99.0953345073635,19.4054195388429,0 -99.095337229398,19.4054191145353,0 -99.095388429398,19.4054098145353,0 -99.0953912486373,19.4054092258066,0 -99.0953940331934,19.4054084903073,0 -99.0953967754308,19.4054076100541,0 -99.0953994678302,19.4054065874608,0 -99.0954021030089,19.4054054253313,0 -99.0954046737411,19.4054041268523,0 -99.0954071729777,19.4054026955843,0 -99.0954095938657,19.4054011354519,0 -99.0954504938657,19.4053732354519,0 -99.0954530599548,19.4053713744126,0 -99.0954555145663,19.4053693686302,0 -99.0954578495465,19.4053672247674,0 -99.0955018495465,19.4053244247674,0 -99.0955036444626,19.4053225955067,0 -99.0955053522166,19.4053206846181,0 -99.0955069691005,19.4053186962506,0 -99.0955084916037,19.4053166347214,0 -99.0956174400095,19.4051616858776,0 -99.095662632638,19.4051208847589,0 -99.0956960386196,19.4051066380903,0 -99.0957389238855,19.4050989548068,0 -99.0957845238481,19.4051003973364,0 -99.0958194478449,19.4051086629305,0 -99.0958893812604,19.4051448258678,0 -99.0959068255995,19.4051538969241,0 -99.0959069746394,19.4051539741361,0 -99.0959689746394,19.4051859741361,0 -99.0959714188393,19.405187160151,0 -99.0959739186233,19.4051882240233,0 -99.0960286186233,19.4052099240233,0 -99.0960315453176,19.4052109901811,0 -99.0960345276745,19.4052118889467,0 -99.0960375561284,19.4052126174375,0 -99.0960987561284,19.4052255174375,0 -99.0961019618076,19.4052260945753,0 -99.0961051960297,19.4052264809371,0 -99.0962422038675,19.4052387458309,0 -99.096655251126,19.4052816908167,0 -99.096715336668,19.4052925573508,0 -99.096758494599,19.4053065976389,0 -99.0967772104164,19.4053192722747,0 -99.0967958857681,19.4053417090931,0 -99.0968060482122,19.4053637609325,0 -99.096814585369,19.4053972210796,0 -99.0968051499148,19.4054687451923,0 -99.0967857919188,19.4055492337022,0 -99.0967636223477,19.4056062809248,0 -99.0967353709047,19.4056713653073,0 -99.096700307802,19.4057410125085,0 -99.0966432726915,19.4058375186177,0 -99.0965905068733,19.4059123903342,0 -99.0965242158674,19.4059963333589,0 -99.0965190900293,19.406001529414,0 -99.0963985190019,19.4061231893424,0 -99.0963372552732,19.4061778756769,0 -99.0962924004335,19.4062084461153,0 -99.0962604672357,19.406227299331,0 -99.0961824009303,19.4062651928296,0 -99.0960808645915,19.4063041476365,0 -99.096056615422,19.4063131644757,0 -99.0959757298631,19.4063323264304,0 -99.0958996385208,19.406339804695,0 -99.0958213114402,19.4063428502194,0 -99.095719898508,19.4063381266132,0 -99.095547202732,19.4063209851044,0</coordinates></LineString>
  </Placemark>
</Folder>
</Document></kml>
