<?xml version="1.0" encoding="utf-8" ?>
<kml xmlns="http://www.opengis.net/kml/2.2">
<Document id="root_doc">
<Schema name="mexico_gp_boundaries" id="mexico_gp_boundaries">
	<SimpleField name="FID" type="string"></SimpleField>
</Schema>
<Folder><name>mexico_gp_boundaries</name>
  <Placemark id="mexico_gp_boundaries.1">
	<Style><LineStyle><color>ff0000ff</color></LineStyle><PolyStyle><fill>0</fill></PolyStyle></Style>
	<ExtendedData><SchemaData schemaUrl="#mexico_gp_boundaries">
		<SimpleData name="FID">0</SimpleData>
	</SchemaData></ExtendedData>
      <LineString><coordinates>-99.0949239680489,19.4063431966108,0 -99.0938145035731,19.406198840267,0 -99.0938142535829,19.4061988071569,0 -99.0925095817831,19.4060229648693,0 -99.0917951330446,19.4059380778931,0 -99.0916277563428,19.4059214299424,0 -99.0916261269195,19.4059212432996,0 -99.0913216302598,19.4058817567006,0 -99.0903550792099,19.4057601383561,0 -99.0895524738967,19.4056754116904,0 -99.0883598218443,19.4055560265001,0 -99.0883581740495,19.4055558364175,0 -99.0849639740495,19.4051123364175,0 -99.0849623380541,19.4051120975902,0 -99.0838958380541,19.4049399975902,0 -99.0838939704364,19.4049396630649,0 -99.0837218704364,19.4049057630649,0 -99.0837217062257,19.4049057304593,0 -99.0835813062258,19.4048776304593,0 -99.0835793875182,19.4048772106794,0 -99.0835250875182,19.4048643106794,0 -99.0835224215486,19.4048636062802,0 -99.083519794234,19.4048627691484,0 -99.0835172121783,19.4048618013882,0 -99.0835146818716,19.404860705432,0 -99.0835122096741,19.4048594840346,0 -99.0834654096741,19.4048348840346,0 -99.0834628530371,19.404833451968,0 -99.0834603763021,19.4048318857651,0 -99.0834579865001,19.4048301898718,0 -99.083455690415,19.4048283691025,0 -99.0834534945648,19.4048264286258,0 -99.0834514051831,19.4048243739502,0 -99.0834111051831,19.4047825739502,0 -99.0834091299649,19.4047804129446,0 -99.0834072725367,19.4047781498952,0 -99.0834055381615,19.4047757912145,0 -99.0834039317539,19.4047733435857,0 -99.0834024578655,19.4047708139444,0 -99.0833880578655,19.4047445139444,0 -99.0833868118021,19.4047420982972,0 -99.0833856866049,19.4047396240385,0 -99.0833846850218,19.4047370972111,0 -99.0833838094992,19.4047345239864,0 -99.0833830621754,19.4047319106491,0 -99.0833706621754,19.4046841106491,0 -99.0833699648543,19.4046810703325,0 -99.0833694410134,19.4046779953736,0 -99.0833690923374,19.4046748956629,0 -99.0833689199478,19.4046717811704,0 -99.0833689243993,19.4046686619138,0 -99.0833691056774,19.404665547926,0 -99.0833740056774,19.404609047926,0 -99.0833744651792,19.4046052719727,0 -99.0834288651792,19.4042586719727,0 -99.0834290061748,19.4042578176065,0 -99.0834621537132,19.4040663534665,0 -99.0834655720307,19.4040309778557,0 -99.0834626197313,19.4040127368633,0 -99.0834555614136,19.403999863202,0 -99.0834392831569,19.4039847677944,0 -99.0833041568627,19.4039197631396,0 -99.0833034256971,19.4039194047115,0 -99.0832158818343,19.4038756826911,0 -99.0831334384632,19.4038351596782,0 -99.0831312762634,19.4038340367717,0 -99.0831291659154,19.403832819209,0 -99.0830912659154,19.403809819209,0 -99.0830891296956,19.4038084544897,0 -99.0830870586277,19.4038069927883,0 -99.0830596586277,19.4037866927883,0 -99.0830572972146,19.4037848414036,0 -99.0830550402848,19.4037828639899,0 -99.083052894556,19.403780766433,0 -99.0830508664149,19.4037785549762,0 -99.0830489618984,19.403776236202,0 -99.0830471866751,19.4037738170122,0 -99.0830455460291,19.4037713046074,0 -99.0830440448436,19.4037687064659,0 -99.0830285448436,19.4037401064659,0 -99.0830271591061,19.4037373700547,0 -99.0830259280703,19.4037345606481,0 -99.083024855565,19.4037316869837,0 -99.083023944926,19.4037287579991,0 -99.0830231989853,19.4037257828038,0 -99.0830226200631,19.4037227706511,0 -99.0830184200631,19.4036970706511,0 -99.0830180456716,19.4036943566536,0 -99.0830178068941,19.4036916273795,0 -99.0830177043234,19.403688889601,0 -99.0830173043233,19.403656989601,0 -99.0830173243853,19.4036546623829,0 -99.0830174428826,19.4036523380971,0 -99.0830226428826,19.4035803380971,0 -99.0830229520583,19.403577262809,0 -99.083023433497,19.4035742097445,0 -99.0830420894179,19.4034742459333,0 -99.0830642474038,19.4033494824989,0 -99.0830647080323,19.4033471763848,0 -99.0830981080322,19.4031967763848,0 -99.0830987054154,19.4031943485161,0 -99.0831230054154,19.4031044485161,0 -99.0831234888559,19.4031027666748,0 -99.0831792888559,19.4029196666748,0 -99.0831800686415,19.4029173013511,0 -99.0831809547084,19.4029149737542,0 -99.0832964547084,19.4026310737542,0 -99.0832975957981,19.4026284645875,0 -99.0833824957981,19.4024472645875,0 -99.0833841027982,19.4024441041561,0 -99.0834471027982,19.4023295041561,0 -99.0834478103014,19.4023282560182,0 -99.0835255103014,19.4021952560182,0 -99.0835265869612,19.402193490174,0 -99.0841309869612,19.401242890174,0 -99.0841310485629,19.4012427935095,0 -99.0847126608247,19.400332230871,0 -99.085167173902,19.3996112687503,0 -99.0851679532013,19.3996100675515,0 -99.0856682532013,19.3988604675515,0 -99.0856697014541,19.3988584018585,0 -99.0857817014541,19.3987062018585,0 -99.0859754820868,19.3984429640094,0 -99.0860955982857,19.3982771450617,0 -99.0861094134898,19.3982489947265,0 -99.0861163549973,19.3982197854129,0 -99.0861155155743,19.3981976606226,0 -99.0861072358477,19.3981710024118,0 -99.0860923076134,19.3981508019043,0 -99.0860464553316,19.3981162072616,0 -99.0858122269245,19.3979931930982,0 -99.0858102458786,19.3979921001092,0 -99.0856796458786,19.3979165001092,0 -99.085677141982,19.3979149599126,0 -99.085674723954,19.3979132881339,0 -99.0856723987023,19.3979114895489,0 -99.0856701728696,19.3979095692957,0 -99.0856680528145,19.39790753286,0 -99.0856660445937,19.3979053860594,0 -99.0856324445937,19.3978674860594,0 -99.0856304508981,19.3978651050583,0 -99.0856285947659,19.3978626153271,0 -99.0856268821147,19.3978600248031,0 -99.0856253184046,19.3978573417453,0 -99.0856239086208,19.3978545747075,0 -99.0856226572579,19.3978517325113,0 -99.0856051572579,19.3978087325113,0 -99.0856041724856,19.3978061254863,0 -99.0856033210316,19.397803471926,0 -99.0856026050818,19.3978007786433,0 -99.0856020264743,19.3977980525528,0 -99.0856015866947,19.3977953006535,0 -99.085601286872,19.3977925300106,0 -99.085598286872,19.3977562300106,0 -99.0855981271165,19.3977534268692,0 -99.0855981106198,19.3977506192276,0 -99.085598237425,19.3977478144026,0 -99.0855985072016,19.3977450197033,0 -99.0855989192466,19.3977422424128,0 -99.0856048192466,19.3977084424128,0 -99.0856053778592,19.3977056661937,0 -99.0856060786271,19.397702922407,0 -99.0856069196925,19.3977002183268,0 -99.0856078988256,19.3976975611216,0 -99.0856090134307,19.397694957836,0 -99.0856241134307,19.397662057836,0 -99.0856254438478,19.3976593566996,0 -99.085626920091,19.3976567324182,0 -99.0856285377358,19.3976541928567,0 -99.085630291934,19.3976517456265,0 -99.0856321774283,19.3976493980622,0 -99.0856597774283,19.3976168980622,0 -99.085661850657,19.3976145918232,0 -99.085664050574,19.3976124061012,0 -99.0856663701852,19.3976103478448,0 -99.0856688021162,19.3976084235977,0 -99.0856713386354,19.3976066394773,0 -99.0857786461022,19.39753559796,0 -99.0859819677282,19.3973919771447,0 -99.0859824847879,19.3973916163326,0 -99.0864958847879,19.3970377163326,0 -99.0864979550168,19.3970363569946,0 -99.0865000843416,19.3970350922324,0 -99.0865399843416,19.3970125922324,0 -99.0865425937512,19.3970112117152,0 -99.0865452734737,19.3970099731947,0 -99.0865752734737,19.3969970731947,0 -99.0865780107031,19.3969959821096,0 -99.086580802439,19.3969950391874,0 -99.086583640668,19.3969942471346,0 -99.0865865172433,19.3969936082246,0 -99.0865894239081,19.3969931242914,0 -99.0866347239081,19.3969868242914,0 -99.0866376021639,19.3969865010006,0 -99.0866404934477,19.3969863296774,0 -99.0866433897414,19.3969863107968,0 -99.0866462830131,19.3969864444113,0 -99.0866491652391,19.3969867301503,0 -99.0866801652391,19.3969906301503,0 -99.0866828634603,19.396991037834,0 -99.0866855381391,19.3969915788479,0 -99.0866881826915,19.3969922518603,0 -99.0866907906074,19.3969930552145,0 -99.0866933554669,19.3969939869328,0 -99.0867219554669,19.3970051869328,0 -99.0867246010084,19.397006303451,0 -99.0867271846718,19.3970075565217,0 -99.0867296994146,19.3970089427292,0 -99.0868421994146,19.3970748427292,0 -99.0868444299267,19.3970762217676,0 -99.0868465921697,19.3970777055586,0 -99.0868486812282,19.397079290729,0 -99.0868895812282,19.397111890729,0 -99.0868918376192,19.3971137903614,0 -99.0868939889279,19.3971158082252,0 -99.0868960289672,19.397117938517,0 -99.08689795187,19.39712017511,0 -99.086899752106,19.3971225115719,0 -99.0869014244976,19.3971249411829,0 -99.0869029642351,19.3971274569555,0 -99.0869200642351,19.3971571569555,0 -99.0869213772033,19.397159575341,0 -99.086922567567,19.3971620563707,0 -99.0869236323463,19.3971645938337,0 -99.0869245688759,19.3971671813781,0 -99.0869253748113,19.3971698125266,0 -99.086926048135,19.3971724806924,0 -99.086933548135,19.3972056806924,0 -99.0869341375911,19.397208674009,0 -99.0869345601675,19.3972116954047,0 -99.0869348145641,19.3972147355831,0 -99.086934899998,19.3972177851903,0 -99.0869348162064,19.397220834843,0 -99.0869327162064,19.397258834843,0 -99.0869327012665,19.397259094076,0 -99.0869297012665,19.397309094076,0 -99.0869294007933,19.3973124146335,0 -99.0869184050655,19.3974031793679,0 -99.0868981092932,19.3975725440889,0 -99.0868980335012,19.397573148234,0 -99.0868600335012,19.397863048234,0 -99.0868599554694,19.3978636202235,0 -99.0866883748728,19.3990738833593,0 -99.0866226935881,19.3995545463992,0 -99.0866226356881,19.3995549584896,0 -99.086577593808,19.3998669631945,0 -99.0865715501146,19.3999253545708,0 -99.0865722742214,19.3999663872864,0 -99.0865835012182,19.4000089233729,0 -99.0865975607568,19.400038818392,0 -99.0866304013251,19.4000795502618,0 -99.0866864239474,19.4001220713445,0 -99.0867884282566,19.4001823818771,0 -99.0871289589847,19.4003748166903,0 -99.0871301715188,19.40037552245,0 -99.0871840715188,19.40040782245,0 -99.0871862647596,19.4004092080966,0 -99.0871883902194,19.4004106956255,0 -99.0872560902194,19.4004604956255,0 -99.0872585757834,19.4004624362252,0 -99.0872609460443,19.4004645160855,0 -99.0873191460443,19.4005186160855,0 -99.0873214526332,19.4005208904203,0 -99.0873236213305,19.4005232966006,0 -99.0873715213305,19.4005796966005,0 -99.0873733136894,19.4005819216633,0 -99.0873749880798,19.400584236803,0 -99.0874148880798,19.400642536803,0 -99.0874163660223,19.4006448150048,0 -99.0874561660223,19.4007096150048,0 -99.0874573825577,19.4007116966736,0 -99.0874585066903,19.4007138296596,0 -99.0874595362598,19.4007160098637,0 -99.0875030362598,19.4008136098637,0 -99.0875039395196,19.4008157577291,0 -99.0875047509954,19.4008179419248,0 -99.0875439594893,19.4009307402301,0 -99.0875676076634,19.4009866700388,0 -99.0875981512807,19.4010454292538,0 -99.0876329758457,19.4010988389492,0 -99.0876701581004,19.401140357596,0 -99.0877099333715,19.4011832730201,0 -99.0877603423826,19.4012285844907,0 -99.0878161419646,19.4012734484762,0 -99.0878847301832,19.4013155367013,0 -99.0879514113504,19.4013447212565,0 -99.0880430682483,19.401376278359,0 -99.0881452104949,19.4013965356202,0 -99.0883813279907,19.4014290625159,0 -99.0885943838887,19.4014554076012,0 -99.0892048182252,19.401529399642,0 -99.0892066861868,19.4015296586287,0 -99.0892796861868,19.4015410586287,0 -99.0892815010963,19.4015413732713,0 -99.0893565010963,19.4015556732713,0 -99.0893587170596,19.401556143271,0 -99.0893609117899,19.4015567041206,0 -99.0894243117899,19.4015743041206,0 -99.089427010486,19.4015751284083,0 -99.0894296633542,19.4015760900223,0 -99.0894322634117,19.4015771864313,0 -99.0894348038144,19.4015784147493,0 -99.0894926038144,19.4016082147493,0 -99.0894951479393,19.4016096126136,0 -99.0894976147681,19.4016111427613,0 -99.089499997429,19.4016128009298,0 -99.089547697429,19.4016479009298,0 -99.0895498220176,19.4016495457916,0 -99.0895518637389,19.4016512924518,0 -99.08955381772,19.4016531367416,0 -99.0895556792977,19.4016550742596,0 -99.0896029792977,19.4017067742596,0 -99.0896049371493,19.4017090346744,0 -99.0896067692505,19.4017113981599,0 -99.0896084701851,19.401713857729,0 -99.0896457701851,19.401771057729,0 -99.0896472617371,19.4017734796965,0 -99.0896486260807,19.4017759755372,0 -99.0896498595667,19.4017785385757,0 -99.0896509588962,19.4017811619569,0 -99.0896784588962,19.4018518619569,0 -99.0896795247516,19.4018548553733,0 -99.0896804159618,19.4018579053461,0 -99.0897050798016,19.4019523668541,0 -99.0897150396174,19.4019897161632,0 -99.0897363393251,19.4020694407701,0 -99.0897733184283,19.4022006379076,0 -99.0897972720303,19.4022674460005,0 -99.0898214663178,19.4023172790106,0 -99.0898572374092,19.4023742079406,0 -99.0899001626423,19.4024218224848,0 -99.0899489948883,19.4024679010327,0 -99.090012252021,19.4025129683462,0 -99.0901176343195,19.402565225625,0 -99.0902636616941,19.4026377392091,0 -99.0905187808396,19.4027645487209,0 -99.0905194847005,19.4027649048994,0 -99.0908411847005,19.4029306048994,0 -99.0908427027443,19.402931417119,0 -99.091002065938,19.4030199191911,0 -99.0911384766193,19.4030853416367,0 -99.0912557717348,19.4031314218606,0 -99.0913813764567,19.4031738743093,0 -99.0915569426423,19.4032175950714,0 -99.0917441214563,19.4032484963057,0 -99.0922449803927,19.4033153839851,0 -99.0922451444388,19.4033154061441,0 -99.0926316444388,19.4033682061441,0 -99.0934249387345,19.4034766053646,0 -99.0936669312263,19.4035096043408,0 -99.094558094203,19.403631299284,0 -99.0949297468011,19.4036813928948,0 -99.0949324530281,19.4036818265627,0 -99.0949351342913,19.4036823945066,0 -99.0949377839325,19.4036830953163,0 -99.094940395372,19.4036839272515,0 -99.0949429621251,19.4036848882464,0 -99.094945477818,19.4036859759145,0 -99.0949479362037,19.403687187555,0 -99.0949503311774,19.403688520159,0 -99.0949526567919,19.4036899704175,0 -99.0949549072722,19.4036915347292,0 -99.0949983072722,19.4037233347292,0 -99.0950006661456,19.4037251635228,0 -99.0950029223366,19.4037271175885,0 -99.0950050692005,19.4037291911713,0 -99.0950071004148,19.4037313781644,0 -99.0950090099973,19.4037336721271,0 -99.0950204873034,19.4037482464841,0 -99.09504187308,19.4037719979439,0 -99.095043884142,19.40377436237,0 -99.0950457586144,19.4037768364828,0 -99.0950474905269,19.4037794124021,0 -99.095049074363,19.4037820819234,0 -99.0950505050783,19.403784836544,0 -99.0950517781157,19.4037876674903,0 -99.0950728781157,19.4038383674903,0 -99.095073979485,19.4038412374964,0 -99.0950749187853,19.4038441645537,0 -99.0950756930824,19.4038471395181,0 -99.0950762999574,19.403850153096,0 -99.0950767375144,19.4038531958733,0 -99.0950770043866,19.4038562583442,0 -99.0951293896467,19.4047435149774,0 -99.0951463034457,19.4048731548474,0 -99.0951610646046,19.4049604593334,0 -99.0952301840941,19.4052618513291,0 -99.0952420886744,19.4052826407913,0 -99.0952609959667,19.4052992747728,0 -99.0952832531255,19.4053067314859,0 -99.0953243833505,19.4053096479928,0 -99.0953572657754,19.4053036752085,0 -99.0953845677909,19.4052850510953,0 -99.0954214653501,19.4052491598332,0 -99.0955310083963,19.4050933652786,0 -99.0955328461453,19.4050909009557,0 -99.0955348187084,19.4050885431594,0 -99.0955369199235,19.4050862992556,0 -99.095539143226,19.4050841762543,0 -99.0955957432261,19.4050330762543,0 -99.095598052112,19.405031104633,0 -99.0956004662776,19.4050292634243,0 -99.095602978366,19.4050275582391,0 -99.0956055807221,19.4050259942736,0 -99.0956082654154,19.4050245762938,0 -99.0956110242648,19.4050233086208,0 -99.0956586242648,19.4050030086208,0 -99.0956615134819,19.4050018717288,0 -99.0956644622493,19.405000899685,0 -99.09566746117,19.405000095587,0 -99.0956705006869,19.4049994619974,0 -99.0957252006869,19.4049896619974,0 -99.0957280400127,19.4049892294899,0 -99.0957308980449,19.40498894579,0 -99.09573376699,19.4049888116713,0 -99.0957366390246,19.4049888274997,0 -99.0957935390246,19.4049906274997,0 -99.0957962949333,19.4049907839843,0 -99.0957990395199,19.4049910785423,0 -99.0958017658713,19.4049915104316,0 -99.0958044671201,19.4049920785644,0 -99.0958513671201,19.4050031785644,0 -99.0958539717312,19.4050038627572,0 -99.09585653973,19.4050046736217,0 -99.0958590649598,19.405005609214,0 -99.0958615413668,19.4050066672911,0 -99.0958639630141,19.4050078453163,0 -99.0959399630141,19.4050471453163,0 -99.0959400744005,19.4050472030759,0 -99.095957499939,19.405056264356,0 -99.0960170089867,19.4050869787032,0 -99.0960648273186,19.4051059486812,0 -99.0961182524888,19.4051172098691,0 -99.0962524039704,19.4051292190629,0 -99.0962531877519,19.4051292948862,0 -99.0966686877519,19.4051724948862,0 -99.0966727880274,19.4051730779664,0 -99.0967385880273,19.4051849779664,0 -99.0967410236434,19.4051854755416,0 -99.0967434342876,19.4051860826667,0 -99.0967458150353,19.4051867981016,0 -99.0967999150353,19.4052043981016,0 -99.0968028233819,19.4052054354035,0 -99.0968056689322,19.4052066342859,0 -99.0968084427172,19.4052079909701,0 -99.0968111359943,19.4052095011798,0 -99.0968137402746,19.4052111601552,0 -99.0968453402746,19.4052325601552,0 -99.0968478527862,19.4052343668129,0 -99.0968502597076,19.4052363119238,0 -99.0968525534187,19.4052383893299,0 -99.0968547266581,19.4052405924543,0 -99.0968567725454,19.4052429143225,0 -99.0968850725454,19.4052769143225,0 -99.0968868595481,19.4052791795471,0 -99.0968885253015,19.4052815353668,0 -99.0968900652216,19.4052839752986,0 -99.0968914750705,19.4052864926279,0 -99.0968927509686,19.4052890804271,0 -99.0969080509686,19.4053222804271,0 -99.0969093548757,19.4053253516238,0 -99.0969104701578,19.4053284962333,0 -99.0969113927103,19.405331702683,0 -99.0969237927103,19.405380302683,0 -99.0969244534725,19.4053832218538,0 -99.0969249544581,19.4053861726466,0 -99.0969252941836,19.405389146323,0 -99.0969254716428,19.4053921340768,0 -99.0969254863103,19.4053951270602,0 -99.0969253381426,19.4053981164098,0 -99.0969250275785,19.405401093273,0 -99.0969138275786,19.405485993273,0 -99.0969133756739,19.4054888409907,0 -99.0969127751512,19.4054916611123,0 -99.0968918751511,19.4055785611123,0 -99.0968912443317,19.4055809471835,0 -99.0968905071027,19.4055833025524,0 -99.0968896649486,19.405585622476,0 -99.0968657649486,19.405647122476,0 -99.0968649519154,19.4056490998684,0 -99.0968356519154,19.4057165998684,0 -99.0968343257366,19.4057194318014,0 -99.0967977257366,19.4057921318014,0 -99.0967959490737,19.4057953833025,0 -99.0967368490737,19.4058953833025,0 -99.0967356902104,19.4058972574021,0 -99.0967344572105,19.4058990835797,0 -99.0966795572105,19.4059769835797,0 -99.0966777635008,19.4059793868332,0 -99.0966086635008,19.4060668868332,0 -99.0966067215267,19.4060692113408,0 -99.0966046545308,19.4060714254155,0 -99.0965973545308,19.4060788254155,0 -99.0965972653044,19.4060789156556,0 -99.0964754653044,19.4062018156556,0 -99.0964730258647,19.4062041310374,0 -99.0964078258647,19.4062623310374,0 -99.0964050724885,19.4062646319111,0 -99.0964021749432,19.4062667483541,0 -99.0963528749432,19.4063003483541,0 -99.0963498620803,19.4063022616096,0 -99.0963144620803,19.4063231616096,0 -99.0963125111917,19.4063242604778,0 -99.0963105171934,19.4063252790301,0 -99.0962283171934,19.4063651790301,0 -99.0962261790315,19.406366160955,0 -99.0962240008297,19.4063670505337,0 -99.0961200008297,19.4064069505337,0 -99.0961194689486,19.4064071514443,0 -99.0960917689486,19.4064174514443,0 -99.0960885541695,19.4064185352019,0 -99.0960852786889,19.4064194186963,0 -99.0959974786889,19.4064402186963,0 -99.0959950646615,19.4064407336629,0 -99.0959926299598,19.4064411397991,0 -99.0959901794877,19.406441436287,0 -99.0959087794877,19.406449436287,0 -99.0959055369029,19.406449658472,0 -99.0958232369029,19.406452858472,0 -99.0958208887525,19.4064528995943,0 -99.0958185409873,19.4064528404355,0 -99.0957133409873,19.4064479404355,0 -99.0957104674828,19.4064477310493,0 -99.0955351674829,19.4064303310493,0 -99.0955328330872,19.4064300488298,0</coordinates></LineString>
  </Placemark>
</Folder>
</Document></kml>
