<?xml version="1.0" encoding="utf-8" ?>
<kml xmlns="http://www.opengis.net/kml/2.2">
<Document id="root_doc">
<Schema name="zandvoort_boundary4" id="zandvoort_boundary4">
	<SimpleField name="access" type="string"></SimpleField>
	<SimpleField name="descriptio" type="string"></SimpleField>
	<SimpleField name="highway" type="string"></SimpleField>
	<SimpleField name="name_en" type="string"></SimpleField>
	<SimpleField name="name_fr" type="string"></SimpleField>
	<SimpleField name="note" type="string"></SimpleField>
	<SimpleField name="old_name" type="string"></SimpleField>
	<SimpleField name="old_name_n" type="string"></SimpleField>
	<SimpleField name="oneway" type="string"></SimpleField>
	<SimpleField name="raceway" type="string"></SimpleField>
	<SimpleField name="sport" type="string"></SimpleField>
	<SimpleField name="surface" type="string"></SimpleField>
	<SimpleField name="width" type="string"></SimpleField>
	<SimpleField name="wikidata" type="string"></SimpleField>
	<SimpleField name="wikipedia" type="string"></SimpleField>
</Schema>
<Folder><name>zandvoort_boundary4</name>
  <Placemark id="zandvoort_boundary4.1">
	<name>CM.com bocht</name>
	<Style><LineStyle><color>ff0000ff</color></LineStyle><PolyStyle><fill>0</fill></PolyStyle></Style>
	<ExtendedData><SchemaData schemaUrl="#zandvoort_boundary4">
		<SimpleData name="access">private</SimpleData>
		<SimpleData name="highway">raceway</SimpleData>
		<SimpleData name="old_name">Vodafonebocht</SimpleData>
		<SimpleData name="oneway">yes</SimpleData>
		<SimpleData name="sport">motor</SimpleData>
		<SimpleData name="surface">asphalt</SimpleData>
		<SimpleData name="width">10</SimpleData>
		<SimpleData name="wikidata">Q173083</SimpleData>
		<SimpleData name="wikipedia">nl:Circuit Zandvoort</SimpleData>
	</SchemaData></ExtendedData>
      <LineString><coordinates>4.54000085575397,52.3877922855471,0 4.54083056687313,52.3890255020803,0 4.54113916882055,52.3894841049746,0 4.54138496792624,52.3898494036455,0 4.5425997675187,52.3916549030398,0 4.54260144289006,52.3916572571095,0 4.54260323957597,52.3916595199469,0 4.54260515261788,52.3916616853069,0 4.54263365261788,52.3916922853069,0 4.54263487840252,52.3916935597076,0 4.54266447840252,52.3917233597076,0 4.54266647460349,52.3917252708743,0 4.54266856428441,52.3917270793571,0 4.54267074216938,52.39172878059,0 4.54271754216938,52.39176348059,0 4.54271951286571,52.391764875787,0 4.54272154289947,52.3917661831438,0 4.5427236283581,52.3917674001405,0 4.5427869283581,52.3918025001405,0 4.54278994229311,52.3918040519174,0 4.54279304610251,52.3918054150693,0 4.54286204610251,52.3918332150693,0 4.5428653449627,52.3918344232102,0 4.5429337449627,52.3918570232102,0 4.54293665853537,52.3918578972918,0 4.54293961597597,52.3918586089583,0 4.54301571597597,52.3918747089583,0 4.54301822448295,52.3918751791415,0 4.54302075210142,52.3918755324462,0 4.54310165210142,52.3918849324463,0 4.54310520068831,52.3918852287161,0 4.54319350068831,52.3918897287161,0 4.54319644114021,52.3918897998189,0 4.54319938118847,52.3918897136256,0 4.54327958118847,52.3918852136256,0 4.54328203827338,52.3918850204489,0 4.54328448423674,52.3918847173866,0 4.54338058423674,52.3918706173866,0 4.54338356427317,52.3918700960547,0 4.54338651113622,52.3918694116556,0 4.54347181113622,52.3918471116556,0 4.54347473096953,52.3918462614215,0 4.54347759934557,52.391845251103,0 4.54354719934557,52.391818551103,0 4.54354942896918,52.3918176392735,0 4.54355161652792,52.3918166306897,0 4.54355375782554,52.3918155272863,0 4.54361375782554,52.3917829272863,0 4.54361584273058,52.3917817348027,0 4.54361787358444,52.3917804524303,0 4.54366497358443,52.3917492524303,0 4.54366714339044,52.3917477387837,0 4.54366923789821,52.3917461225468,0 4.54372683789821,52.3916994225468,0 4.54372917045454,52.3916974208238,0 4.54373138754433,52.391695291921,0 4.54373348224314,52.3916930424875,0 4.54377468224314,52.3916462424875,0 4.543776713491,52.3916437960396,0 4.54377859996332,52.3916412362939,0 4.54378033535457,52.3916385718066,0 4.54380953535457,52.3915907718066,0 4.54381088846359,52.3915884291528,0 4.54381212473957,52.391586022796,0 4.54381324119137,52.3915835585586,0 4.54381423511776,52.3915810424025,0 4.54381510411394,52.3915784804157,0 4.54383020411394,52.3915300804157,0 4.54383097284211,52.3915273749513,0 4.54383160225994,52.3915246337264,0 4.54383209072147,52.3915218639095,0 4.54383979072147,52.3914705639095,0 4.54384011583193,52.3914679837027,0 4.54384031861111,52.3914653910121,0 4.54384039860564,52.3914627916344,0 4.54384035563667,52.391460191381,0 4.54383865563667,52.391417891381,0 4.54383846254816,52.3914149947754,0 4.54383811689196,52.3914121123928,0 4.54383761963107,52.3914092522636,0 4.54383081963107,52.3913754522636,0 4.54383023005658,52.3913728499047,0 4.54382951496042,52.3913702792029,0 4.54382867602569,52.3913677462089,0 4.54382771522697,52.3913652568845,0 4.54381421522697,52.3913326568845,0 4.54381320808854,52.3913303728845,0 4.54381209835396,52.3913281369344,0 4.54379419835396,52.3912940369344,0 4.54379289313693,52.3912916913889,0 4.54379147503532,52.3912894123183,0 4.54344977503532,52.3907690123183,0 4.54344812435437,52.3907666369595,0 4.54319037722415,52.3904157951784,0 4.54313725360218,52.390321665549,0 4.54308029049183,52.3902197626838,0 4.54304025146165,52.390137182184,0 4.54300903136752,52.3900589404144,0 4.54298572736255,52.3899876912844,0 4.54297168364888,52.3899330346691,0 4.54295815639879,52.389868180619,0 4.54294705655188,52.3897945006007,0 4.5429410698369,52.3897230401298,0 4.5429401994178,52.3896566948519,0 4.54293959992838,52.3892852112427,0 4.54293948796031,52.3892817911806,0 4.54293808796031,52.3892598911806,0 4.54293783584615,52.3892570814309,0 4.54293743999448,52.3892542883043,0 4.54293690144671,52.3892515191489,0 4.54293190144671,52.389228919149,0 4.54293103080298,52.3892255060059,0 4.54292994346448,52.3892221555938,0 4.54292104346448,52.3891974555938,0 4.54292001092471,52.3891948067589,0 4.54291884289098,52.3891922148173,0 4.54291754248415,52.3891896866942,0 4.54290544248415,52.3891675866942,0 4.54290411065999,52.3891652878078,0 4.54290266937297,52.3891630559194,0 4.54290112198623,52.389160896237,0 4.54288582198623,52.389140596237,0 4.54288530334557,52.3891399190942,0 4.54286880334557,52.3891187190942,0 4.54286713108195,52.3891166737973,0 4.54286536253051,52.3891147111636,0 4.54284276253051,52.3890908111636,0 4.54284058262821,52.3890886315999,0 4.54280218262821,52.3890523315999,0 4.5428000737408,52.3890504385115,0 4.5427978701418,52.3890486565628,0 4.54275497014179,52.3890157565628,0 4.54275163659672,52.3890133914623,0 4.54270583659672,52.3889833914623,0 4.54270394904965,52.3889822089924,0 4.54270201517349,52.3889811039169,0 4.54265521517349,52.3889556039169,0 4.54265301382372,52.3889544679911,0 4.54265076355861,52.388953432339,0 4.54259236355861,52.388928132339,0 4.54259018648064,52.3889272439636,0 4.54253618648064,52.3889065439636,0 4.54253293305334,52.3889054123371,0 4.54246873305334,52.3888853123371,0 4.5424662604345,52.3888846012569,0 4.5423877604345,52.3888640012569,0 4.54238640416792,52.3888636637044,0 4.5416623327141,52.3886931939683,0 4.5415992611123,52.3886780248489,0 4.54159845601984,52.3886778376073,0 4.54151879003143,52.3886599395098,0 4.54147223180447,52.3886453223921,0 4.54142358176542,52.3886240038356,0 4.54139219649289,52.3886071567002,0 4.54135347075711,52.3885787978096,0 4.54132481160691,52.3885502229511,0 4.54130083904079,52.3885196456984,0 4.54128665703042,52.3884915725907,0 4.54127922647479,52.3884609033365,0 4.54127807816602,52.3884334114737,0 4.54128700270302,52.3883970209047,0 4.54130171550826,52.3883584797519,0 4.54132177603751,52.388330079452,0 4.54135377232248,52.3882978292283,0 4.54139735407106,52.3882642313464,0 4.54144775349012,52.3882376018661,0 4.54150572498184,52.3882123769291,0 4.54157906567248,52.3881913697966,0 4.54164336095702,52.3881800721966,0 4.54170311366249,52.3881759706068,0 4.54175127729356,52.388175219517,0 4.54180892539988,52.3881778441463,0 4.54186612940552,52.3881850065844,0 4.54194161826885,52.3881959725412,0 4.54201240413619,52.3882091283057,0 4.54214768791128,52.3882355470238,0 4.54291341751862,52.3883901126293,0 4.5429148438804,52.3883903810096,0 4.5430844438804,52.3884199810096,0 4.54326129046404,52.3884506891191,0 4.54326235415582,52.3884508631022,0 4.54345125415582,52.3884798631022,0 4.54345215455313,52.3884799937182,0 4.54364025455313,52.3885056937182,0 4.54364257362282,52.3885059605721,0 4.54380387362282,52.3885210605721,0 4.54380528587002,52.3885211744498,0 4.54395598587002,52.3885313744498,0 4.54395696158509,52.3885314317857,0 4.54409136158509,52.3885381317857,0 4.54409264797238,52.3885381808295,0 4.54423274797238,52.3885418808295,0 4.54423455432335,52.3885418988587,0 4.54437425432335,52.3885409988587,0 4.54437469537137,52.3885409942487,0 4.54451989537137,52.3885388942486,0 4.54452060087764,52.3885388795177,0 4.54465980087764,52.3885350795177,0 4.54466161009579,52.388535000303,0 4.54477771009579,52.388528000303,0 4.54477854194708,52.3885279438171,0 4.54492684194708,52.3885167438171,0 4.54492777495295,52.3885166653618,0 4.54505187495295,52.3885051653618,0 4.54505319181621,52.3885050273255,0 4.54520959181621,52.3884867273254,0 4.54521022060222,52.3884866500792,0 4.54536562060222,52.3884666500792,0 4.54536631643809,52.3884665560059,0 4.54551451643809,52.3884455560059,0 4.54608291839596,52.3883645554982,0 4.54620105742281,52.3883509888204,0 4.54629761573969,52.3883413923483,0 4.54638809044619,52.3883344783424,0 4.54649903871031,52.3883280336264,0 4.54660824771335,52.3883234873693,0 4.54671536578945,52.388322304833,0 4.54681372850623,52.3883238708066,0 4.54693295632289,52.3883318324333,0 4.54703714875108,52.3883413850472,0 4.54715596472373,52.3883563601947,0 4.54727832575339,52.3883757062002,0 4.54739574168083,52.3884004613915,0 4.54765443668967,52.3884672950733,0 4.54773524922863,52.3884901461917,0 4.54784467143091,52.3885255358949,0 4.54794267110771,52.3885597470497,0 4.5480336018301,52.3885946747374,0 4.54816394434478,52.3886457737937,0 4.54821036327808,52.3886641417157,0 4.54821042824608,52.3886641673758,0 4.54824162824608,52.3886764673758,0 4.54832065304747,52.3887075771463,0 4.54837108911952,52.3887273913321,0 4.54837234755588,52.3887278680303,0 4.54848964755588,52.3887706680303,0 4.54848986546796,52.3887707470213,0 4.54860066546796,52.3888106470213,0 4.54860160762206,52.388810976672,0 4.54870050762206,52.388844576672,0 4.54870164251988,52.3888449485448,0 4.54880744251988,52.3888783485448,0 4.5488084458721,52.3888786548017,0 4.5489227458721,52.3889123548017,0 4.54892570018653,52.3889131373206,0 4.54903830018653,52.3889396373206,0 4.54903996837526,52.3889400026862,0 4.54916126837526,52.3889646026862,0 4.54916311579697,52.3889649446058,0 4.54930881579697,52.3889893446058,0 4.5493118819753,52.3889897697666,0 4.5494626819753,52.3890063697666,0 4.54946466628702,52.3890065518838,0 4.54963056628702,52.3890187518838,0 4.5496320511949,52.38901884091,0 4.5497290511949,52.38902334091,0 4.54973081789346,52.3890233944389,0 4.54986441789346,52.3890252944389,0 4.5498651599709,52.3890252999854,0 4.5500025599709,52.3890253999854,0 4.55000387260413,52.3890253852751,0 4.55012917260413,52.3890224852751,0 4.55012953019827,52.3890224758352,0 4.55028803019827,52.3890177758352,0 4.55028834675943,52.3890177655358,0 4.55046904675943,52.3890113655358,0 4.55145996362774,52.3889759649358,0 4.5514607714495,52.388975930129,0 4.55155987144949,52.388970930129,0 4.55156071061566,52.388970881358,0 4.55165191061566,52.388964881358,0 4.55165232761876,52.3889648523316,0 4.55173812761876,52.3889585523316,0 4.5517397907678,52.3889584048002,0 4.5518291907678,52.3889491048002,0 4.55183043571238,52.3889489609374,0 4.55191303571238,52.3889384609374,0 4.55191476384255,52.3889382133302,0 4.55200566384255,52.3889237133302,0 4.55200823295146,52.3889232406984,0 4.55210553295146,52.3889029406984,0 4.55210752875872,52.3889024853907,0 4.55219832875872,52.3888799853907,0 4.55220060007462,52.3888793707086,0 4.55227550007463,52.3888573707086,0 4.55227734646779,52.3888567929119,0 4.55234534646779,52.3888341929119,0 4.5523477662974,52.3888333253688,0 4.5524243662974,52.3888038253688,0 4.55242719669141,52.3888026436889,0 4.55251329669141,52.3887638436889,0 4.55251587887322,52.3887625981016,0 4.55259627887322,52.3887211981016,0 4.55259862930705,52.3887199144648,0 4.55266642930705,52.3886807144647,0 4.55266912759511,52.388679048803,0 4.55273342759511,52.388636748803,0 4.55273530504498,52.3886354572064,0 4.55273712737989,52.3886340889466,0 4.55280232737989,52.3885829889466,0 4.55280419352554,52.3885814591131,0 4.55284969352554,52.3885424591131,0 4.55285252721507,52.3885398527554,0 4.55289722721507,52.3884957527554,0 4.55289979306753,52.3884930435342,0 4.55293969306753,52.3884479435342,0 4.55294173948377,52.3884454903963,0 4.55297113948377,52.3884080903963,0 4.55297317353757,52.3884053299023,0 4.55300497353757,52.3883592299023,0 4.55300658590513,52.3883567525981,0 4.55300806285744,52.3883541922511,0 4.55303346285744,52.3883072922511,0 4.55303463162589,52.3883050085348,0 4.55305973162589,52.3882530085348,0 4.55306076712506,52.3882507325187,0 4.55306169810477,52.3882484117893,0 4.55307909810477,52.3882020117893,0 4.5530803338962,52.3881983248581,0 4.5530931338962,52.3881551248581,0 4.55309397335532,52.3881519457061,0 4.55309462133707,52.3881487220717,0 4.55310292133707,52.3880999220717,0 4.55310339441557,52.3880964897242,0 4.55310809441557,52.3880520897242,0 4.55310828125753,52.3880499121422,0 4.55311138125754,52.3880028121422,0 4.55311149147424,52.3880001683804,0 4.55311147440843,52.3879975223772,0 4.55311017440843,52.3879549223772,0 4.55311001332292,52.3879520723483,0 4.55310970458367,52.3879492345157,0 4.55310320458367,52.3879011345157,0 4.55310280513529,52.3878986189912,0 4.55310228965289,52.3878961246575,0 4.5530910896529,52.3878476246575,0 4.55309010780188,52.3878439557119,0 4.55307540780188,52.3877957557119,0 4.55307466767175,52.3877935039724,0 4.55307383121138,52.3877912862128,0 4.55305763121138,52.3877509862128,0 4.55305619694209,52.3877477272565,0 4.55303649694209,52.3877066272565,0 4.55303520608715,52.3877041031952,0 4.55301680608715,52.3876703031952,0 4.55301555795443,52.3876681298591,0 4.55301421210878,52.3876660156394,0 4.55298631210878,52.3876243156394,0 4.55298393248529,52.387621028246,0 4.55295493248529,52.387583928246,0 4.55295373757994,52.3875824528027,0 4.55291573757994,52.3875371528027,0 4.55291337692277,52.3875345158399,0 4.55287949340909,52.3874990331044,0 4.55284890988603,52.387466950389,0 4.55284700448909,52.3874650471493,0 4.55280200448909,52.3874222471493,0 4.55280096411101,52.3874212828796,0 4.55275656411101,52.3873811828796,0 4.5527559791779,52.3873806621088,0 4.55215155842889,52.3868502071865,0 4.55209211823951,52.3867966022237,0 4.55203584536682,52.3867439022318,0 4.55198753800826,52.3866984364826,0 4.55194811234475,52.3866576645769,0 4.55191172879719,52.3866172817654,0 4.5518741719382,52.3865743596409,0 4.55182554509639,52.3865143832746,0 4.55177859521209,52.3864534966878,0 4.55173069667342,52.3863902944666,0 4.55168095720185,52.3863233106492,0 4.55168022845526,52.3863223513812,0 4.55164152845526,52.3862725513812,0 4.55164079166168,52.3862716240426,0 4.55130639166168,52.3858599240426,0 4.55130516853648,52.3858584702272,0 4.55127606853648,52.3858250702272,0 4.55127437242756,52.3858232111331,0 4.55127259305271,52.385821431571,0 4.55125019305271,52.385800031571,0 4.55124858769699,52.3857985576006,0 4.5512469252065,52.3857971483877,0 4.5512243252065,52.3857787483877,0 4.55122239607228,52.3857772477901,0 4.5512204021769,52.3857758343781,0 4.55121834745765,52.3857745109429,0 4.55118474745765,52.3857539109429,0 4.55118253214668,52.3857526227731,0 4.55118025923697,52.3857514391914,0 4.55115095923697,52.3857370391914,0 4.55114806643043,52.3857357198693,0 4.55110916643044,52.3857193198693,0 4.55110618320963,52.3857181631636,0 4.55110313777412,52.3857171818906,0 4.55105423777411,52.3857029818906,0 4.55105184318304,52.385702344654,0 4.55101054318304,52.385692344654,0 4.55100639644106,52.3856915079875,0 4.55094899644106,52.3856822079875,0 4.55094585377994,52.3856817913647,0 4.55088005377994,52.3856749913647,0 4.55087845264753,52.3856748495119,0 4.55079995264753,52.3856690495119,0 4.55079852769668,52.3856689628067,0 4.55070862769668,52.3856646628067,0 4.55070719971448,52.3856646130862,0 4.55059719971448,52.3856622130862,0 4.55059567511115,52.3856622009596,0 4.55047717511115,52.3856629009596,0 4.5504758777553,52.3856629239296,0 4.5503538777553,52.3856665239296,0 4.55035274268723,52.3856665691596,0 4.55022524268723,52.3856729691596,0 4.55022390410901,52.3856730527241,0 4.55010740410901,52.3856817527241,0 4.55010572946341,52.3856819035567,0 4.54997302946341,52.3856959035567,0 4.54997158552563,52.3856960752225,0 4.54985368552563,52.3857116752225,0 4.54985239448386,52.3857118616508,0 4.54972909448386,52.3857311616508,0 4.54972764451277,52.3857314085194,0 4.54961354451277,52.3857524085194,0 4.5496126253877,52.3857525857829,0 4.5494951253877,52.3857762857829,0 4.54949413806143,52.3857764943726,0 4.54943663806143,52.3857891943726,0 4.54943559910439,52.3857894344326,0 4.54935519910439,52.3858088344326,0 4.54935411029974,52.3858091089454,0 4.54924841029974,52.3858369089454,0 4.54924663427042,52.3858374080483,0 4.54913333427042,52.3858713080483,0 4.54913200526072,52.3858717240984,0 4.54902130526072,52.3859079240984,0 4.54901951733141,52.385908543008,0 4.54889531733141,52.385953943008,0 4.54889380637817,52.3859545206481,0 4.54875980637817,52.3860080206481,0 4.5487576044471,52.386008955798,0 4.5486513044471,52.3860568557981,0 4.54865029778379,52.3860573216809,0 4.54857599778379,52.3860926216809,0 4.54857380367271,52.3860937248057,0 4.54849170367271,52.3861373248057,0 4.54849077181831,52.3861378312544,0 4.54842207181831,52.3861760312544,0 4.54842194498893,52.3861761019961,0 4.54836564498893,52.3862076019961,0 4.54836431614637,52.3862083700265,0 4.54832141614636,52.3862339700265,0 4.54831854238464,52.3862358081006,0 4.54828434238464,52.3862592081006,0 4.54828222031841,52.3862607353362,0 4.54825102031841,52.3862843353362,0 4.54824772579252,52.3862870340895,0 4.54822052579252,52.3863111340895,0 4.54821838929658,52.3863131309614,0 4.54821636195868,52.3863152385699,0 4.54821444951039,52.3863174509565,0 4.54819634951039,52.3863395509565,0 4.54819474812304,52.3863416034794,0 4.54819324565474,52.3863437294806,0 4.54819184547167,52.3863459241969,0 4.54817544547167,52.3863730241969,0 4.54817375431051,52.3863760273135,0 4.54817225456659,52.3863791304577,0 4.54815925456659,52.3864083304577,0 4.54815827146766,52.3864106840695,0 4.54815739854769,52.3864130807302,0 4.54815663768412,52.3864155152853,0 4.54815599051336,52.3864179824987,0 4.54815069051336,52.3864402824987,0 4.54815003857655,52.3864434323352,0 4.54814957188957,52.3864466148962,0 4.54814687188957,52.3864697148962,0 4.54814660760494,52.3864726612554,0 4.54814650211591,52.3864756175624,0 4.54814630211591,52.3864984175624,0 4.54814636276406,52.3865015268056,0 4.54814659904921,52.3865046276507,0 4.54814701021594,52.3865077101843,0 4.54815071021594,52.3865305101843,0 4.54815125432251,52.3865333791332,0 4.54815194992828,52.3865362151607,0 4.54815279507247,52.3865390102727,0 4.54815378737276,52.3865417565902,0 4.54815492403205,52.3865444463719,0 4.54816832403205,52.3865739463719,0 4.54816953850179,52.3865764498315,0 4.54817087802865,52.3865788886663,0 4.54817233918422,52.386581256634,0 4.54818773918422,52.386604856634,0 4.54818918576377,52.3866069647311,0 4.5481907287494,52.386609003324,0 4.54819236480688,52.3866109680076,0 4.54821296480688,52.3866345680076,0 4.54821513709992,52.3866369152525,0 4.54821744215239,52.3866391322661,0 4.54824334215239,52.3866626322661,0 4.5482462340993,52.3866650800233,0 4.5482751340993,52.3866878800233,0 4.54827740904625,52.3866895813465,0 4.54830860904625,52.3867116813465,0 4.54831206085998,52.3867139369615,0 4.54834516085998,52.3867338369615,0 4.5483471019107,52.3867349508122,0 4.54837465959367,52.3867500276605,0 4.5484070173169,52.3867678044344,0 4.54840912261878,52.3867689025687,0 4.54844512261878,52.3867867025687,0 4.54844776632763,52.3867879237319,0 4.54848345514238,52.3868032759036,0 4.54851894416881,52.3868187275865,0 4.54851958262483,52.3868190007842,0 4.54856358262483,52.3868375007842,0 4.548564702484,52.3868379572121,0 4.548599402484,52.3868516572121,0 4.54860090767567,52.3868522261734,0 4.54863300767567,52.3868638261734,0 4.54863435158522,52.3868642922648,0 4.54866985158522,52.3868760922648,0 4.54867040635412,52.3868762734041,0 4.54870718792569,52.386888067495,0 4.54875756949507,52.3869042615709,0 4.54876000468664,52.386904982718,0 4.5488010802603,52.3869161218566,0 4.54884295635681,52.3869278590998,0 4.54884435270186,52.386928230762,0 4.54887925270186,52.386937030762,0 4.54888131267078,52.386937508259,0 4.54892431267078,52.386946608259,0 4.5489258874688,52.3869469175963,0 4.5489622874688,52.3869535175963,0 4.54896425015968,52.3869538369361,0 4.5489960167819,52.3869584177029,0 4.54902738350041,52.3869630978164,0 4.54902920931828,52.3869633390641,0 4.54905960931828,52.3869668390641,0 4.54905997410711,52.3869668798299,0 4.54910057410711,52.3869712798299,0 4.54910104047968,52.3869713283623,0 4.54914214047968,52.3869754283623,0 4.54914237007477,52.3869754507797,0 4.54920937007477,52.3869818507797,0 4.54921027249507,52.3869819294875,0 4.54946338088585,52.3870019064718,0 4.54954879917356,52.3870095632915,0 4.54962620893316,52.3870170449049,0 4.54970014528428,52.3870241904314,0 4.54977108045409,52.3870325240738,0 4.54984100549606,52.3870407447232,0 4.54989837293301,52.38704892599,0 4.54996647386629,52.3870590517847,0 4.55003515419582,52.3870701356419,0 4.55009578992648,52.3870808012102,0 4.55015825595568,52.3870926995015,0 4.55022337420538,52.3871054852765,0 4.55029553609136,52.3871208494143,0 4.55035481345171,52.3871339559664,0 4.55041156172346,52.3871469752721,0 4.55047222163269,52.3871612249082,0 4.5505294147889,52.387175793905,0 4.55057990797973,52.387189483611,0 4.55058025537916,52.3871895765797,0 4.55062947372684,52.3872025757804,0 4.5506792511576,52.3872164899441,0 4.55073264317735,52.3872328204703,0 4.55076841285091,52.3872446147951,0 4.55080195162578,52.3872566272503,0 4.55082576654947,52.3872658937575,0 4.55084866895504,52.3872760520826,0 4.55087054200477,52.3872865251954,0 4.55089112030942,52.3872974247211,0 4.55090860079231,52.3873086499332,0 4.55092638117861,52.3873211620569,0 4.5509493166441,52.387337557331,0 4.55096478967633,52.3873514656746,0 4.55098660105739,52.3873711538239,0 4.55100110807767,52.3873852439758,0 4.5510128807424,52.3873995086644,0 4.55101304782962,52.387399710142,0 4.55102703146539,52.3874164905049,0 4.55103773150423,52.3874301244254,0 4.5510468537473,52.3874436128702,0 4.55105512661788,52.3874588215818,0 4.55106168969525,52.3874717133409,0 4.55106651035914,52.3874848745185,0 4.55107133654949,52.3874997040852,0 4.5510761303974,52.3875168958157,0 4.55107908405059,52.3875332674933,0 4.55108121387306,52.3875464560094,0 4.551082,52.3875574617866,0 4.551082,52.3875706722692,0 4.55108133006229,52.3875870020009,0 4.55107997560284,52.3875986931246,0 4.55107734393052,52.3876108452585,0 4.55107312962148,52.3876275404059,0 4.55106956871216,52.3876370124247,0 4.55106231519928,52.3876543690448,0 4.55105431395135,52.3876702115157,0 4.55104629320601,52.3876830909818,0 4.5510373221082,52.3876953627665,0 4.55102730530177,52.3877083410635,0 4.55101923269667,52.3877175543628,0 4.55100883444715,52.3877294240624,0 4.55099992241117,52.3877393680183,0 4.55098857900097,52.3877515090121,0 4.55097729627613,52.3877622865403,0 4.55095967095883,52.3877775250959,0 4.550942386949,52.3877916979839,0 4.55092781680885,52.3878013539348,0 4.55092759207727,52.3878015036646,0 4.55090729607378,52.3878150981575,0 4.5508873084734,52.3878273696145,0 4.55086590262173,52.3878397868618,0 4.55084074640609,52.3878528644613,0 4.55081381015898,52.3878649393307,0 4.55078866294314,52.3878754879755,0 4.55075971346106,52.3878863910272,0 4.55071933681107,52.3879000086238,0 4.55069355792781,52.3879074928157,0 4.55066443591682,52.3879147733184,0 4.55062916183306,52.3879215459425,0 4.55059314201418,52.3879274539551,0 4.55054702719314,52.3879332063237,0 4.55048320095226,52.3879389555576,0 4.54978012370113,52.3879833036609,0 4.54969523136613,52.3879883912157,0 4.54961634206228,52.387992768428,0 4.54953001908056,52.3879966469951,0 4.54944915277043,52.3879997266704,0 4.54936709875595,52.3880018178528,0 4.54936696265152,52.38800182149,0 4.54929217904378,52.3880039126428,0 4.5492013474668,52.3880054065832,0 4.54911247267287,52.3880067003932,0 4.54901104597252,52.3880068000265,0 4.54892466054451,52.3880068996629,0 4.54882153203544,52.3880058036111,0 4.54870857873364,52.3880044078951,0 4.54856275257088,52.3880010189071,0 4.54839090116578,52.3879959321853,0 4.54824983949672,52.3879903495326,0 4.54813631110146,52.387985175583,0 4.54799462598988,52.3879766127442,0 4.54789360924161,52.3879697388235,0 4.54776226987034,52.387959958232,0 4.54764908829455,52.387951175182,0 4.54754133123445,52.3879422869722,0 4.54742074624118,52.3879322965005,0 4.54731515151237,52.3879231403129,0 4.54721219979335,52.3879126959356,0 4.5470898665992,52.3878996137736,0 4.54696942556373,52.3878866524039,0 4.54685195793421,52.3878725284383,0 4.54672944972493,52.3878564666943,0 4.54658233574032,52.3878371910668,0 4.54646469656542,52.3878209409096,0 4.54633658278484,52.3878024256313,0 4.54618114931606,52.3877775323787,0 4.54604304508495,52.3877540995309,0 4.54590418054934,52.3877297758075,0 4.54576360058095,52.3877035912949,0 4.54561876221165,52.3876747831127,0 4.5455048188343,52.387651535471,0 4.54538488339084,52.3876264907153,0 4.54524672598928,52.3875968855578,0 4.54513124403708,52.3875707800604,0 4.54501025398138,52.387542874611,0 4.54489204638144,52.3875142454286,0 4.5448919289554,52.3875142171251,0 4.54476896233888,52.387484721081,0 4.54463869398047,52.3874512320462,0 4.54463830972597,52.3874511347379,0 4.54451176679758,52.3874195739129,0 4.54431819790814,52.387370084135,0 4.54418084169296,52.3873334558109,0 4.54404813915133,52.3872960804134,0 4.54392290809391,52.3872586104859,0 4.54381484336329,52.3872247409334,0 4.54372573958019,52.387195336685,0 4.54341304009909,52.3870854126337,0 4.54341235834483,52.3870851779842,0 4.54337465834483,52.3870724779842,0 4.54337127144579,52.3870714570783,0 4.54333827144579,52.3870626570783,0 4.54333678431035,52.3870622826358,0 4.54330598431035,52.3870549826358,0 4.54330291536852,52.3870543470251,0 4.54329981520487,52.3870538872533,0 4.54327131520487,52.3870504872533,0 4.54326884960247,52.387050249287,0 4.54326637578597,52.3870501225783,0 4.54323497578597,52.3870492225783,0 4.54323093748593,52.3870492551547,0 4.54319523748593,52.3870508551547,0 4.54319147444675,52.3870511534769,0 4.54316777444674,52.3870538534769,0 4.54316539204291,52.3870541777847,0 4.5431630260896,52.3870546059067,0 4.5431409260896,52.3870591059067,0 4.54313854431907,52.3870596462205,0 4.54313618888361,52.3870602917386,0 4.54311538888361,52.3870664917386,0 4.54311307709844,52.3870672367917,0 4.54311080046212,52.3870680831851,0 4.54310856341464,52.3870690292683,0 4.54308986341464,52.3870774292683,0 4.54308745580943,52.3870785817651,0 4.54307055580943,52.3870871817651,0 4.543068616693,52.3870882178387,0 4.54306672053318,52.3870893305826,0 4.54305532053318,52.3870963305826,0 4.54305298183836,52.3870978495864,0 4.54305072314413,52.3870994851799,0 4.54303592314413,52.3871107851799,0 4.54303416292692,52.3871121870458,0 4.54301706292692,52.3871263870458,0 4.54301519720862,52.3871280085583,0 4.54301340623238,52.3871297122635,0 4.54299330623238,52.3871497122636,0 4.5429907568567,52.3871524268074,0 4.54291304759124,52.3872409975966,0 4.54289164925197,52.3872628551277,0 4.54286814182796,52.3872848336136,0 4.54284129782618,52.3873094249719,0 4.54282652338463,52.3873210159702,0 4.54280660699104,52.3873342935659,0 4.54278354356985,52.3873480952983,0 4.5427643564705,52.3873583049475,0 4.54274199590772,52.3873686048918,0 4.54270782132084,52.3873817560878,0 4.54267848353613,52.3873916575901,0 4.54264926256387,52.3873995941505,0 4.54261738400832,52.3874062470664,0 4.54258413035955,52.3874118817125,0 4.54254736164357,52.3874157372556,0 4.54251658589787,52.387418286167,0 4.54248210285732,52.3874195944667,0 4.54244666442058,52.3874194064644,0 4.54240846083436,52.3874177127093,0 4.54237228553248,52.387414356238,0 4.54234306499238,52.3874102342182,0 4.54231312040695,52.3874044473812,0 4.54227943858309,52.3873962595345,0 4.54225292510098,52.3873884883415,0 4.54222465007467,52.3873787188972,0 4.54219473140053,52.3873676169992,0 4.54216507837908,52.3873548825728,0 4.54214260245172,52.3873434114564,0 4.54212323036048,52.3873335391295,0 4.54210291151966,52.3873216128533,0 4.54208692432968,52.387311039315,0 4.54207300486705,52.3873002871552,0 4.5420588638988,52.3872880821529,0 4.54204738398559,52.3872766022397,0 4.54203531034379,52.3872637687183,0 4.54202536687273,52.3872511481589,0 4.54201791094724,52.3872396536071,0 4.54201003367123,52.3872260259196,0 4.5420026532163,52.3872095558517,0 4.54199918179876,52.3871996089053,0 4.5419974383679,52.3871921852643,0 4.5419962950437,52.3871827210806,0 4.54199603821961,52.3871746311216,0 4.54199647022426,52.3871647670153,0 4.54199811531786,52.3871495694839,0 4.54200031496443,52.3871385712511,0 4.54200430547229,52.3871233347666,0 4.54200444203256,52.3871228025207,0 4.54200923682262,52.3871037192563,0 4.54202630670417,52.3870436293265,0 4.54202638203406,52.387043361574,0 4.54252758203406,52.385244461574,0 4.54260208496612,52.3849768510463,0 4.54260254574474,52.384975082772,0 4.54260854574474,52.384950382772,0 4.54260914269034,52.384947617026,0 4.54261294269034,52.384927517026,0 4.54261353874324,52.3849235934678,0 4.54261573874324,52.3849044934678,0 4.54261598157997,52.38490180724,0 4.54261738157997,52.38488050724,0 4.54261749477949,52.3848776577789,0 4.54261746013409,52.3848748062806,0 4.54261666013409,52.3848538062806,0 4.54261651214648,52.3848513581283,0 4.54261625516241,52.3848489190077,0 4.54261355516241,52.3848278190077,0 4.54261315787031,52.3848252122431,0 4.54260945787031,52.3848043122431,0 4.54260901874562,52.3848020976117,0 4.54260848909955,52.3847999028685,0 4.54260348909955,52.3847809028685,0 4.54260301750332,52.3847792199221,0 4.54259721750332,52.3847597199221,0 4.5425962702936,52.3847568302208,0 4.5425896702936,52.3847384302208,0 4.54258951899398,52.3847380137034,0 4.54258311899398,52.3847206137034,0 4.54258228446679,52.3847184827574,0 4.54258136201336,52.3847163883731,0 4.54257326201336,52.3846989883731,0 4.54257153495332,52.384695591237,0 4.54256263495332,52.384679491237,0 4.5425607566905,52.3846763456964,0 4.5425488566905,52.3846578456964,0 4.5425479482344,52.3846564786627,0 4.5425374482344,52.3846411786627,0 4.54253596110368,52.3846391156123,0 4.54252446110368,52.3846239156123,0 4.54252181893538,52.3846206857258,0 4.54250741893538,52.3846043857258,0 4.54250737234991,52.3846043330615,0 4.54249187234991,52.3845868330615,0 4.54248896473108,52.3845837929075,0 4.54247306473108,52.3845683929075,0 4.54247122087881,52.3845666869003,0 4.54245402087881,52.3845514869003,0 4.54245304780197,52.3845506470175,0 4.54243394780197,52.3845345470175,0 4.54243186703257,52.3845328776815,0 4.54241286703257,52.3845183776815,0 4.54241065061008,52.3845167718686,0 4.54238795061008,52.3845011718686,0 4.54238774432238,52.3845010307916,0 4.54236614432238,52.3844863307916,0 4.54236371480122,52.3844847690941,0 4.54233831480122,52.3844693690941,0 4.54233706620558,52.3844686343844,0 4.54231306620558,52.3844549343844,0 4.54231088098864,52.3844537516189,0 4.54228668098864,52.3844413516189,0 4.54228519421197,52.3844406178789,0 4.54225929421197,52.3844283178789,0 4.54225727799146,52.3844274095831,0 4.54222937799146,52.3844155095831,0 4.54222749209136,52.3844147461147,0 4.54220089209136,52.3844045461147,0 4.54220024588612,52.384404302963,0 4.54217044588612,52.384393302963,0 4.54216764670311,52.3843923543566,0 4.54213174670311,52.3843812543566,0 4.54213010875612,52.3843807756259,0 4.54209090875612,52.3843699756259,0 4.54208866727287,52.3843694084842,0 4.54204966727287,52.3843604084842,0 4.54204757277366,52.3843599678788,0 4.54200707277366,52.3843522678788,0 4.54200606728673,52.3843520863726,0 4.54197096728673,52.3843460863726,0 4.5419694781746,52.3843458527779,0 4.54194091922874,52.3843417729284,0 4.54191136017635,52.3843373938096,0 4.54190922910048,52.3843371205179,0 4.54188432910048,52.3843344205179,0 4.54188270051849,52.3843342683892,0 4.54185210051849,52.3843318683892,0 4.5418503514298,52.3843317592118,0 4.5418180514298,52.3843302592118,0 4.54181728372197,52.3843302289318,0 4.54178338372197,52.3843291289318,0 4.54178243868243,52.3843291063948,0 4.54173653868243,52.3843284063948,0 4.54173640513822,52.3843284045204,0 4.54069910513822,52.3843151045204,0 4.54069796864072,52.3843151016916,0 4.54062146864072,52.3843157016916,0 4.54062053903072,52.3843157168411,0 4.54055993903072,52.3843172168411,0 4.54055919468924,52.3843172403087,0 4.54050959468924,52.3843191403087,0 4.54050814554133,52.3843192149763,0 4.54045564554133,52.3843226149763,0 4.54045483228644,52.3843226737009,0 4.54040713228644,52.3843264737009,0 4.54040662280932,52.3843265166721,0 4.54035832280932,52.3843308166721,0 4.54035748483881,52.3843308977429,0 4.54031728483881,52.3843350977429,0 4.54031636154539,52.3843352020978,0 4.54027606154539,52.3843401020978,0 4.54027584625916,52.384340128705,0 4.54023364625916,52.384345428705,0 4.54023256688442,52.3843455751373,0 4.54020306688442,52.3843498751373,0 4.54020269628639,52.3843499304466,0 4.54017519628639,52.3843541304466,0 4.54017466284188,52.3843542146002,0 4.54014456284188,52.3843591146002,0 4.54014385228121,52.3843592350569,0 4.54011435228121,52.3843644350569,0 4.54011324797173,52.384364641365,0 4.54008242504968,52.3843707261489,0 4.54005370216875,52.3843763111536,0 4.54005256400204,52.3843765449672,0 4.54001976400204,52.3843836449672,0 4.54001923306061,52.3843837626475,0 4.53998793306061,52.3843908626475,0 4.53998722438742,52.3843910283383,0 4.53995192438742,52.3843995283383,0 4.53995146054063,52.3843996421625,0 4.53992306054063,52.3844067421625,0 4.53992171252599,52.3844070973764,0 4.53988870970436,52.3844162427366,0 4.53985620728366,52.3844249895654,0 4.53985536736641,52.3844252227516,0 4.53982496736641,52.3844339227516,0 4.53982467557699,52.3844340071295,0 4.53979147557699,52.3844437071295,0 4.53979016163052,52.3844441089035,0 4.53975886163052,52.3844541089035,0 4.53975853038073,52.3844542158906,0 4.53971963038073,52.3844669158906,0 4.53971923042016,52.3844670481661,0 4.53967863042016,52.3844806481661,0 4.5396772719705,52.384481123068,0 4.5396385719705,52.384495223068,0 4.53963748251884,52.3844956331106,0 4.53959398251884,52.3845125331106,0 4.53959248888619,52.3845131387307,0 4.53954934660915,52.3845313720718,0 4.53950640474455,52.3845492063961,0 4.53950440997273,52.3845500815601,0 4.53945900997273,52.3845710815601,0 4.53945776387593,52.3845716770534,0 4.53941986387593,52.3845903770534,0 4.53941971989325,52.3845904483566,0 4.53936901989325,52.3846156483566,0 4.53936713260258,52.3846166324089,0 4.53932283260258,52.3846408324089,0 4.53932196877346,52.3846413144342,0 4.53928546877346,52.3846621144342,0 4.53928450645453,52.3846626758113,0 4.53924430645453,52.3846866758113,0 4.53924315944126,52.384687379772,0 4.53919495944126,52.384717779772,0 4.5391936217894,52.3847186508226,0 4.5391564217894,52.3847436508226,0 4.53915472394865,52.3847448388788,0 4.53912492394865,52.3847665388788,0 4.53912361812419,52.3847675197603,0 4.53908811812419,52.3847950197603,0 4.53908622668744,52.3847965531356,0 4.5390579717315,52.3848205149357,0 4.53902781686011,52.3848459768304,0 4.53902668673899,52.3848469577155,0 4.53899888673899,52.3848717577155,0 4.53899678287369,52.3848737361532,0 4.53896298287369,52.3849072361532,0 4.53896158003701,52.3849086783497,0 4.53893598003701,52.3849359783497,0 4.53893367446968,52.3849385989375,0 4.53890727446968,52.3849705989375,0 4.53890678340178,52.3849712028257,0 4.53887448340178,52.3850115028257,0 4.53887259979166,52.3850139948071,0 4.53884859979166,52.3850476948071,0 4.538847980946,52.3850485821095,0 4.538819980946,52.3850895821095,0 4.53881862643888,52.3850916650042,0 4.53879802643888,52.3851249650042,0 4.5387969232112,52.3851268294792,0 4.5387727232112,52.3851696294792,0 4.5387717612886,52.3851714061219,0 4.5387529612886,52.3852077061219,0 4.53875182793303,52.3852100262645,0 4.53873812793303,52.3852398262645,0 4.53873734979587,52.3852416005476,0 4.53872744979587,52.3852653005476,0 4.53872687534582,52.385266731847,0 4.53871597534582,52.385295031847,0 4.53871541662961,52.3852965485377,0 4.53870651662961,52.3853218485377,0 4.53870564630182,52.3853245421297,0 4.53869694630182,52.3853540421297,0 4.53869635468776,52.3853562105392,0 4.53869005468776,52.3853813105392,0 4.53868956277151,52.3853834504299,0 4.53868396277151,52.3854102504299,0 4.5386836295509,52.3854119835698,0 4.5386797295509,52.3854341835698,0 4.53867950674427,52.3854355529925,0 4.53867611365663,52.3854582068424,0 4.53867212064727,52.3854845607041,0 4.53867167671955,52.3854883945578,0 4.53866987671955,52.3855107945578,0 4.53866972882553,52.3855134195571,0 4.53866892882553,52.3855381195571,0 4.53866891357522,52.3855411219205,0 4.53866971357522,52.3855771219205,0 4.53866972147097,52.385577436667,0 4.53867062147097,52.385609636667,0 4.53867073126343,52.3856118975975,0 4.53867363126343,52.3856537975975,0 4.53867391016196,52.385656704445,0 4.53867434295054,52.3856595923925,0 4.53867914295054,52.3856866923925,0 4.53867942659363,52.3856881750208,0 4.53868532659363,52.3857168750208,0 4.53868555776856,52.3857179454109,0 4.53869148451546,52.3857441218764,0 4.53869731517023,52.3857713974817,0 4.53869785750282,52.3857736926246,0 4.53870715750282,52.3858095926246,0 4.53870791418469,52.3858122389535,0 4.53871621418469,52.3858387389535,0 4.53871692864837,52.3858408668293,0 4.53871772934025,52.385842963781,0 4.53872672934025,52.385865163781,0 4.53872681189259,52.3858653662532,0 4.53873661189259,52.3858892662532,0 4.53873710368978,52.3858904275263,0 4.53875030368978,52.3859206275263,0 4.53875169569369,52.3859235715431,0 4.53876499569369,52.3859496715431,0 4.53876603526272,52.3859516143824,0 4.53878393526272,52.3859835143824,0 4.5387850944277,52.3859854831854,0 4.5388045944277,52.3860170831854,0 4.53880516285336,52.386017984665,0 4.53882616285336,52.386050584665,0 4.5388265203224,52.3860511324114,0 4.5388464203224,52.3860812324114,0 4.53884661128722,52.3860815192999,0 4.53898681128722,52.3862907192999,0 4.53898705314198,52.3862910771383,0 4.53913750857367,52.3865118117517,0 4.53946960983264,52.3870020659883,0</coordinates></LineString>
  </Placemark>
</Folder>
</Document></kml>
