<?xml version="1.0" encoding="utf-8" ?>
<kml xmlns="http://www.opengis.net/kml/2.2">
<Document id="root_doc">
<Schema name="zandvoort_boundary4" id="zandvoort_boundary4">
	<SimpleField name="access" type="string"></SimpleField>
	<SimpleField name="descriptio" type="string"></SimpleField>
	<SimpleField name="highway" type="string"></SimpleField>
	<SimpleField name="name_en" type="string"></SimpleField>
	<SimpleField name="name_fr" type="string"></SimpleField>
	<SimpleField name="note" type="string"></SimpleField>
	<SimpleField name="old_name" type="string"></SimpleField>
	<SimpleField name="old_name_n" type="string"></SimpleField>
	<SimpleField name="oneway" type="string"></SimpleField>
	<SimpleField name="raceway" type="string"></SimpleField>
	<SimpleField name="sport" type="string"></SimpleField>
	<SimpleField name="surface" type="string"></SimpleField>
	<SimpleField name="width" type="string"></SimpleField>
	<SimpleField name="wikidata" type="string"></SimpleField>
	<SimpleField name="wikipedia" type="string"></SimpleField>
</Schema>
<Folder><name>zandvoort_boundary4</name>
  <Placemark id="zandvoort_boundary4.1">
	<name>CM.com bocht</name>
	<Style><LineStyle><color>ff0000ff</color></LineStyle><PolyStyle><fill>0</fill></PolyStyle></Style>
	<ExtendedData><SchemaData schemaUrl="#zandvoort_boundary4">
		<SimpleData name="access">private</SimpleData>
		<SimpleData name="highway">raceway</SimpleData>
		<SimpleData name="old_name">Vodafonebocht</SimpleData>
		<SimpleData name="oneway">yes</SimpleData>
		<SimpleData name="sport">motor</SimpleData>
		<SimpleData name="surface">asphalt</SimpleData>
		<SimpleData name="width">10</SimpleData>
		<SimpleData name="wikidata">Q173083</SimpleData>
		<SimpleData name="wikipedia">nl:Circuit Zandvoort</SimpleData>
	</SchemaData></ExtendedData>
      <LineString><coordinates>4.54009213868542,52.3877309061815,0 4.5409218319225,52.3889640961297,0 4.541230430694,52.389422694304,0 4.54147623166544,52.3897879957477,0 4.54268860774273,52.3915898931856,0 4.54271354473396,52.3916166676393,0 4.54273959441036,52.391642893327,0 4.54278014398929,52.3916729589336,0 4.54283730272956,52.3917046535906,0 4.54290152376981,52.3917305281546,0 4.54296536343218,52.3917516213764,0 4.54303598508315,52.3917665623564,0 4.543112578403,52.391775461951,0 4.54319615865768,52.3917797214204,0 4.54327095616026,52.3917755245531,0 4.54336161911502,52.3917622222881,0 4.54344104326244,52.3917414584137,0 4.54350442193632,52.3917171450431,0 4.54355913021799,52.3916874202101,0 4.54360201891683,52.3916590098618,0 4.54365397185057,52.3916168882992,0 4.54368895771128,52.3915771470788,0 4.54371212061622,52.3915392297207,0 4.54372393680008,52.3915013553301,0 4.54373023485509,52.391459395561,0 4.5437289196145,52.3914266692806,0 4.54372403633814,52.3914023965245,0 4.54371354056048,52.3913770511652,0 4.54369805035349,52.3913475418881,0 4.54335861906279,52.390830597072,0 4.54309977564563,52.3904782630405,0 4.54309790577323,52.3904755511878,0 4.54309620159789,52.3904727322599,0 4.54304140159789,52.3903756322599,0 4.54304129159801,52.3903754364181,0 4.54298349159801,52.3902720364181,0 4.5429820102241,52.3902691950429,0 4.5429404102241,52.3901833950429,0 4.54293881655175,52.3901797833588,0 4.54290621655175,52.3900980833588,0 4.5429050251457,52.3900947979416,0 4.5428806251457,52.3900201979416,0 4.54287963034036,52.3900167873431,0 4.54286483034035,52.3899591873431,0 4.54286425872889,52.389956730206,0 4.54285015872889,52.389889130206,0 4.54284961369236,52.3898860932619,0 4.54283801369236,52.3898090932619,0 4.54283759199917,52.3898054916277,0 4.54283129199917,52.3897302916277,0 4.54283110473275,52.3897264215123,0 4.54283020473275,52.3896578215123,0 4.54283020007162,52.3896571887573,0 4.54282960283403,52.3892871005307,0 4.54282858256283,52.3892711405742,0 4.54282526062697,52.3892561254241,0 4.54281900520427,52.3892387648689,0 4.54281087492602,52.3892239153525,0 4.54279823470873,52.3892071443452,0 4.54278362071852,52.389188367582,0 4.54276389686892,52.3891675091747,0 4.54272867884047,52.3891342171322,0 4.54268965265979,52.3891042879633,0 4.54264742776678,52.3890766297365,0 4.54260476169379,52.3890533821967,0 4.54254971548322,52.3890295351226,0 4.54249842250609,52.3890098728147,0 4.54243709493787,52.3889906721274,0 4.54236051555409,52.3889705761363,0 4.54163699583208,52.3888002362956,0 4.5416367388877,52.3888001751511,0 4.54157394073064,52.3887850717969,0 4.54149244398016,52.3887667623927,0 4.54149022233571,52.388766214483,0 4.54148802540417,52.3887655746386,0 4.54143642540418,52.3887493746386,0 4.54143359678875,52.3887484013207,0 4.54143082527518,52.3887472756541,0 4.54137742527518,52.3887238756541,0 4.54137543732483,52.3887229569274,0 4.54137348752479,52.3887219597888,0 4.54133678752479,52.3887022597888,0 4.54133456407238,52.3887009988601,0 4.54133240160661,52.3886996359867,0 4.54133030479816,52.3886981741125,0 4.54128510479817,52.3886650741125,0 4.54128290132994,52.3886633732035,0 4.54128078674037,52.3886615629895,0 4.54127876644584,52.3886596481074,0 4.54124476644584,52.3886257481074,0 4.54124246499641,52.3886233090602,0 4.54124031646885,52.3886207342884,0 4.54121091646885,52.3885832342884,0 4.54120929737632,52.388581060894,0 4.54120778731336,52.3885788103799,0 4.54120638994661,52.3885764882106,0 4.54120510866905,52.3885741000247,0 4.54118560866905,52.3885355000247,0 4.54118426412362,52.3885326367813,0 4.54118308640781,52.3885297009763,0 4.54118207941724,52.3885267023208,0 4.54118124648277,52.3885236507334,0 4.54117104648277,52.3884815507334,0 4.54117047642445,52.3884789176201,0 4.54117003599151,52.3884762597506,0 4.5411697262407,52.388473583502,0 4.54116954791527,52.3884708952959,0 4.54116784791527,52.3884301952959,0 4.5411678059452,52.3884270913365,0 4.54116793916212,52.3884239899531,0 4.54116824714165,52.3884209010253,0 4.54116872890271,52.3884178343933,0 4.54116938291062,52.3884147998259,0 4.54118098291062,52.3883674998259,0 4.54118189864805,52.3883642107339,0 4.54118301669707,52.3883609847972,0 4.54120141669707,52.3883127847972,0 4.5412024626184,52.3883102381406,0 4.5412036346646,52.3883077470125,0 4.541204929899,52.3883053176546,0 4.54120634507627,52.3883029561541,0 4.54120787665056,52.3883006684278,0 4.54123457665056,52.3882628684278,0 4.54123640568987,52.3882604257343,0 4.54123836739036,52.3882580882427,0 4.54124045571316,52.3882558631485,0 4.54127825571316,52.3882177631485,0 4.54128000541699,52.3882160758231,0 4.54128182796583,52.3882144674556,0 4.54128371979983,52.3882129411874,0 4.54133391979983,52.3881742411874,0 4.54133645084251,52.3881724023148,0 4.54133908234721,52.3881707103301,0 4.54134180579951,52.3881691707078,0 4.54139820579951,52.3881393707078,0 4.54140195547528,52.3881375674923,0 4.54146515547528,52.3881100674923,0 4.54146738567247,52.3881091546468,0 4.54146965371509,52.3881083403686,0 4.54147195524919,52.3881076262208,0 4.54155155524919,52.3880848262208,0 4.54155435137302,52.3880841041848,0 4.54155718154087,52.3880835299074,0 4.54162718154087,52.3880712299074,0 4.54163004829115,52.388070803711,0 4.54163293351208,52.3880705291191,0 4.54169703351208,52.3880661291191,0 4.54169994240447,52.3880660066865,0 4.54175124240447,52.3880652066865,0 4.5417546014738,52.3880652569146,0 4.5418161014738,52.3880680569146,0 4.541818270948,52.3880681987022,0 4.54182043312359,52.3880684261196,0 4.54188033312359,52.3880759261196,0 4.54188140663577,52.3880760712841,0 4.54195850663576,52.3880872712841,0 4.54196064982039,52.3880876259664,0 4.54203274982039,52.3881010259664,0 4.5420332414814,52.3881011196594,0 4.5421689414814,52.3881276196594,0 4.54216928248138,52.3881276873707,0 4.54293447107126,52.3882821437697,0 4.54310333283049,52.3883116149258,0 4.54327957854265,52.3883422186778,0 4.54346749618581,52.388371067866,0 4.54365398874406,52.3883965482421,0 4.54381342098704,52.3884114733932,0 4.54396292652725,52.3884215925473,0 4.54409619550822,52.3884282361646,0 4.54423474900015,52.3884318953218,0 4.54437332514355,52.3884310025621,0 4.54451795182829,52.3884289108538,0 4.54465589386107,52.3884251451949,0 4.54477067376465,52.3884182247873,0 4.54491809121612,52.3884070914396,0 4.54504106578459,52.3883956957302,0 4.54519649356836,52.388377509487,0 4.54535123117972,52.3883575947365,0 4.54549906206996,52.3883366470395,0 4.5460681405786,52.3882555501021,0 4.54606962522849,52.3882553591065,0 4.54618892522849,52.3882416591065,0 4.54618976060906,52.3882415696334,0 4.54628736060906,52.3882318696334,0 4.54628860916244,52.3882317598972,0 4.54638020916244,52.3882247598971,0 4.54638121055952,52.3882246925554,0 4.54649311055952,52.3882181925554,0 4.54649401238856,52.3882181475948,0 4.54660451238856,52.3882135475948,0 4.54660619286128,52.3882135033512,0 4.54671489286128,52.3882123033512,0 4.54671637551094,52.3882123069688,0 4.54681687551094,52.3882139069688,0 4.54681966455105,52.388214022217,0 4.54694096455105,52.388222122217,0 4.54694232147283,52.3882222297087,0 4.54704812147283,52.3882319297087,0 4.54704997759589,52.3882321317063,0 4.54717057759589,52.3882473317063,0 4.54717228913587,52.3882475748056,0 4.54729688913587,52.3882672748056,0 4.54729964639747,52.388267783095,0 4.54741964639747,52.388293083095,0 4.54742205751026,52.3882936484187,0 4.54768255751026,52.3883609484187,0 4.54768376539322,52.3883612751759,0 4.54776616539322,52.3883845751759,0 4.54776812509468,52.3883851689273,0 4.54787912509468,52.3884210689273,0 4.54788032738213,52.3884214731474,0 4.54797972738213,52.3884561731474,0 4.5479813213851,52.3884567573572,0 4.5480732213851,52.3884920573572,0 4.54807357448347,52.388492194384,0 4.54820417448347,52.388543394384,0 4.54820433672192,52.3885434582843,0 4.54825080424693,52.388561845434,0 4.54828195935587,52.3885741277365,0 4.54836092892035,52.388605215755,0 4.54841068457833,52.3886247626206,0 4.54852724357233,52.388667292245,0 4.54863746495061,52.3887069838785,0 4.54873532694774,52.3887402312304,0 4.54884005726451,52.3887732935421,0 4.54895238784548,52.3888064128823,0 4.54906266855548,52.3888323670458,0 4.54918221083439,52.3888566105748,0 4.54932545709849,52.388880599654,0 4.5494737275185,52.3888969211989,0 4.54963789186102,52.3889089935617,0 4.54973326588595,52.3889134181298,0 4.549865611087,52.3889153002846,0 4.55000198362464,52.3889153995368,0 4.55012644858351,52.3889125188634,0 4.55028461150602,52.3889078288588,0 4.55046514481219,52.3889014347627,0 4.55145563233332,52.3888660494985,0 4.55155390878093,52.3888610910501,0 4.55164448082831,52.3888551323628,0 4.55172923968682,52.3888489088103,0 4.55181718594027,52.3888397600389,0 4.55189829825745,52.3888294491511,0 4.55198704598947,52.3888152924722,0 4.55208206490755,52.3887954683814,0 4.5521707290075,52.3887734976518,0 4.55224357164696,52.3887521019499,0 4.55230943347761,52.3887302125768,0 4.5523834020246,52.3887017259954,0 4.55246679598041,52.3886641454439,0 4.55254473027923,52.388624015096,0 4.55260999753081,52.3885862794579,0 4.55267106737386,52.388546104429,0 4.55273352276323,52.3884971554965,0 4.55277664398988,52.3884601944451,0 4.55281864388114,52.3884187583107,0 4.55285624808711,52.388376253306,0 4.552883600443,52.3883414581322,0 4.55291274628933,52.3882992058204,0 4.55293612612065,52.3882560359744,0 4.55295958056116,52.3882074451016,0 4.55297541879179,52.3881652098199,0 4.55298673073461,52.3881270320129,0 4.55299418804055,52.3880831866478,0 4.55299859052606,52.3880415972103,0 4.55300144481076,52.3879982304976,0 4.55300031275064,52.3879611337582,0 4.55299453678543,52.3879183916156,0 4.55298433789463,52.387874226776,0 4.55297088411837,52.3878301130334,0 4.55295623315077,52.3877936664906,0 4.55293791594868,52.3877554514141,0 4.55292139313832,52.3877250997299,0 4.55289601702016,52.3876871719834,0 4.55286885223231,52.3876524197893,0 4.55283260030458,52.3876092036754,0 4.55279992307723,52.3875749841601,0 4.55277021950713,52.3875438245626,0 4.55272670948197,52.3875024416943,0 4.55268312650153,52.3874630795881,0 4.5520787208221,52.3869326378912,0 4.55207816565685,52.3869321439857,0 4.55201806565685,52.3868779439857,0 4.55201730443943,52.3868772444121,0 4.55196060443943,52.3868241444121,0 4.55196050494155,52.3868240509996,0 4.55191120494155,52.3867776509996,0 4.55190936185296,52.3867758326422,0 4.55186836185296,52.3867334326422,0 4.55186703845859,52.386732014867,0 4.55182973845859,52.386690614867,0 4.55182920828179,52.3866900177534,0 4.55179070828179,52.3866460177534,0 4.55178937751236,52.3866444379712,0 4.55173967751236,52.3865831379712,0 4.55173884513784,52.3865820853239,0 4.55169134513784,52.3865204853239,0 4.5516910659642,52.386520120134,0 4.5516428659642,52.386456520134,0 4.55164254279815,52.3864560893508,0 4.55159300191834,52.3863893729756,0 4.55155503494874,52.386340516255,0 4.55122160734406,52.3859300134295,0 4.55119478589583,52.3858992286745,0 4.5511757837132,52.3858810748036,0 4.55115772222167,52.3858663698724,0 4.55112943902268,52.3858490295778,0 4.55110386809138,52.3858364622942,0 4.55106938563031,52.3858219247013,0 4.55102475234216,52.3858089637056,0 4.55098671408803,52.3857997534746,0 4.55093296888357,52.3857910456278,0 4.55086954574973,52.3857844912614,0 4.55079255926545,52.3857788030881,0 4.55070408597123,52.3857745713287,0 4.55059556250328,52.385772203544,0 4.55047847370227,52.3857728952078,0 4.55035769001217,52.3857764593167,0 4.55023142711153,52.3857827972191,0 4.55011643436659,52.3857913846602,0 4.54998529364025,52.385805220155,0 4.54986876110081,52.3858206392188,0 4.54974683215228,52.3858397246097,0 4.54963391580409,52.3858605067597,0 4.54951736923195,52.3858840144513,0 4.54946088258084,52.3858964906334,0 4.54938154669919,52.3859156338685,0 4.54927728190065,52.3859430563983,0 4.54916553286838,52.38597649234,0 4.54905639402735,52.3860121818255,0 4.54893384239286,52.3860569792828,0 4.54880170475869,52.3861097357263,0 4.54869700123373,52.3861569163364,0 4.54862431158868,52.3861914512552,0 4.54854376469608,52.3862342264625,0 4.54847559164426,52.3862721334578,0 4.54842002479103,52.3863032232602,0 4.5483792492493,52.3863275555182,0 4.54834753680338,52.3863492535076,0 4.54831907922637,52.3863707791107,0 4.54829676481905,52.3863905503319,0 4.5482839291603,52.3864062226003,0 4.5482713415864,52.3864270227986,0 4.54826182641172,52.3864483953448,0 4.54825845420703,52.3864625840551,0 4.54825647190787,52.3864795437257,0 4.54825633890527,52.3864947060221,0 4.54825811334085,52.3865056403819,0 4.54826674632884,52.3865246458405,0 4.54827776143639,52.3865415261352,0 4.54829372939223,52.3865598195215,0 4.54831585405379,52.3865798940214,0 4.54834215040291,52.38660063993,0 4.54837050735349,52.3866207261034,0 4.54840087994759,52.3866389863639,0 4.5484274980893,52.3866535491878,0 4.5484275826831,52.3866535955656,0 4.54845894188721,52.3866708237703,0 4.54849257169689,52.3866874518429,0 4.54852703367238,52.3867022762681,0 4.54852725583119,52.3867023724135,0 4.5485625374658,52.3867177337994,0 4.54860565995447,52.3867358648458,0 4.54863904908212,52.3867490472967,0 4.54866972338347,52.386760132091,0 4.54870427151092,52.3867716156939,0 4.54874079364588,52.3867833265959,0 4.54879002123643,52.3867991497357,0 4.54883009531336,52.386810017282,0 4.54883054364319,52.3868101409002,0 4.54887194791193,52.3868217458971,0 4.54890512190407,52.3868301106859,0 4.54894630218705,52.386838825583,0 4.54898093407266,52.3868451049909,0 4.54901184984032,52.3868495630639,0 4.54901211649959,52.3868496021836,0 4.54904270561045,52.3868541662731,0 4.54907200835569,52.3868575399444,0 4.54911219281008,52.3868618949099,0 4.54915294474616,52.3868659601882,0 4.54921937903896,52.3868723061505,0 4.54947232750493,52.3868922705125,0 4.54947291046261,52.3868923196444,0 4.54955881046261,52.3869000196444,0 4.54955919106684,52.3869000550951,0 4.54963679106684,52.3869075550951,0 4.54971129078538,52.3869147550679,0 4.54971241740327,52.3869148756745,0 4.54978391740327,52.3869232756745,0 4.54985452177951,52.3869315761888,0 4.54985586507665,52.3869317509083,0 4.54991406507665,52.3869400509083,0 4.54991438891595,52.386940098075,0 4.54998298891595,52.386950298075,0 4.54998366270376,52.3869504025321,0 4.55005306270376,52.3869616025321,0 4.55005382799503,52.3869617315838,0 4.55011522799503,52.3869725315838,0 4.55011599116593,52.3869726713788,0 4.55017899116593,52.3869846713788,0 4.55017929675453,52.3869847304827,0 4.55024499675453,52.3869976304827,0 4.55024585344086,52.3869978057745,0 4.55031865344086,52.3870133057745,0 4.55031907402073,52.3870133970426,0 4.55037877402073,52.3870265970426,0 4.55037919869638,52.3870266927051,0 4.55043629869638,52.3870397927051,0 4.55043657768887,52.3870398574772,0 4.55049787768887,52.3870542574773,0 4.5504988767587,52.3870545020486,0 4.5505569767587,52.3870693020486,0 4.55055779202026,52.387069516389,0 4.5506085184733,52.387083269337,0 4.55065794462084,52.3870963234203,0 4.55065870643884,52.3870965304864,0 4.55070950643884,52.3871107304864,0 4.55071078670249,52.3871111051523,0 4.55076538670249,52.3871278051523,0 4.55076652302862,52.3871281662247,0 4.55080352302862,52.3871403662247,0 4.55080484548732,52.3871408209994,0 4.55083974548732,52.3871533209994,0 4.55084114416854,52.3871538434868,0 4.55086684416854,52.3871638434868,0 4.5508691999899,52.3871648236591,0 4.5508939999899,52.3871758236591,0 4.55089545236326,52.3871764932944,0 4.55091905236326,52.3871877932944,0 4.55092104328654,52.387188796675,0 4.55094464328654,52.387201296675,0 4.55094665533927,52.3872024169384,0 4.55094861873211,52.3872036204477,0 4.55096901873211,52.3872167204477,0 4.55097095213735,52.3872180206469,0 4.55098985213735,52.3872313206469,0 4.55099018463165,52.3872315564716,0 4.55101578463165,52.3872498564715,0 4.55101822970942,52.3872517094986,0 4.55102056766111,52.387253695977,0 4.55103836766111,52.387269695977,0 4.55103845290524,52.3872697727618,0 4.55106105290524,52.3872901727619,0 4.55106251987941,52.3872915463963,0 4.55107991987941,52.3873084463963,0 4.55108203069914,52.3873106124878,0 4.5510840192576,52.3873128913356,0 4.55109763595389,52.3873293903982,0 4.55111205217038,52.387346689858,0 4.55111306650645,52.3873479440076,0 4.55112546650645,52.3873637440076,0 4.55112775918207,52.3873668882988,0 4.55113945918207,52.3873841882988,0 4.55114089155501,52.3873864203961,0 4.55114221465977,52.3873887189488,0 4.55115211465977,52.3874069189488,0 4.55115281397136,52.3874082474328,0 4.55116121397136,52.3874247474328,0 4.55116261973006,52.3874277261332,0 4.55116384466421,52.3874307836404,0 4.55117014466421,52.3874479836404,0 4.55117080004693,52.3874498792747,0 4.55117630004693,52.3874667792747,0 4.55117697886264,52.3874690270479,0 4.55118277886264,52.3874898270479,0 4.55118341103174,52.387492317603,0 4.55118392618697,52.3874948349663,0 4.55118742618697,52.3875142349663,0 4.55118759655043,52.387515231613,0 4.55119019655043,52.387531331613,0 4.55119053223165,52.3875337502547,0 4.55119076022849,52.3875361814123,0 4.55119186022849,52.3875515814122,0 4.551192,52.3875555,0 4.551192,52.3875718,0 4.55119195377301,52.3875740545138,0 4.55119115377301,52.3875935545138,0 4.55119083456763,52.3875976296145,0 4.55118893456763,52.3876140296145,0 4.55118855928981,52.3876166960808,0 4.55118805395337,52.3876193409835,0 4.55118465395337,52.3876350409835,0 4.55118422724314,52.3876368612458,0 4.55117902724314,52.3876574612458,0 4.55117818747961,52.3876604336388,0 4.55117718217973,52.3876633542029,0 4.55117218217973,52.3876766542029,0 4.55117144679356,52.3876785076152,0 4.55116304679356,52.3876986076152,0 4.55116139391596,52.3877021949071,0 4.55115139391596,52.3877219949071,0 4.55115023822025,52.3877241615845,0 4.5511489869631,52.3877262745159,0 4.5511385869631,52.3877429745159,0 4.5511363009006,52.3877463585894,0 4.5511257009006,52.3877608585894,0 4.55112483994727,52.3877620046573,0 4.55111333994727,52.3877769046573,0 4.55111116730333,52.3877795456372,0 4.55110196893349,52.3877900437767,0 4.55109137053116,52.3878021419529,0 4.55109095794105,52.3878026075887,0 4.55108145794105,52.3878132075887,0 4.55108068852431,52.3878140484023,0 4.55106788852431,52.3878277484023,0 4.55106569028169,52.3878299710761,0 4.55105229028169,52.3878427710761,0 4.55105027165482,52.3878446057694,0 4.55103107165482,52.3878612057694,0 4.55102997437735,52.3878621297285,0 4.55100997437735,52.3878785297285,0 4.55100777089047,52.3878802449197,0 4.55100548319115,52.3878818460652,0 4.55098869574004,52.3878929714766,0 4.55096760792274,52.3879070963354,0 4.55096577668934,52.3879082711228,0 4.55094427668934,52.3879214711228,0 4.55094309757706,52.3879221749276,0 4.55091999757706,52.3879355749276,0 4.55091776885336,52.3879367998082,0 4.55089006885336,52.3879511998082,0 4.55088719807472,52.3879525880129,0 4.55085819807472,52.3879655880128,0 4.5508569751783,52.3879661185054,0 4.55083027517829,52.3879773185054,0 4.55082838502445,52.3879780705822,0 4.55079758502445,52.3879896705822,0 4.55079577679047,52.3879903157983,0 4.55075337679047,52.3880046157983,0 4.55075113456072,52.3880053190425,0 4.55072323456072,52.3880134190425,0 4.55072123945938,52.3880139578375,0 4.55068963945938,52.3880218578375,0 4.55068667057938,52.3880225134343,0 4.55064917057938,52.3880297134343,0 4.55064770221093,52.3880299747698,0 4.55060990221093,52.3880361747698,0 4.55060780794516,52.3880364770271,0 4.55055970794516,52.3880424770271,0 4.5505578342214,52.3880426782207,0 4.5504923342214,52.3880485782207,0 4.55049086236173,52.3880486909105,0 4.54978696236173,52.3880930909105,0 4.54978679021902,52.3880931014978,0 4.54970169021902,52.3880982014978,0 4.54970144701567,52.3880982155324,0 4.54962214701567,52.3881026155324,0 4.54962156870752,52.3881026445674,0 4.54953476870752,52.3881065445674,0 4.54953439307729,52.3881065601585,0 4.54945299307729,52.3881096601585,0 4.54945230124405,52.3881096821472,0 4.54936996929793,52.3881117804129,0 4.54929493734848,52.38811387851,0 4.54929430448293,52.3881138925623,0 4.54920310448293,52.3881153925623,0 4.54920300058706,52.388115394173,0 4.54911370058706,52.388116694173,0 4.54911295402748,52.3881166999735,0 4.5490111587386,52.3881167999688,0 4.54892446343709,52.3881168999634,0 4.54892381549195,52.388116896894,0 4.54882031549195,52.388115796894,0 4.54882022044023,52.3881157958016,0 4.54870692044023,52.3881143958017,0 4.54870632214954,52.3881143851534,0 4.54856002214954,52.3881109851534,0 4.54855967273823,52.3881109759222,0 4.54838737273823,52.3881058759222,0 4.54838682502417,52.3881058569784,0 4.54824532502417,52.3881002569784,0 4.54824499602584,52.3881002429715,0 4.54813089602584,52.3880950429715,0 4.54813008209031,52.3880949998313,0 4.54798778209031,52.3880863998313,0 4.54798736603143,52.3880863731034,0 4.54788596603143,52.3880794731034,0 4.54788561556477,52.3880794481302,0 4.54775401556477,52.3880696481302,0 4.54775384471578,52.3880696351398,0 4.54764044471578,52.3880608351398,0 4.5476401787463,52.388060813851,0 4.5475322787463,52.388051913851,0 4.54741155880674,52.3880419122027,0 4.54741134874251,52.3880418943934,0 4.54730524874251,52.3880326943934,0 4.54730444878317,52.3880326191373,0 4.54720094878317,52.3880221191373,0 4.5472006517125,52.3880220881846,0 4.5470781517125,52.3880089881846,0 4.54695731510475,52.3879959842574,0 4.54695663425028,52.3879959066931,0 4.54683853425028,52.3879817066931,0 4.54683795027506,52.3879816333057,0 4.54671515243498,52.3879655335889,0 4.5465678546913,52.3879462338845,0 4.54656747400648,52.3879461826525,0 4.54644947400648,52.3879298826525,0 4.54644913301496,52.387929834461,0 4.54632043301496,52.387911234461,0 4.54631960238124,52.3879111079315,0 4.54616350238124,52.3878861079315,0 4.54616299937165,52.3878860249798,0 4.54602449937165,52.3878625249798,0 4.54602421059141,52.3878624751892,0 4.54588491059141,52.3878380751892,0 4.54588432887511,52.3878379700698,0 4.54574312887511,52.3878116700698,0 4.54574247073475,52.3878115433301,0 4.54559717073475,52.3877826433301,0 4.54559690497296,52.3877825897892,0 4.54548270497296,52.3877592897892,0 4.54548245747605,52.3877592387003,0 4.54536225747605,52.3877341387003,0 4.54536197590012,52.3877340791328,0 4.54522337590012,52.3877043791328,0 4.54522277286627,52.3877042463664,0 4.54510687286627,52.3876780463664,0 4.54510663917548,52.3876779930034,0 4.54498523917548,52.3876499930034,0 4.54498465361856,52.3876498545714,0 4.54486621231692,52.3876211687878,0 4.5447428710446,52.3875915828749,0 4.54474200601953,52.3875913679538,0 4.54461149797075,52.3875578173001,0 4.54448499027403,52.3875262652621,0 4.54448467636578,52.3875261859887,0 4.54429067636578,52.3874765859887,0 4.54429012855422,52.3874764429217,0 4.54415212855422,52.3874396429217,0 4.5441513894715,52.3874394403073,0 4.5440178894715,52.3874018403073,0 4.54401703423654,52.3874015919415,0 4.54389103423654,52.3873638919415,0 4.54389035093501,52.3873636826472,0 4.54378155093501,52.3873295826472,0 4.54378076424002,52.3873293295757,0 4.54369076424002,52.3872996295757,0 4.54368975990091,52.3872992873663,0 4.5433769000088,52.3871893069253,0 4.5433412186809,52.3871772869555,0 4.54331066951146,52.3871691405103,0 4.54328366899517,52.3871627410373,0 4.54326074628636,52.3871600063983,0 4.54323384396242,52.3871592353126,0 4.54320204915538,52.3871606602899,0 4.54318261619019,52.387162874172,0 4.5431652688615,52.3871664064336,0 4.54315030802662,52.3871708659132,0 4.54313615437519,52.3871772237031,0 4.54312240480241,52.3871842205271,0 4.54311525821346,52.3871886087835,0 4.54310357130622,52.3871975318951,0 4.54308924020022,52.3872094325796,0 4.54307221443143,52.3872263736431,0 4.5429947431433,52.3873146731926,0 4.5429927015128,52.3873168758508,0 4.5429694015128,52.3873406758508,0 4.54296766240252,52.3873423754392,0 4.54294306240252,52.3873653754392,0 4.5429426520103,52.3873657552479,0 4.5429140520103,52.3873919552479,0 4.54291084850083,52.3873946723849,0 4.54289274850083,52.3874088723849,0 4.54288930851079,52.3874113627662,0 4.54286650851079,52.3874265627662,0 4.54286424259856,52.3874279948687,0 4.54283884259856,52.3874431948687,0 4.54283643610071,52.3874445540513,0 4.54281463610071,52.3874561540513,0 4.54281181077738,52.387457555021,0 4.54278641077738,52.387469255021,0 4.54278315317063,52.3874706304223,0 4.54274625317063,52.3874848304223,0 4.54274408782543,52.3874856120753,0 4.54271208782543,52.3874964120753,0 4.54270891600326,52.3874973771029,0 4.54267651600326,52.3875061771029,0 4.5426733361791,52.3875069400249,0 4.5426388361791,52.3875141400249,0 4.54263678847088,52.3875145270413,0 4.54260078847088,52.3875206270413,0 4.54259733581561,52.3875211000952,0 4.54255823581561,52.3875252000952,0 4.54255703967141,52.3875253123288,0 4.54252443967141,52.3875280123288,0 4.54252198522059,52.3875281604572,0 4.54248508522059,52.3875295604572,0 4.54248270822692,52.3875295992261,0 4.54244500822692,52.3875293992261,0 4.5424428639693,52.3875293460258,0 4.5424022639693,52.3875275460258,0 4.5423996187321,52.3875273647762,0 4.5423608187321,52.3875237647762,0 4.54235821744255,52.3875234607961,0 4.54232631744255,52.3875189607961,0 4.54232356424708,52.3875185008802,0 4.54229096424708,52.3875122008802,0 4.54228840819771,52.3875116435503,0 4.54225220819771,52.3875028435503,0 4.54224973012606,52.3875021795699,0 4.54222073012606,52.3874936795699,0 4.5422182385808,52.3874928844921,0 4.5421881385808,52.3874824844921,0 4.54218696602685,52.3874820644361,0 4.54215516602685,52.3874702644361,0 4.54215259702559,52.3874692369261,0 4.54211999702559,52.3874552369261,0 4.54211669754828,52.3874536885436,0 4.54209261228109,52.3874413960629,0 4.54207182702377,52.387430803576,0 4.54206895896872,52.3874292328681,0 4.54204595896872,52.3874157328681,0 4.54204345973329,52.3874141744833,0 4.54202455973329,52.3874016744833,0 4.5420212778058,52.3873993264064,0 4.5420045778058,52.3873864264064,0 4.54200226381392,52.3873845364087,0 4.54198546381392,52.3873700364087,0 4.54198250912703,52.387367290873,0 4.54196900912703,52.387353790873,0 4.54196784126416,52.387352586837,0 4.54195354126416,52.387337386837,0 4.54195192965283,52.3873355968267,0 4.54195039795803,52.3873337379725,0 4.54193739795803,52.3873172379725,0 4.54193588036036,52.3873152180235,0 4.54193445712922,52.3873131305108,0 4.54192485712922,52.3872983305108,0 4.54192338272089,52.3872959244388,0 4.54191338272089,52.3872786244388,0 4.5419120311225,52.3872761409472,0 4.54191080894033,52.3872735912767,0 4.54190130894033,52.3872523912767,0 4.54190039352606,52.3872502255583,0 4.54189957151111,52.3872480226941,0 4.54189437151111,52.3872331226941,0 4.54189349121399,52.3872303698445,0 4.54189275674077,52.3872275745533,0 4.54188965674077,52.3872143745533,0 4.54188904431257,52.3872114000791,0 4.54188859699325,52.3872083963364,0 4.54188679699325,52.3871934963364,0 4.54188655867621,52.3871910748299,0 4.54188642769386,52.3871886451526,0 4.54188602769386,52.3871760451526,0 4.54188605267079,52.3871718935476,0 4.54188665267079,52.3871581935476,0 4.54188691942693,52.3871546809689,0 4.54188901942693,52.3871352809689,0 4.54188933924086,52.3871328389076,0 4.54188976806284,52.3871304136126,0 4.54189276806284,52.3871154136126,0 4.54189349452771,52.3871122652334,0 4.5418978249182,52.3870957310152,0 4.54190275796744,52.3870760974793,0 4.54190319329583,52.3870744706735,0 4.54192045529235,52.3870137044546,0 4.54242161649783,52.3852149436953,0 4.54249586995524,52.3849482292631,0 4.54250132020025,52.3849257924211,0 4.54250448846012,52.3849090339939,0 4.54250630689556,52.3848932466681,0 4.54250743119855,52.3848761412012,0 4.54250683330106,52.3848604463921,0 4.54250461223062,52.3848430891379,0 4.54250153595553,52.3848257123408,0 4.54249733332685,52.3848097423518,0 4.54249221614292,52.3847925380265,0 4.54248620451719,52.3847757783426,0 4.54248067153201,52.3847607355392,0 4.54247434263458,52.3847471401299,0 4.54246725176653,52.3847343128293,0 4.54245678733731,52.384718044599,0 4.54244747147598,52.3847044700582,0 4.5424379986725,52.3846919494831,0 4.54242500434185,52.3846772406227,0 4.5424109232843,52.3846613426545,0 4.54239743771026,52.3846482811552,0 4.54238166075213,52.384634338727,0 4.54236407233497,52.3846195128885,0 4.54234722119479,52.3846066528078,0 4.54232575237277,52.3845918989037,0 4.54230544992917,52.3845780819629,0 4.54228190465809,52.3845638064836,0 4.54225961304076,52.3845510816854,0 4.54223725686951,52.3845396264571,0 4.54221310476653,52.3845281565395,0 4.54218715789681,52.3845170895951,0 4.54216183024819,52.3845073774892,0 4.54213374095684,52.3844970089588,0 4.54210006855656,52.3844865977153,0 4.54206280602381,52.3844763315073,0 4.54202597568927,52.3844678321993,0 4.54198702912694,52.3844604275443,0 4.5419531756686,52.3844546406283,0 4.5419252218254,52.3844506472221,0 4.54192493982365,52.3844506061904,0 4.54189630269205,52.3844463636524,0 4.54187328405953,52.3844438676561,0 4.54184437315599,52.3844416001343,0 4.54181333231849,52.3844401586093,0 4.54178028870081,52.3844390863975,0 4.54173492808721,52.3844383946235,0 4.54069826309609,52.3844251027654,0 4.54062279622812,52.3844256946624,0 4.54056303321976,52.3844271739448,0 4.54051453037721,52.3844290319166,0 4.54046316130382,52.3844323586756,0 4.54041612255165,52.3844361059976,0 4.54036849648653,52.3844403459992,0 4.54032917724861,52.3844444539793,0 4.54028944612387,52.3844492848109,0 4.54024789415316,52.3844545034233,0 4.54021911850903,52.3844586978392,0 4.54019207064252,52.3844628287861,0 4.54016259283278,52.3844676274993,0 4.54013400092704,52.3844726674285,0 4.54010365202827,52.384478658635,0 4.54010349783125,52.3844786888464,0 4.54007526814959,52.3844841779512,0 4.54004330175915,52.3844910975052,0 4.54001262182426,52.3844980568515,0 4.53997790778317,52.3845064157566,0 4.53995041571768,52.3845132887729,0 4.53991788747401,52.3845223026236,0 4.53991749271634,52.3845224104346,0 4.53988521359888,52.3845310971695,0 4.53985537864457,52.3845396354624,0 4.53982298390591,52.3845491001902,0 4.53979250416334,52.3845588381272,0 4.53975396985283,52.3845714187375,0 4.53971425191145,52.3845847232696,0 4.53967677492497,52.3845983776756,0 4.53963456873478,52.384614775023,0 4.53959201111381,52.3846327612693,0 4.53959169525545,52.3846328936039,0 4.5395496013085,52.3846503757768,0 4.5395058168142,52.3846706285164,0 4.53946860816601,52.3846889874009,0 4.53941893327426,52.3847136778796,0 4.53937600147947,52.3847371304628,0 4.53934041522921,52.3847574097506,0 4.53930127135867,52.3847807792256,0 4.53925431570539,52.3848103944094,0 4.53921863832352,52.3848343711445,0 4.53919033624613,52.3848549803753,0 4.5391564445694,52.3848812344911,0 4.53912907331256,52.3849044468644,0 4.53912898313989,52.3849045231696,0 4.5390993548731,52.3849295404147,0 4.53907319117395,52.3849528806931,0 4.53904113173601,52.3849846555798,0 4.53901741434479,52.3850099479541,0 4.53899237320079,52.3850403008559,0 4.53896129380115,52.3850790779397,0 4.53893851399443,52.3851110645849,0 4.53891151983685,52.3851505917442,0 4.53889214353869,52.3851819136243,0 4.53886897406836,52.3852228910346,0 4.53885123262844,52.3852571471127,0 4.53883847676306,52.3852848934476,0 4.53882924746405,52.3853069878301,0 4.53881891515654,52.3853338139129,0 4.53881075320383,52.3853570158684,0 4.53880277166375,52.3853840797112,0 4.53879701263174,52.385407024426,0 4.53879181774417,52.3854318856737,0 4.53878819048936,52.3854525331241,0 4.53878489325573,52.3854745470075,0 4.53878487935273,52.3854746392959,0 4.53878116861549,52.3854991301617,0 4.5387796286071,52.3855182947105,0 4.538778919789,52.3855401794694,0 4.53877968292735,52.3855745206949,0 4.5387805469006,52.3856054317379,0 4.53878316689167,52.3856432860916,0 4.53878732540184,52.385666764347,0 4.53879296314711,52.3856941886333,0 4.53879884223144,52.3857201545891,0 4.53879898482977,52.3857208025183,0 4.53880463827252,52.3857472491318,0 4.53881329727442,52.3857806747413,0 4.53882051450168,52.3858037176958,0 4.5388286295847,52.3858237349005,0 4.53883814886607,52.3858469502908,0 4.53885044390576,52.3858750798513,0 4.53886250398482,52.385898746623,0 4.53887930560522,52.3859286891756,0 4.53889792572667,52.3859588633211,0 4.53891846004056,52.3859907403989,0 4.53893808464484,52.3860204238456,0 4.53907806848779,52.3862293013059,0 4.53922844685802,52.3864499228617,0 4.53922853580614,52.3864500537626,0 4.53956073580614,52.3869404537626,0 4.53956084424603,52.3869406144528,0</coordinates></LineString>
  </Placemark>
</Folder>
</Document></kml>
