<?xml version="1.0" encoding="utf-8" ?>
<kml xmlns="http://www.opengis.net/kml/2.2">
<Document id="root_doc">
<Schema name="austria_gp_boundary" id="austria_gp_boundary">
	<SimpleField name="highway" type="string"></SimpleField>
	<SimpleField name="name_en" type="string"></SimpleField>
	<SimpleField name="oneway" type="string"></SimpleField>
	<SimpleField name="source" type="string"></SimpleField>
	<SimpleField name="sport" type="string"></SimpleField>
	<SimpleField name="surface" type="string"></SimpleField>
</Schema>
<Folder><name>austria_gp_boundary</name>
  <Placemark id="austria_gp_boundary.1">
	<name>Remus</name>
	<Style><LineStyle><color>ff0000ff</color></LineStyle><PolyStyle><fill>0</fill></PolyStyle></Style>
	<ExtendedData><SchemaData schemaUrl="#austria_gp_boundary">
		<SimpleData name="highway">raceway</SimpleData>
		<SimpleData name="oneway">yes</SimpleData>
		<SimpleData name="source">geoimage</SimpleData>
		<SimpleData name="sport">motor</SimpleData>
		<SimpleData name="surface">asphalt</SimpleData>
	</SchemaData></ExtendedData>
      <LineString><coordinates>14.7680807754848,47.2206008500624,0 14.7621574540621,47.2195115932373,0 14.7612093553807,47.2193372934797,0 14.7610874564269,47.2193148672622,0 14.7610790423403,47.2193134501528,0 14.7610697070927,47.219312116546,0 14.7610561564505,47.2193107793116,0 14.7610358227983,47.2193091156492,0 14.7610241224569,47.2193086757867,0 14.761013328772,47.2193084228097,0 14.7610053905161,47.2193087038099,0 14.7609960110279,47.2193096340071,0 14.7609863793869,47.2193109399923,0 14.760976876696,47.2193126535923,0 14.7609721274817,47.219313787733,0 14.7609667777388,47.2193151613157,0 14.7609601520256,47.2193172937291,0 14.7609525307499,47.2193199088727,0 14.760944015666,47.2193236145111,0 14.7609356509178,47.2193273612213,0 14.7609276474547,47.2193313233317,0 14.7609208773804,47.2193350763077,0 14.7609145162373,47.2193390705138,0 14.7609091406081,47.2193427662589,0 14.7609048970773,47.2193461730371,0 14.7609008192081,47.2193498625378,0 14.7608972612061,47.2193534205399,0 14.7608940912232,47.2193568169501,0 14.7608901659435,47.2193611986577,0 14.7608860374944,47.219365807159,0 14.7608787589188,47.2193740865387,0 14.7608281408413,47.2194353196693,0 14.7607242819041,47.2195661899041,0 14.7607234122813,47.2195672579538,0 14.7606509122813,47.2196540579538,0 14.7606491308081,47.2196560873941,0 14.7605803308081,47.2197306873941,0 14.7605786105273,47.2197324703861,0 14.7605026105273,47.2198077703862,0 14.7605023577608,47.2198080192146,0 14.7604384577608,47.2198705192146,0 14.7604372368091,47.2198716774017,0 14.7603026776531,47.2199954638454,0 14.7599131131684,47.2203661445939,0 14.759912932015,47.2203663161848,0 14.759588832015,47.2206719161848,0 14.7591731804169,47.2210636763146,0 14.7589107602388,47.2213149254323,0 14.7586773170862,47.2215505456724,0 14.7582427873429,47.222087569162,0 14.7579618037273,47.2224711182762,0 14.7578048226113,47.2226891974392,0 14.7573261944435,47.2233888538967,0 14.7573259608508,47.2233891926354,0 14.7569848608508,47.2238798926354,0 14.7569836068883,47.2238816237855,0 14.7569280068883,47.2239553237854,0 14.7569268263859,47.2239568331626,0 14.7568793263859,47.2240154331626,0 14.7568778147213,47.2240172190438,0 14.7568762284682,47.2240189390155,0 14.7567917284682,47.2241067390155,0 14.7567898604442,47.2241085893593,0 14.7567294225915,47.2241656585448,0 14.7564555695959,47.2244392121384,0 14.7564548651712,47.224439903279,0 14.7563832690138,47.2245088995759,0 14.7563192728763,47.2245705958522,0 14.7563175018957,47.2245722298676,0 14.7563156610431,47.2245737847438,0 14.7561564610431,47.2247023847438,0 14.7561533310041,47.2247047341553,0 14.7558707310041,47.2249015341553,0 14.7549839255458,47.225518937956,0 14.7549834070881,47.2255192945261,0 14.7543666531327,47.2259382915019,0 14.7541969931499,47.2260584797908,0 14.7541964911239,47.2260588312455,0 14.7541380073424,47.2260992905172,0 14.7541154720393,47.226118910414,0 14.7541043951117,47.2261327834593,0 14.7541018020574,47.2261410428172,0 14.7541016722041,47.2261522102009,0 14.754104003273,47.2261624086273,0 14.7541068297851,47.2261673612767,0 14.75411355509,47.2261733727224,0 14.7541351601511,47.2261854825656,0 14.7541650015541,47.2261954554697,0 14.7542015941694,47.2262019588966,0 14.7542452474946,47.2262070326383,0 14.7543998889754,47.2262232739794,0 14.7547930328893,47.2262608495035,0 14.7549170064439,47.2262727509599,0 14.7553103936006,47.2262953468315,0 14.7555722111953,47.2263031206314,0 14.7558996037574,47.2263113976898,0 14.7561994960173,47.2263104010388,0 14.7564975143394,47.2263070133348,0 14.7567749059569,47.2262951734486,0 14.7568046391061,47.2262933089937,0 14.7571605639263,47.2262707454568,0 14.7574596613047,47.2262456880966,0 14.7578922820466,47.2261911367951,0 14.7582851750842,47.2261410504308,0 14.7591561053519,47.2260277595016,0 14.7591563178989,47.2260277322743,0 14.7593125178989,47.2260080322743,0 14.7608176294532,47.2258185308183,0 14.760818892061,47.2258183866468,0 14.760894992061,47.2258105866468,0 14.7612971208699,47.2257695837016,0 14.7612981354848,47.2257694897345,0 14.7616019354848,47.2257441897345,0 14.7616026759434,47.2257441331011,0 14.7618666759434,47.2257257331011,0 14.7618687001618,47.2257256294571,0 14.7632889001618,47.2256791294571,0 14.7632891664172,47.2256791213849,0 14.7641244664172,47.2256558213849,0 14.7642519318709,47.2256523414291,0 14.7643407170354,47.2256474356399,0 14.7643913456131,47.2256395135423,0 14.7644409669831,47.2256274730629,0 14.764481566861,47.2256133891652,0 14.7645144300643,47.2255965906047,0 14.7645329906105,47.2255828571603,0 14.7645533088206,47.2255589441899,0 14.764574394322,47.2255291422411,0 14.7645844452026,47.2255074125202,0 14.764590547749,47.225484222844,0 14.7645914096241,47.2254427744897,0 14.7645865173615,47.2254119908682,0 14.7645759432009,47.2253830783033,0 14.7645365595585,47.2253189548209,0 14.7645022265507,47.22527106931,0 14.7644494565366,47.2252176489611,0 14.764410909047,47.2251824111046,0 14.7643629272283,47.225138627695,0 14.7643624178109,47.2251381569304,0 14.764274538916,47.2250559125654,0 14.7641720677904,47.2249693488622,0 14.7640344027996,47.2248685636491,0 14.7639471314125,47.2248154503022,0 14.763827895057,47.2247524519648,0 14.7636601448359,47.2246723647625,0 14.763480665465,47.2246016548076,0 14.7632764410886,47.2245322955854,0 14.7631771835266,47.224503727348,0 14.7630875962713,47.224482636399,0 14.7630873503721,47.2244825779119,0 14.7629890616565,47.2244589611817,0 14.7628195725178,47.2244315003979,0 14.7626746262323,47.2244116677203,0 14.7625147066979,47.224397408641,0 14.7623356190129,47.224383358668,0 14.7621726081113,47.2243802294845,0 14.7620411894352,47.2243875740454,0 14.7618810168058,47.2244007484175,0 14.7610980227159,47.2244884581407,0 14.7610978009917,47.2244884825228,0 14.7609449009917,47.2245049825228,0 14.7602498854361,47.2245797841992,0 14.7602497090718,47.224579802893,0 14.7599977090718,47.224606102893,0 14.7599971227946,47.2246061609074,0 14.7599045834977,47.2246148178093,0 14.7597467434107,47.2246322669661,0 14.7597444097903,47.2246324747433,0 14.7597420694383,47.2246325829486,0 14.7596617694383,47.2246345829486,0 14.7596581859687,47.2246345554189,0 14.7595887445504,47.224631757779,0 14.759489203132,47.2246279600141,0 14.7594867585875,47.2246278121845,0 14.7594843230473,47.2246275556792,0 14.7594819013402,47.2246271910066,0 14.7593908013402,47.2246113910066,0 14.7593879414456,47.2246108164886,0 14.7592510414456,47.2245795164886,0 14.7592481382675,47.2245787689121,0 14.7592452801351,47.2245778642615,0 14.7591708801351,47.2245520642615,0 14.7591680444614,47.2245509924995,0 14.7590455444614,47.2245007924995,0 14.7590430225162,47.224499684468,0 14.7590405592114,47.2244984515566,0 14.7590381607259,47.2244970968579,0 14.7589064607259,47.2244182968579,0 14.7589028615706,47.2244159476801,0 14.7587980615706,47.2243415476801,0 14.7587957568553,47.2243398189711,0 14.7587935458237,47.2243379719501,0 14.7587272458237,47.2242795719501,0 14.7587252774915,47.22427775105,0 14.7587234002467,47.2242758363801,0 14.7587216185511,47.2242738324914,0 14.7586654185511,47.2242074324914,0 14.7586632483186,47.2242046967839,0 14.758661256065,47.22420182887,0 14.758626556065,47.22414832887,0 14.7586251767989,47.2241460865556,0 14.7586239064097,47.2241437808105,0 14.7585865064097,47.2240718808105,0 14.7585853675646,47.2240695597462,0 14.7585843390547,47.2240671877271,0 14.7585834231526,47.2240647699945,0 14.7585826218821,47.2240623118909,0 14.7585639218821,47.2240000118909,0 14.7585631402883,47.2239971251394,0 14.7585625167625,47.2239942001713,0 14.7585620531483,47.223991245635,0 14.7585527531483,47.223919245635,0 14.7585524408807,47.2239161340858,0 14.7585523059622,47.2239130098185,0 14.7585512059622,47.2238383098185,0 14.7585512395409,47.2238354148289,0 14.7585514254118,47.2238325256171,0 14.7585517630597,47.2238296501891,0 14.7585522515491,47.2238267965124,0 14.7585671515491,47.2237516965124,0 14.7585678700975,47.2237485588481,0 14.7585879700975,47.2236712588481,0 14.7585886453631,47.2236688824127,0 14.7585894266661,47.2236665386988,0 14.7585903124303,47.2236642324354,0 14.7586188124303,47.2235947324355,0 14.758620158318,47.2235917123098,0 14.7586216832529,47.2235887785161,0 14.7586233817239,47.2235859416572,0 14.7586719817239,47.2235100416572,0 14.7586736821124,47.2235075403341,0 14.7586755174304,47.2235051362655,0 14.7591402174304,47.2229299362655,0 14.7591417462644,47.2229281251556,0 14.7596114462644,47.2223954251556,0 14.7596117211765,47.2223951157251,0 14.7597031211765,47.2222930157251,0 14.7597052562119,47.2222907620991,0 14.7597075149979,47.2222886325236,0 14.7597098903383,47.222286633783,0 14.7597983903383,47.222216333783,0 14.759801271559,47.2222141945934,0 14.7598042861463,47.2222122478453,0 14.7599296861463,47.2221369478453,0 14.7599319903426,47.2221356386987,0 14.7599343549259,47.2221344420654,0 14.7599367744063,47.2221333607236,0 14.7600873744063,47.2220703607236,0 14.7600901911216,47.2220692722739,0 14.7600930633289,47.2220683400545,0 14.7602560633289,47.2220203400545,0 14.7602587905045,47.222019612461,0 14.7602615514162,47.2220190257366,0 14.7602643387926,47.2220185814264,0 14.7604475387926,47.2219941814264,0 14.7604502543623,47.2219938881657,0 14.7604529811425,47.2219937300832,0 14.7606161811425,47.2219883300832,0 14.7606188170765,47.2219883060696,0 14.7606214511336,47.2219884083825,0 14.7606240772631,47.2219886367868,0 14.7607940772631,47.2220075367868,0 14.7607964928085,47.2220078596632,0 14.7607988916796,47.2220082892282,0 14.7609760916796,47.2220440892282,0 14.7609788293671,47.2220447154774,0 14.7609815315186,47.222045480656,0 14.7611156315186,47.2220871806559,0 14.7611190645419,47.2220883739551,0 14.7612021645419,47.2221203739551,0 14.7612048309011,47.2221214819288,0 14.7612074354394,47.2221227283064,0 14.7612099709785,47.2221241096528,0 14.7613038709785,47.2221785096528,0 14.7613062028915,47.2221799392257,0 14.7613698028915,47.2222211392257,0 14.7613729273738,47.2222233205437,0 14.7614243273738,47.2222619205437,0 14.761426896312,47.2222639726513,0 14.7614293380379,47.2222661745966,0 14.7615117296678,47.2223450665821,0 14.7615769727501,47.2224074857101,0 14.7616358840521,47.2224546728878,0 14.7616374624667,47.2224559862885,0 14.7617087335638,47.2225175785945,0 14.7617815996094,47.2225712025343,0 14.761860643531,47.2226294757661,0 14.761976228797,47.2226913138834,0 14.7621235155738,47.2227630916393,0 14.7622550109538,47.2228158466836,0 14.7623669683228,47.2228568977189,0 14.7625411414754,47.2229112405315,0 14.76268527377,47.2229494311257,0 14.762832655013,47.2229884030786,0 14.7630078056572,47.22302357035,0 14.7631553278861,47.2230418396591,0 14.7633360446077,47.2230546494595,0 14.7635899903505,47.2230611048655,0 14.7640347828787,47.2230642013327,0 14.7640350943891,47.2230642043836,0 14.7644705902227,47.2230697030684,0 14.7652170939572,47.2230763004501,0 14.7657029018517,47.2230772000943,0 14.7657038534466,47.2230772100896,0 14.7658604534466,47.2230802100896,0 14.7669874822219,47.223102008711,0 14.7690079966804,47.2231351073097,0 14.7691853569358,47.2231379855679,0 14.7692952522545,47.2231344310024,0 14.7693174992271,47.2231336549452,0 14.7693797575405,47.2231235154634,0 14.7693958816101,47.2231208885082,0 14.7694365190619,47.2231116658242,0 14.7694799936157,47.2231017852438,0 14.769497490061,47.2230958953513,0 14.7695643274543,47.2230732165945,0 14.7695644084499,47.2230731891819,0 14.7695783416631,47.2230684856131,0 14.7696407193302,47.2230426003409,0 14.7696408066881,47.2230425641774,0 14.769694746653,47.2230202889697,0 14.7697076006601,47.223014945169,0 14.7697560686094,47.2229827859058,0 14.7698145320721,47.2229439102016,0 14.7698499311556,47.2229203409139,0 14.7699172097297,47.2228573506341,0 14.7699173751895,47.222857196358,0 14.7699257194005,47.222849448162,0 14.7699343621336,47.2228387810051,0 14.7699705582132,47.222794085846,0 14.7699706311376,47.2227939959919,0 14.7699797883777,47.2227827370901,0 14.7700109121098,47.222726821388,0 14.7700203383342,47.2227045897266,0 14.7700457132194,47.2226443493495,0 14.7701534276382,47.2223891151514,0 14.7701536042884,47.2223887013048,0 14.77027999906,47.2220959134163,0 14.7703619938396,47.221905725525,0 14.7704874818584,47.2216150165921,0 14.7705400614947,47.2214860570675,0 14.7705580518505,47.2214418230483,0 14.7705638655127,47.2214191768059,0 14.7705633813691,47.2213941396636,0 14.7705592090249,47.2213670547853,0 14.7705535673614,47.2213547528247,0 14.7705281896281,47.2213348566817,0 14.7704830854345,47.2213046629653,0 14.7704325065191,47.2212756530846,0 14.7703634965375,47.2212415379807,0 14.7702421983441,47.2211832196342,0 14.7700885524141,47.2211148452306,0 14.7698839629362,47.2210427997319,0 14.7697213526505,47.2209899489148,0 14.7695324186778,47.2209368485245,0 14.7695322180611,47.2209367917301,0 14.7693566194819,47.2208867202532,0 14.7692068004143,47.2208488680883,0 14.7690540868004,47.2208113367764,0 14.7688469021271,47.2207646206169,0</coordinates></LineString>
  </Placemark>
</Folder>
</Document></kml>
