<?xml version="1.0" encoding="utf-8" ?>
<kml xmlns="http://www.opengis.net/kml/2.2">
<Document id="root_doc">
<Schema name="austria_gp_boundary" id="austria_gp_boundary">
	<SimpleField name="highway" type="string"></SimpleField>
	<SimpleField name="name_en" type="string"></SimpleField>
	<SimpleField name="oneway" type="string"></SimpleField>
	<SimpleField name="source" type="string"></SimpleField>
	<SimpleField name="sport" type="string"></SimpleField>
	<SimpleField name="surface" type="string"></SimpleField>
</Schema>
<Folder><name>austria_gp_boundary</name>
  <Placemark id="austria_gp_boundary.1">
	<name>Remus</name>
	<Style><LineStyle><color>ff0000ff</color></LineStyle><PolyStyle><fill>0</fill></PolyStyle></Style>
	<ExtendedData><SchemaData schemaUrl="#austria_gp_boundary">
		<SimpleData name="highway">raceway</SimpleData>
		<SimpleData name="oneway">yes</SimpleData>
		<SimpleData name="source">geoimage</SimpleData>
		<SimpleData name="sport">motor</SimpleData>
		<SimpleData name="surface">asphalt</SimpleData>
	</SchemaData></ExtendedData>
      <LineString><coordinates>14.7681029972874,47.2204931151287,0 14.7681014473163,47.2204928070162,0 14.7621773473163,47.2194034070162,0 14.7612292480597,47.2192291071528,0 14.7611069515504,47.219206607795,0 14.7611061345106,47.2192064638431,0 14.7610966345106,47.2192048638431,0 14.7610952781746,47.2192046527779,0 14.7610840781746,47.2192030527778,0 14.7610817013943,47.2192027658704,0 14.7610665013943,47.2192012658704,0 14.7610655850132,47.2192011831718,0 14.7610435850132,47.2191993831718,0 14.7610411662096,47.2191992388248,0 14.7610278662096,47.2191987388248,0 14.7610270887086,47.2191987151,0 14.7610142887086,47.2191984151,0 14.761011054316,47.2191984344261,0 14.760999754316,47.2191988344261,0 14.7609962720821,47.2191990684944,0 14.7609841720821,47.2192002684944,0 14.760982209998,47.2192004987351,0 14.760970409998,47.2192020987352,0 14.760968039396,47.219202473014,0 14.760955839396,47.219204673014,0 14.7609528248925,47.2192053042373,0 14.7609461248925,47.2192069042373,0 14.7609452220364,47.2192071279312,0 14.7609378220364,47.2192090279312,0 14.7609346500165,47.2192099446941,0 14.7609259500165,47.2192127446941,0 14.7609249491234,47.2192130774452,0 14.7609147491234,47.2192165774452,0 14.7609126851598,47.2192173320847,0 14.7609106529904,47.2192181685736,0 14.7608998529904,47.2192228685736,0 14.7608993169391,47.2192231052595,0 14.7608897169391,47.2192274052595,0 14.7608877986567,47.2192283092864,0 14.7608776986566,47.2192333092864,0 14.7608754340441,47.219234496707,0 14.7608662340441,47.219239596707,0 14.7608636527527,47.2192411210506,0 14.7608550527527,47.2192465210506,0 14.7608531409147,47.2192477776942,0 14.7608451409147,47.2192532776942,0 14.7608418681562,47.2192557112121,0 14.7608347681562,47.2192614112121,0 14.7608322997672,47.2192635155322,0 14.7608259997672,47.2192692155322,0 14.760824009127,47.219271109127,0 14.760818809127,47.219276309127,0 14.7608174919602,47.2192776724962,0 14.7608132919602,47.2192821724962,0 14.7608125340565,47.2192830013423,0 14.7608082340565,47.2192878013423,0 14.7608039340565,47.2192926013423,0 14.760803592752,47.2192929859358,0 14.760795592752,47.2193020859358,0 14.760794508727,47.2193033574549,0 14.760743008727,47.2193656574549,0 14.7607423180959,47.2193665100959,0 14.7606385462203,47.2194972706264,0 14.7605673535371,47.2195825054525,0 14.7605003092476,47.2196552017315,0 14.7604253154548,47.2197295047921,0 14.7603621438544,47.2197912923512,0 14.7602278631909,47.2199148225983,0 14.7602271868316,47.2199154554061,0 14.7598373772138,47.2202863694051,0 14.7595133721918,47.2205918798485,0 14.7590975764269,47.2209837758569,0 14.7590972639028,47.2209840727385,0 14.7588341639028,47.2212359727385,0 14.7588331290417,47.2212369900501,0 14.7585972290417,47.2214750900501,0 14.7585953346518,47.2214771006778,0 14.7585935436075,47.221479203889,0 14.7581564436075,47.222019403889,0 14.7581548319681,47.2220214964964,0 14.7578729319681,47.2224062964964,0 14.7578726621289,47.2224066680772,0 14.7577151621289,47.2226254680772,0 14.7577144055565,47.2226265461033,0 14.7572355217194,47.2233265762969,0 14.7568951493068,47.2238162296034,0 14.7568407702143,47.2238883112422,0 14.7567953479507,47.2239443479716,0 14.7567133834232,47.2240295134807,0 14.7566533395558,47.2240862106407,0 14.7566522304041,47.2240872878616,0 14.7563781795163,47.2243610391311,0 14.7563069348289,47.224429696721,0 14.7562446631346,47.2244897305247,0 14.7560888621552,47.2246155848335,0 14.7558078717344,47.2248112639376,0 14.7549213326629,47.2254284822763,0 14.7543043929119,47.2258476054739,0 14.7543035068501,47.2258482202092,0 14.754133656884,47.2259685430835,0 14.7540729088761,47.2260105687545,0 14.7540704448484,47.2260123766222,0 14.7540680850412,47.2260143185614,0 14.7540394850412,47.2260392185614,0 14.7540370541049,47.2260414671825,0 14.754034762899,47.2260438580242,0 14.7540326197293,47.2260463824195,0 14.7540120197293,47.2260721824195,0 14.7540102685623,47.2260744984613,0 14.7540086420612,47.226076903691,0 14.7540071447591,47.2260793914051,0 14.7540057808289,47.2260819546706,0 14.7540045540719,47.2260845863436,0 14.754003467907,47.2260872790897,0 14.7540025253614,47.2260900254042,0 14.7539944253614,47.2261158254042,0 14.7539936846974,47.2261184028216,0 14.7539930705479,47.2261210132784,0 14.7539925843731,47.2261236505683,0 14.7539922273287,47.2261263084214,0 14.7539920002637,47.226128980519,0 14.7539919037178,47.2261316605084,0 14.7539916037179,47.2261574605083,0 14.7539916349277,47.226160059803,0 14.7539917889197,47.2261626547199,0 14.7539920653497,47.2261652394623,0 14.7539924636004,47.2261678082564,0 14.7539929827821,47.2261703553641,0 14.7539985827821,47.2261948553641,0 14.7539992471389,47.2261974658839,0 14.7540000385158,47.2262000407443,0 14.7540009550143,47.2262025737689,0 14.7540019944362,47.2262050588817,0 14.7540031542881,47.2262074901215,0 14.7540044317879,47.2262098616564,0 14.7540157317879,47.2262296616564,0 14.7540172667962,47.226232190785,0 14.7540189355789,47.2262346337148,0 14.7540207333073,47.2262369833775,0 14.7540226547798,47.2262392329742,0 14.7540246944366,47.2262413759958,0 14.7540268463761,47.2262434062417,0 14.7540447463761,47.2262594062417,0 14.7540470402585,47.2262613465733,0 14.7540494366724,47.2262631587498,0 14.7540519284667,47.2262648373635,0 14.754054508206,47.2262663774052,0 14.754085908206,47.2262839774052,0 14.7540881962971,47.2262851900173,0 14.7540905389295,47.2262862935855,0 14.75409293091,47.2262872856633,0 14.7540953669361,47.2262881640516,0 14.7541339669361,47.2263010640516,0 14.7541365365035,47.2263018535313,0 14.754139141576,47.2263025165184,0 14.7541417759308,47.2263030514293,0 14.7541839759308,47.2263105514293,0 14.7541872502019,47.2263110322255,0 14.7542328502019,47.2263163322255,0 14.7542334551795,47.2263163991502,0 14.7543886551795,47.2263326991502,0 14.7543891671107,47.2263327504965,0 14.7547825556307,47.2263703493993,0 14.7549075441634,47.2263823482984,0 14.7549096460387,47.226382509494,0 14.7553048460387,47.226405209494,0 14.7553063676779,47.2264052757722,0 14.7555690676779,47.2264130757722,0 14.7555693099477,47.2264130824313,0 14.7558976099477,47.2264213824313,0 14.755899182784,47.2264213996963,0 14.756200082784,47.2264203996963,0 14.7562005251686,47.2264203964468,0 14.7564996251686,47.2264169964468,0 14.7565013454255,47.226416949968,0 14.7567801454255,47.226405049968,0 14.7567812420843,47.2264049921857,0 14.7568115420843,47.2264030921857,0 14.7571680796909,47.2263804898146,0 14.7571691916277,47.2263804080008,0 14.7574699916277,47.2263552080008,0 14.7574722807377,47.2263549678976,0 14.7579060807377,47.2263002678976,0 14.7579061551626,47.2263002584614,0 14.7582991551626,47.2262501584614,0 14.7582992946481,47.2262501404984,0 14.7591701884008,47.2261368543191,0 14.7593262763092,47.2261171684561,0 14.7608307400757,47.2259277485613,0 14.760906193539,47.2259200148292,0 14.7613077722577,47.2258790679815,0 14.7616106944775,47.2258538410817,0 14.7618733129023,47.2258355373732,0 14.7632923667212,47.2257890749014,0 14.7641275172839,47.2257657790698,0 14.7642557010008,47.2257622795143,0 14.7642572343747,47.2257622162323,0 14.7643495343747,47.2257571162323,0 14.7643522757348,47.2257568958946,0 14.7643550026535,47.2257565387972,0 14.7644106026535,47.2257478387972,0 14.7644128451652,47.2257474401652,0 14.7644150692494,47.2257469490278,0 14.7644694692494,47.2257337490278,0 14.7644720151785,47.2257330662699,0 14.7644745254718,47.2257322623168,0 14.7645212254718,47.2257160623168,0 14.7645236066321,47.2257151741556,0 14.7645259442216,47.2257141769446,0 14.7645282332494,47.2257130728131,0 14.7645685332494,47.2256924728131,0 14.7645711793424,47.2256910274027,0 14.7645737422508,47.2256894391583,0 14.7645762142723,47.2256877128532,0 14.7646035142723,47.2256675128532,0 14.7646059954348,47.225665564422,0 14.7646083608009,47.2256634769367,0 14.7646106025881,47.2256612572652,0 14.7646127134209,47.2256589127105,0 14.7646387134209,47.2256283127105,0 14.7646402485604,47.2256264227312,0 14.7646416985454,47.2256244666589,0 14.7646670985454,47.2255885666589,0 14.7646689469859,47.2255857779107,0 14.7646706224417,47.2255828819313,0 14.7646721187128,47.2255798894372,0 14.7646863187128,47.2255491894372,0 14.7646875860326,47.2255462243651,0 14.7646886774119,47.22554319012,0 14.7646895890996,47.2255400971315,0 14.7646985890995,47.2255058971315,0 14.7646991915035,47.2255033662177,0 14.7646996735494,47.2255008096484,0 14.7647000341586,47.2254982331438,0 14.7647002725243,47.2254956424688,0 14.7647003881132,47.2254930434201,0 14.7647014881132,47.2254401434201,0 14.7647014588724,47.2254368734192,0 14.764701235345,47.2254336109361,0 14.7647008183211,47.225430367504,0 14.7646943183211,47.225389467504,0 14.7646938387158,47.2253868575499,0 14.7646932337795,47.2253842737671,0 14.7646925049207,47.2253817221703,0 14.7646916538359,47.2253792086994,0 14.7646773538359,47.2253401086994,0 14.76467634422,47.2253375485903,0 14.7646752078097,47.2253350421876,0 14.7646739474502,47.2253325957664,0 14.7646725662969,47.2253302154517,0 14.7646292662969,47.2252597154517,0 14.7646270982858,47.2252564521725,0 14.7645890982858,47.2252034521725,0 14.7645873579159,47.2252011544405,0 14.764585499558,47.2251989510419,0 14.764583528316,47.2251968480287,0 14.764526728316,47.2251393480287,0 14.7645247091152,47.2251374054983,0 14.7644851091152,47.2251012054983,0 14.7644373289649,47.2250576060813,0 14.7643486821891,47.2249746430696,0 14.7643465927304,47.2249727849302,0 14.7642415927304,47.2248840849302,0 14.7642385895398,47.2248817217418,0 14.7640974895398,47.2247784217418,0 14.7640955694214,47.2247770778995,0 14.7640935937954,47.224775817079,0 14.7640028937954,47.224720617079,0 14.7639999934251,47.2247189702981,0 14.7638782934251,47.2246546702981,0 14.7638762960545,47.2246536663723,0 14.7637057960545,47.2245722663723,0 14.7637022603196,47.2245707281179,0 14.7635197603196,47.2244988281179,0 14.7635172870334,47.2244979215126,0 14.7633105870335,47.2244277215126,0 14.7633081124934,47.2244269456715,0 14.7632063124934,47.2243976456715,0 14.7632037037287,47.224396963601,0 14.763112926746,47.2243755925621,0 14.7630127496279,47.2243515220881,0 14.7630086964411,47.2243507079875,0 14.7628364964411,47.2243228079875,0 14.7628351560557,47.2243226077323,0 14.7626882560557,47.2243025077323,0 14.7626856846462,47.2243022173364,0 14.7625241846462,47.2242878173364,0 14.7625236016992,47.2242877684818,0 14.7623426016992,47.2242735684818,0 14.7623393555944,47.2242734101307,0 14.7621726555944,47.2242702101307,0 14.7621685310185,47.2242702856908,0 14.7620343310185,47.2242777856908,0 14.7620328914156,47.2242778851054,0 14.7618711914156,47.2242911851054,0 14.7618695772841,47.2242913418593,0 14.7610858881226,47.2243791294433,0 14.7609331067881,47.2243956166377,0 14.7602382027307,47.2244704063118,0 14.7599865839112,47.2244966665298,0 14.7598938772054,47.2245053390926,0 14.7598929565893,47.2245054330339,0 14.759736986841,47.2245226754255,0 14.7596608227451,47.2245245724142,0 14.7595931140313,47.2245218445811,0 14.759592996868,47.2245218399859,0 14.7594970734857,47.2245181802585,0 14.7594110362275,47.2245032583191,0 14.7592784842888,47.2244729524339,0 14.7592083524754,47.2244486325309,0 14.7590910865022,47.2244005774137,0 14.7589647847809,47.2243250073633,0 14.7588640900509,47.2242535217916,0 14.7588029780706,47.224199691631,0 14.7587516408505,47.2241390369795,0 14.7587202777019,47.2240906816928,0 14.7586864870352,47.2240257204911,0 14.7586705708306,47.2239726948472,0 14.7586622479374,47.2239082595448,0 14.7586612796214,47.2238425020846,0 14.7586747351045,47.2237746828376,0 14.7586934958263,47.2237025333949,0 14.7587187004185,47.223641069565,0 14.7587629854545,47.2235719083667,0 14.7592250376687,47.2229999857637,0 14.7596938168616,47.222468330077,0 14.7597819650898,47.2223698625266,0 14.7598639952665,47.2223047018326,0 14.7599828995944,47.2222333023439,0 14.7601270366663,47.2221730059592,0 14.7602830667695,47.2221270584442,0 14.76045935125,47.2221035795068,0 14.7606158597523,47.2220984009167,0 14.7607794988462,47.2221165937336,0 14.7609515528417,47.222151354078,0 14.7610812322451,47.2221916794406,0 14.76115858483,47.2222214662362,0 14.7612475452858,47.2222730045621,0 14.7613083970624,47.2223124242664,0 14.761355639968,47.2223479024017,0 14.7614356619621,47.2224245254034,0 14.7615026787144,47.2224886414374,0 14.7615044623075,47.222490274263,0 14.7615063159479,47.2224918271122,0 14.7615663144798,47.2225398851468,0 14.7616384375333,47.2226022137115,0 14.7616418003906,47.2226048974657,0 14.7617163817025,47.2226597837126,0 14.7617985630312,47.2227203699477,0 14.7618007250942,47.2227218851517,0 14.7618029573789,47.2227232948552,0 14.7618052547417,47.2227245958099,0 14.7619252547417,47.2227887958098,0 14.7619271055346,47.2227897414475,0 14.7620771055346,47.2228628414475,0 14.7620807210201,47.2228644451896,0 14.7622148210201,47.2229182451896,0 14.7622163659943,47.2229188381974,0 14.7623303659943,47.2229606381974,0 14.7623329185767,47.2229615037996,0 14.7625095185767,47.2230166037996,0 14.7625118128354,47.2230172653251,0 14.7626571128354,47.2230557653251,0 14.7628061396418,47.2230951724207,0 14.7628093730173,47.2230959238022,0 14.7629881730173,47.2231318238022,0 14.7629922403793,47.2231324830333,0 14.7631432403793,47.2231511830333,0 14.763146111175,47.2231514623463,0 14.763329511175,47.2231644623463,0 14.7633320023287,47.2231645822382,0 14.7635877023287,47.2231710822382,0 14.7635887171213,47.2231710986673,0 14.7640338613628,47.223174197583,0 14.7644693056109,47.2231796956164,0 14.7644695139451,47.2231796978522,0 14.7652163139451,47.2231862978522,0 14.7652166981483,47.2231862999057,0 14.7657022223078,47.2231871990245,0 14.7658583414763,47.2231901898132,0 14.7669854364069,47.2232119897151,0 14.7669855991509,47.223211992622,0 14.7690061991509,47.223245092622,0 14.7691849075601,47.2232479927591,0 14.7691875780459,47.2232479712521,0 14.7692988780459,47.2232443712521,0 14.7692990174384,47.2232443665665,0 14.7693248174384,47.2232434665665,0 14.7693282899607,47.2232432352567,0 14.7693317409019,47.2232427847903,0 14.7693974409019,47.2232320847903,0 14.7694152440672,47.2232291842747,0 14.7694185727186,47.2232285360413,0 14.7694608727186,47.2232189360413,0 14.7695070891607,47.2232084323071,0 14.76950978729,47.2232077468469,0 14.7695124472795,47.223206925742,0 14.7695326472795,47.223200125742,0 14.7695327725457,47.2232000834055,0 14.7695996320606,47.2231773971426,0 14.7696152915501,47.2231721108181,0 14.7696187806698,47.2231707996591,0 14.769682837006,47.2231442177785,0 14.7697367933119,47.2231219358226,0 14.7697369133213,47.2231218860972,0 14.7697547133213,47.2231144860972,0 14.7697571236277,47.2231134155805,0 14.7697594798447,47.2231122307494,0 14.7697617765544,47.2231109343284,0 14.7697640084759,47.2231095292984,0 14.7698169084759,47.2230744292984,0 14.7698754542896,47.2230354988673,0 14.7699146815545,47.2230093807256,0 14.7699171532721,47.2230076350072,0 14.7699195252374,47.2230057559913,0 14.7699217902703,47.2230037493659,0 14.7699923076988,47.2229377266743,0 14.7700034248105,47.222927403642,0 14.7700052831804,47.2229255945676,0 14.7700070542016,47.222923699898,0 14.770008733936,47.222921723846,0 14.770019833936,47.222908023846,0 14.7700560053726,47.2228633591186,0 14.7700681688624,47.2228484040081,0 14.7700701185496,47.2228458587473,0 14.7700719166129,47.2228432042038,0 14.7700735569421,47.2228404493984,0 14.7701084569421,47.2227777493984,0 14.7701098172328,47.2227751440905,0 14.7701110364104,47.222772469838,0 14.7701216364104,47.222747469838,0 14.7701216867806,47.2227473506505,0 14.7701470795774,47.222687067751,0 14.7702546848831,47.2224320921333,0 14.7703809957116,47.2221394986952,0 14.7704630012324,47.2219492859055,0 14.7705886962977,47.2216580973373,0 14.7705891294795,47.2216570650696,0 14.7706419294795,47.2215275650696,0 14.7706613475107,47.2214798207905,0 14.7706622279718,47.2214775081867,0 14.7706630035204,47.2214751583201,0 14.7706636725864,47.2214727759475,0 14.7706722725864,47.2214392759476,0 14.7706729344223,47.2214363739543,0 14.7706734382956,47.2214334404063,0 14.7706737827305,47.2214304838954,0 14.7706739667183,47.2214275130807,0 14.7706739897201,47.2214245366629,0 14.7706732897201,47.2213883366629,0 14.7706731879667,47.2213858912808,0 14.7706729775216,47.2213834528469,0 14.7706726588015,47.2213810261898,0 14.7706667588015,47.2213427261898,0 14.7706662114237,47.2213397276352,0 14.77066549877,47.2213367640095,0 14.7706646230293,47.2213338444152,0 14.7706635868914,47.2213309778195,0 14.7706623935386,47.2213281730269,0 14.7706479935386,47.2212967730269,0 14.770646711882,47.2212941627223,0 14.7706452940521,47.2212916238066,0 14.7706437440126,47.2212891633775,0 14.7706420660965,47.221286788313,0 14.7706402649944,47.2212845052525,0 14.7706383457412,47.2212823205783,0 14.7706363137022,47.2212802403976,0 14.770634174558,47.2212782705256,0 14.7706319342884,47.2212764164689,0 14.7705944342884,47.2212470164689,0 14.7705910956225,47.2212445954282,0 14.7705426956225,47.2212121954282,0 14.7705394641496,47.2212101904274,0 14.7704857641496,47.2211793904274,0 14.7704827736506,47.2211777955868,0 14.7704119736506,47.2211427955868,0 14.770411431827,47.221142531421,0 14.770289131827,47.221083731421,0 14.7702876614611,47.2210830509696,0 14.7701312614611,47.2210134509696,0 14.7701292312641,47.2210125957957,0 14.7701271684495,47.2210118226085,0 14.7699198684495,47.2209388226085,0 14.7699186004538,47.2209383933602,0 14.7697543004538,47.2208849933602,0 14.7697521813222,47.2208843514755,0 14.7695622816835,47.2208309796823,0 14.7693859819389,47.2207807082698,0 14.7693843725416,47.2207802756095,0 14.7692335725416,47.2207421756095,0 14.7692332263494,47.2207420893367,0 14.7690798263494,47.2207043893367,0 14.7690787977212,47.2207041469932,0 14.7688707977212,47.2206572469932,0 14.7688701972874,47.2206571151287,0</coordinates></LineString>
  </Placemark>
</Folder>
</Document></kml>
