<?xml version="1.0" encoding="utf-8" ?>
<kml xmlns="http://www.opengis.net/kml/2.2">
<Document id="root_doc">
<Schema name="simplified_left" id="simplified_left">
	<SimpleField name="id" type="string"></SimpleField>
	<SimpleField name="timestamp" type="string"></SimpleField>
	<SimpleField name="begin" type="string"></SimpleField>
	<SimpleField name="end" type="string"></SimpleField>
	<SimpleField name="altitudeMode" type="string"></SimpleField>
	<SimpleField name="tessellate" type="int"></SimpleField>
	<SimpleField name="extrude" type="int"></SimpleField>
	<SimpleField name="visibility" type="int"></SimpleField>
	<SimpleField name="drawOrder" type="int"></SimpleField>
	<SimpleField name="icon" type="string"></SimpleField>
	<SimpleField name="bridge" type="string"></SimpleField>
	<SimpleField name="covered" type="string"></SimpleField>
	<SimpleField name="highway" type="string"></SimpleField>
	<SimpleField name="layer" type="string"></SimpleField>
	<SimpleField name="name_en" type="string"></SimpleField>
	<SimpleField name="name_es" type="string"></SimpleField>
	<SimpleField name="oneway" type="string"></SimpleField>
	<SimpleField name="oneway_bic" type="string"></SimpleField>
	<SimpleField name="raceway_co" type="string"></SimpleField>
	<SimpleField name="sport" type="string"></SimpleField>
	<SimpleField name="surface" type="string"></SimpleField>
</Schema>
<Folder><name>simplified_left</name>
  <Placemark id="simplified_left.1">
	<Style><LineStyle><color>ff0000ff</color></LineStyle><PolyStyle><fill>0</fill></PolyStyle></Style>
	<ExtendedData><SchemaData schemaUrl="#simplified_left">
		<SimpleData name="id">suzuka_left_reindex.1</SimpleData>
		<SimpleData name="tessellate">-1</SimpleData>
		<SimpleData name="extrude">0</SimpleData>
		<SimpleData name="visibility">-1</SimpleData>
		<SimpleData name="bridge">yes</SimpleData>
		<SimpleData name="highway">raceway</SimpleData>
		<SimpleData name="layer">1</SimpleData>
		<SimpleData name="oneway">yes</SimpleData>
		<SimpleData name="oneway_bic">no</SimpleData>
		<SimpleData name="sport">motor</SimpleData>
		<SimpleData name="surface">asphalt</SimpleData>
	</SchemaData></ExtendedData>
      <LineString><coordinates>136.53871720397,34.8449877775823,0 136.541142088881,34.8425736926175,0 136.542980355663,34.8407261253821,0 136.543167955663,34.8405369253821,0 136.543275353343,34.840423426341,0 136.543364942359,34.8402907987558,0 136.543414744791,34.8401914846508,0 136.543440862078,34.8401188934549,0 136.543456000191,34.8400602439199,0 136.543468240526,34.8399780361814,0 136.543470947615,34.8399167000849,0 136.543462683405,34.8398232236749,0 136.54344258018,34.8397274690196,0 136.543415907664,34.8396428829292,0 136.543361246157,34.8394946908623,0 136.543255046157,34.8392405908623,0 136.543249320179,34.8392302059575,0 136.543190020179,34.8391457059575,0 136.543133674904,34.8390769588708,0 136.543125081128,34.8390685748437,0 136.543032149951,34.8390040325825,0 136.542927914967,34.8389537548257,0 136.54281518262,34.8389189488254,0 136.542697256416,34.8389005087149,0 136.542577193804,34.8388987688348,0 136.542458543578,34.8389139376977,0 136.542344425972,34.8389455776089,0 136.542238021245,34.8389929988074,0 136.542143158984,34.8390544003564,0 136.542044181889,34.8391411899468,0 136.541883981124,34.8393586503147,0 136.541184130012,34.8402537251544,0 136.541050446048,34.8404079307791,0 136.540974611051,34.8404763968157,0 136.540887303235,34.8405347571577,0 136.540789933595,34.840581898655,0 136.540684523353,34.8406165656597,0 136.540573622249,34.8406380486263,0 136.540457843998,34.8406457287756,0 136.54016803129,34.840650306861,0 136.540055246275,34.8406585495915,0 136.539935467083,34.8406814437072,0 136.539829543872,34.8407149323385,0 136.539726985015,34.8407614347187,0 136.539633859047,34.8408186606143,0 136.539549852957,34.8408867878767,0 136.539474376014,34.840968543359,0 136.539417322599,34.8410520505684,0 136.539374165624,34.841141894088,0 136.539337269993,34.8412340716101,0 136.539180905407,34.8417174347608,0 136.539148640434,34.8418051462854,0 136.539103849633,34.8418860083665,0 136.539045927692,34.8419617595498,0 136.538975847915,34.8420310028305,0 136.538894727117,34.842092217257,0 136.538803916957,34.8421443368426,0 136.538704989205,34.8421862099803,0 136.538599921011,34.8422169455009,0 136.538490557776,34.8422359940365,0 136.538377021184,34.8422430418011,0 136.537958051596,34.8422533165315,0 136.537801982194,34.8422620884412,0 136.53765020687,34.8422960914283,0 136.537515297549,34.8423457059099,0 136.53738817757,34.8424086197312,0 136.537266191413,34.8424904887478,0 136.537158289918,34.8425902459674,0 136.537075037073,34.8426883456369,0 136.537009942751,34.8428031511536,0 136.537005510229,34.84281347368,0 136.536968751445,34.8429319970383,0 136.536957410698,34.8430599847656,0 136.536973798878,34.843187552644,0 136.537016085926,34.8433077458984,0 136.537059880412,34.8433997063227,0 136.537253600307,34.8438221689198,0 136.537290226343,34.8439195566082,0 136.537308537607,34.8440173077887,0 136.537309265413,34.8441161074387,0 136.5372924112,34.8442141351859,0 136.537258214032,34.8443093203517,0 136.537207062733,34.8443999391096,0 136.537139918959,34.8444841235104,0 136.53705798531,34.84455971872,0 136.536963221868,34.8446249503599,0 136.53679538227,34.8447065915737,0 136.536594271472,34.8447893670399,0 136.536435924445,34.8448480433557,0 136.536274784825,34.844900502814,0 136.536161359173,34.8449345207903,0 136.535962564278,34.8449727954874,0 136.535825943038,34.844988465307,0 136.53571067076,34.8449982341441,0 136.535462314149,34.8450018806499,0 136.535184568432,34.8449884907153,0 136.535025735737,34.8449655803023,0 136.53486082153,34.8449190983181,0 136.53450485152,34.8447905646034,0 136.534344551002,34.844722873442,0 136.53417861283,34.844638829374,0 136.534045544821,34.8445559775407,0 136.533964569997,34.8444960464732,0 136.533848130642,34.8444034084588,0 136.533703513757,34.8442808434338,0 136.532690700534,34.8432751189979,0 136.532617027931,34.8432179009419,0 136.532607194986,34.8432118658621,0 136.532540858446,34.8431880543883,0 136.532526445342,34.8431850416891,0 136.531098445342,34.8430823416891,0 136.530980576388,34.8430810030203,0 136.530968499307,34.8430822158569,0 136.530900823212,34.8431016467074,0 136.530846551047,34.8431289483139,0 136.530800395971,34.8431650500848,0 136.530791700984,34.8431736566321,0 136.530756673748,34.8432174904638,0 136.530730035655,34.8432750781278,0 136.530716715785,34.8433265766341,0 136.530572619932,34.8439275774679,0 136.530543048523,34.8440509151024,0 136.530201615785,34.8454749766341,0 136.530145665312,34.8457124890053,0 136.530123921194,34.8458603722765,0 136.530126281098,34.8459827595933,0 136.530150807801,34.8461050832115,0 136.530222298031,34.8462895837827,0 136.530338570158,34.8464941291553,0 136.530587395106,34.8469591170667,0 136.530604634532,34.8470109109558,0 136.53059776294,34.8470596244242,0 136.530576394013,34.8470981301195,0 136.530539524711,34.8471312029791,0 136.530487954979,34.8471532711077,0 136.530427838889,34.8471618130721,0 136.53037005655,34.8471545802341,0 136.53031380742,34.8471325453187,0 136.530266059294,34.8470950289337,0 136.530222774854,34.8470488886137,0 136.529930703757,34.8466466825804,0 136.529869452117,34.8465698231275,0 136.529676402001,34.8463202048388,0 136.529467240463,34.8460433685123,0 136.529344309634,34.8459182305229,0 136.529236701472,34.8458143748071,0 136.529082401472,34.8456870748071,0 136.528994825754,34.8456215444134,0 136.528899898295,34.8455655420737,0 136.528622110469,34.8454301531785,0 136.528350750529,34.8453614072718,0 136.528040876042,34.8453305512454,0 136.527838291837,34.8453155360792,0 136.527634091837,34.8453081360792,0 136.52747764529,34.8453106648157,0 136.52729334529,34.8453249648157,0 136.527019039367,34.8453555546443,0 136.526638186215,34.8454318735496,0 136.526295570315,34.8455267272264,0 136.525951604836,34.8456302332376,0 136.525712793708,34.8457202790617,0 136.525475591698,34.8458329202056,0 136.525275304163,34.8459442406384,0 136.525047499063,34.8460984514218,0 136.524916618246,34.8462089426624,0 136.524805918246,34.8463125426624,0 136.524715643673,34.8464030746917,0 136.524614231715,34.8465167185917,0 136.524491205251,34.846684832997,0 136.524377683586,34.8468695713694,0 136.524053897626,34.8474874537461,0 136.523754458307,34.8480466656223,0 136.523720097542,34.8480949854472,0 136.523685660976,34.8481323433669,0 136.523640717502,34.8481712455597,0 136.523589031993,34.8482086409999,0 136.523526982636,34.848245281421,0 136.523467087977,34.8482706496482,0 136.523395518788,34.8482940688854,0 136.523319766932,34.8483106860206,0 136.523154912521,34.8483270177513,0 136.522938426984,34.8483204694303,0 136.522799659542,34.8483088566838,0 136.522642342887,34.8482842025811,0 136.522452860859,34.8482434874346,0 136.522343084305,34.8482085015793,0 136.522240206533,34.8481687247552,0 136.522192253366,34.8481460381917,0 136.522141379824,34.8481106516631,0 136.522095560387,34.8480642142376,0 136.522044674643,34.847997129256,0 136.522010147937,34.8479332503881,0 136.521980974917,34.8478482066164,0 136.521974792742,34.8477581234855,0 136.521982958224,34.8476783325232,0 136.522012032384,34.8475843230167,0 136.522048959102,34.8475025894362,0 136.522120090532,34.8473980065017,0 136.522172305779,34.8473383716816,0 136.522358492923,34.8471654622862,0 136.522528708012,34.847041945977,0 136.522708194481,34.8469188780547,0 136.523043381502,34.8467020274918,0 136.523272211482,34.8465635565263,0 136.523470144645,34.8464512751639,0 136.523944908913,34.8461972967141,0 136.524375589572,34.8459878302078,0 136.524781594888,34.8458096179677,0 136.525194780198,34.8456438659217,0 136.525465293115,34.8455451356736,0 136.525822355968,34.8454220345733,0 136.528534233737,34.8446331192928,0 136.530449400829,34.8440784288237,0 136.530449603955,34.8440783695688,0 136.530664738142,34.8440151621035,0 136.53082485721,34.8439681183465,0 136.530932867663,34.8439401156364,0 136.530999944926,34.843927579579,0 136.531130708976,34.84391673016,0 136.531268759137,34.843924616026,0 136.53140754817,34.8439499995558,0 136.531586784705,34.843994265249,0 136.531747285201,34.8440372900887,0 136.531914501854,34.844088066372,0 136.532192288702,34.8441891279736,0 136.532307598152,34.8442425569521,0 136.532530107379,34.8443587220455,0 136.532662553594,34.84443234714,0 136.532760507732,34.8444929574851,0 136.532961843367,34.8446316971195,0 136.533586695717,34.8451096460443,0 136.534292895717,34.8456444460443,0 136.534354830012,34.8456877069825,0 136.534547736181,34.8458122097622,0 136.534713033566,34.8459054030281,0 136.534778540631,34.8459366538646,0 136.534826203523,34.8459497979873,0 136.534872071711,34.8459575462114,0 136.534915607451,34.845958099222,0 136.534926970086,34.8459569744205,0 136.534969098686,34.8459480037583,0 136.535010349373,34.8459301168866,0 136.535269942069,34.8457440188844,0 136.535311217298,34.8457217683098,0 136.535356221167,34.8457093644167,0 136.535404118606,34.8457065469202,0 136.535451244576,34.8457137723671,0 136.535493832394,34.8457300675211,0 136.535533700934,34.8457572545645,0 136.535762955293,34.8459242270044,0 136.535922240835,34.8460130586351,0 136.536061705646,34.8460715254398,0 136.536208970128,34.8461165342816,0 136.536401486124,34.8461408383374,0 136.536550851377,34.8461451579073,0 136.536694965775,34.8461393969454,0 136.536801308816,34.8461281769184,0 136.536962172873,34.8461081813905,0 136.537032095773,34.8460953416816,0 136.537213095773,34.8460484416816,0 136.537344968968,34.8460058200991,0 136.537618481094,34.8458806934428,0 136.537846491917,34.8457469678819,0 136.538014009888,34.8456277026497,0 136.538187273428,34.845491961755,0 136.538411092056,34.8452846806084,0 136.538716692056,34.8449882806084,0</coordinates></LineString>
  </Placemark>
</Folder>
</Document></kml>
