<?xml version="1.0" encoding="utf-8" ?>
<kml xmlns="http://www.opengis.net/kml/2.2">
<Document id="root_doc">
<Schema name="simplified_right" id="simplified_right">
	<SimpleField name="id" type="string"></SimpleField>
	<SimpleField name="timestamp" type="string"></SimpleField>
	<SimpleField name="begin" type="string"></SimpleField>
	<SimpleField name="end" type="string"></SimpleField>
	<SimpleField name="altitudeMode" type="string"></SimpleField>
	<SimpleField name="tessellate" type="int"></SimpleField>
	<SimpleField name="extrude" type="int"></SimpleField>
	<SimpleField name="visibility" type="int"></SimpleField>
	<SimpleField name="drawOrder" type="int"></SimpleField>
	<SimpleField name="icon" type="string"></SimpleField>
	<SimpleField name="bridge" type="string"></SimpleField>
	<SimpleField name="covered" type="string"></SimpleField>
	<SimpleField name="highway" type="string"></SimpleField>
	<SimpleField name="layer" type="string"></SimpleField>
	<SimpleField name="name_en" type="string"></SimpleField>
	<SimpleField name="name_es" type="string"></SimpleField>
	<SimpleField name="oneway" type="string"></SimpleField>
	<SimpleField name="oneway_bic" type="string"></SimpleField>
	<SimpleField name="raceway_co" type="string"></SimpleField>
	<SimpleField name="sport" type="string"></SimpleField>
	<SimpleField name="surface" type="string"></SimpleField>
</Schema>
<Folder><name>simplified_right</name>
  <Placemark id="simplified_right.1">
	<Style><LineStyle><color>ff0000ff</color></LineStyle><PolyStyle><fill>0</fill></PolyStyle></Style>
	<ExtendedData><SchemaData schemaUrl="#simplified_right">
		<SimpleData name="id">pasted_right.1</SimpleData>
		<SimpleData name="tessellate">-1</SimpleData>
		<SimpleData name="extrude">0</SimpleData>
		<SimpleData name="visibility">-1</SimpleData>
		<SimpleData name="bridge">yes</SimpleData>
		<SimpleData name="highway">raceway</SimpleData>
		<SimpleData name="layer">1</SimpleData>
		<SimpleData name="oneway">yes</SimpleData>
		<SimpleData name="oneway_bic">no</SimpleData>
		<SimpleData name="sport">motor</SimpleData>
		<SimpleData name="surface">asphalt</SimpleData>
	</SchemaData></ExtendedData>
      <LineString><coordinates>136.538639850346,34.8449095692348,0 136.541064203356,34.8424960146793,0 136.542902277699,34.8406486409713,0 136.54308943064,34.8404598918432,0 136.543188626505,34.8403554802277,0 136.543268275151,34.8402381829334,0 136.543313562709,34.8401480756651,0 136.543335682356,34.8400864894261,0 136.543348125224,34.8400383409366,0 136.543358689415,34.8399673569892,0 136.543360885999,34.8399202622237,0 136.54335341365,34.8398363136127,0 136.543336159775,34.8397555468225,0 136.543312239683,34.8396796886818,0 136.543259299616,34.8395360223297,0 136.543155853762,34.8392885120528,0 136.543101188438,34.8392106162699,0 136.543053531687,34.8391526840863,0 136.542977705337,34.8390998005217,0 136.542888741995,34.8390567002692,0 136.542791491779,34.8390265063927,0 136.542689046859,34.8390103308789,0 136.542584518639,34.8390086554489,0 136.542481400558,34.8390216730606,0 136.542382748429,34.8390488394835,0 136.542291611533,34.8390892422774,0 136.542210294696,34.8391417017787,0 136.54212726392,34.8392137351009,0 136.54197112786,34.8394257776708,0 136.54126992786,34.8403225776708,0 136.541129080535,34.8404849972675,0 136.541039064735,34.8405656252335,0 136.540940923586,34.840630945874,0 136.540834567037,34.8406825033446,0 136.540712248947,34.840723127875,0 136.540584340424,34.8407475793888,0 136.54046096871,34.840755693139,0 136.540171363287,34.84076026795,0 136.540066511302,34.8407680170474,0 136.539965472774,34.8407873207737,0 136.539868891734,34.8408177607123,0 136.539778666232,34.8408586616918,0 136.539696598497,34.8409091505821,0 136.539624181037,34.840968047647,0 136.539562739061,34.8410341805526,0 136.539513326855,34.8411060611554,0 136.539475555059,34.8411845965727,0 136.539441344102,34.8412697395721,0 136.539285230007,34.8417523283899,0 136.539250418372,34.8418470879879,0 136.5391981121,34.8419428500623,0 136.539125956675,34.8420373236687,0 136.539046941802,34.8421150918876,0 136.538952477904,34.8421859016811,0 136.538852838083,34.8422429725084,0 136.538741979593,34.8422899025544,0 136.538624859378,34.8423241701774,0 136.538506437635,34.8423448842325,0 136.538380748404,34.8423529834685,0 136.537961609114,34.8423632623606,0 136.537812860551,34.8423716479498,0 136.537678273978,34.8424025103687,0 136.537558932539,34.8424467637732,0 136.537440219913,34.8425055956527,0 136.537337654059,34.8425742235848,0 136.537237784546,34.842666425391,0 136.537162440754,34.8427553496694,0 136.537108803384,34.8428517151126,0 136.537076961432,34.8429534650339,0 136.537067712366,34.8430578088614,0 136.537081103896,34.8431619751863,0 136.537117784269,34.8432656250287,0 136.537159694476,34.8433534750717,0 136.537354394476,34.8437780750717,0 136.537396779361,34.8438914469315,0 136.537418064622,34.8440050933309,0 136.537419298508,34.8441201948544,0 136.537398555096,34.84424375313,0 136.537357742367,34.8443565967241,0 136.537297558955,34.8444627630409,0 136.537219599702,34.8445601777005,0 136.537127737085,34.8446449460604,0 136.537015058117,34.844722059145,0 136.536838833701,34.8448076603989,0 136.536635233701,34.8448914603989,0 136.536471025882,34.8449522983686,0 136.536308225882,34.8450052983686,0 136.536187624118,34.8450414112116,0 136.535977167156,34.8450818417675,0 136.535837667156,34.8450978417675,0 136.535718044369,34.8451080035568,0 136.535458766039,34.8451118368934,0 136.535174037492,34.8450980476575,0 136.535001712841,34.8450730402973,0 136.534829079289,34.8450244374385,0 136.53446612097,34.8448935309756,0 136.534296549295,34.8448218656951,0 136.534122529748,34.8447334896185,0 136.53398368009,34.8446469858127,0 136.533898380214,34.8445839087727,0 136.533777639898,34.8444878580641,0 136.533629115112,34.8443619251044,0 136.53261558834,34.8433555583537,0 136.532556901479,34.8433104278148,0 136.532511144635,34.8432942253912,0 136.531092237009,34.8431921793035,0 136.53098707359,34.8431910771542,0 136.530944952656,34.8432025506809,0 136.530905608356,34.843222103122,0 136.53087343312,34.8432475331881,0 136.530849828597,34.8432767790439,0 136.530308609663,34.8455005172265,0 136.530253278295,34.84573540334,0 136.530233785007,34.8458687184102,0 136.530235982317,34.8459721750809,0 136.530257641113,34.8460784500235,0 136.530323237692,34.8462456831618,0 136.530435193362,34.8464415501675,0 136.530686593362,34.8469113501675,0 136.530713906807,34.8469911276305,0 136.530715784026,34.8470022301638,0 136.530715360829,34.8470134823236,0 136.530704784155,34.8470879219273,0 136.5307002217,34.8471015349449,0 136.530668090907,34.8471595882871,0 136.530661034816,34.8471695216307,0 136.530606225823,34.8472191415912,0 136.530593858907,34.847227511699,0 136.530524538069,34.8472572647503,0 136.530510637296,34.8472611530463,0 136.530430217863,34.8472722665516,0 136.530349568748,34.8472628741147,0 136.530336338783,34.8472595108151,0 136.530258887515,34.8472285391679,0 136.530192682079,34.8471771788596,0 136.530135796243,34.8471163174196,0 136.52984242942,34.8467123270652,0 136.529782693096,34.846637447426,0 136.529589193096,34.846387247426,0 136.529383870782,34.8461153080743,0 136.529266371439,34.8459958585356,0 136.529165024534,34.8458978441202,0 136.529013416821,34.8457727653004,0 136.528931442659,34.845711500401,0 136.528846104569,34.8456615139469,0 136.528584188887,34.8455337216919,0 136.528333075323,34.8454701242426,0 136.528032040837,34.845440197989,0 136.527833264968,34.8454254261164,0 136.52763154306,34.84541811592,0 136.527484469138,34.8454204659693,0 136.527302774563,34.8454345638122,0 136.52703596863,34.8454642967207,0 136.526661770942,34.8455393339848,0 136.526326663854,34.8456322428221,0 136.52598863307,34.8457338308045,0 136.525755824694,34.8458215642523,0 136.525527470208,34.8459299342047,0 136.525332923695,34.8460380046945,0 136.525113947766,34.846186210426,0 136.524990755073,34.8462902181702,0 136.524881780632,34.846392203284,0 136.52479462932,34.846479648695,0 136.524699818649,34.8465859221313,0 136.52458130495,34.8467479754598,0 136.524474246914,34.8469222879029,0 136.524151216414,34.8475387286306,0 136.523848047988,34.8481046762949,0 136.523805616753,34.8481643450429,0 136.523759995377,34.8482134852476,0 136.523709050063,34.848257513492,0 136.52365143994,34.8482992599175,0 136.523573250408,34.8483451446445,0 136.523505694831,34.848373704461,0 136.523421784741,34.8484009226197,0 136.523337018251,34.8484194205832,0 136.523158683555,34.848437067738,0 136.522933637104,34.8484303748559,0 136.52278851336,34.8484183084185,0 136.522620745553,34.8483920726208,0 136.522424555747,34.8483498501656,0 136.522308099114,34.8483128030571,0 136.522194979044,34.8482690168445,0 136.522135736632,34.8482406177956,0 136.522070371208,34.848194968999,0 136.522012327271,34.8481363098345,0 136.521951315403,34.8480555910407,0 136.52190863598,34.8479760801508,0 136.52187242379,34.8478686835764,0 136.521864603756,34.8477578427358,0 136.521874906847,34.8476563214742,0 136.52190906728,34.8475453147407,0 136.521952065868,34.8474501052096,0 136.522032990391,34.8473306560719,0 136.522091420244,34.8472637685804,0 136.522288570832,34.8470804152593,0 136.522464697867,34.8469524851463,0 136.522647824594,34.8468269214324,0 136.522984324594,34.8466092214324,0 136.523217262497,34.846468261146,0 136.523417656365,34.846354603322,0 136.523893956365,34.846099803322,0 136.524330394082,34.8458875380263,0 136.524738194082,34.8457085380263,0 136.525154606502,34.8455414606374,0 136.525428973639,34.8454413034081,0 136.5257903343,34.8453167900081,0 136.528503533363,34.8445274902807,0 136.530418697551,34.8439728006084,0 136.530694309551,34.8438918244689,0 136.530794696045,34.8438623304312,0 136.530907097081,34.8438331601706,0 136.530982496001,34.8438189360638,0 136.531130574603,34.8438066030016,0 136.53128182833,34.8438152888207,0 136.531432287034,34.8438428042873,0 136.531613687034,34.8438876042873,0 136.531776640872,34.8439312756406,0 136.531950986667,34.8439842811423,0 136.532234090794,34.8440873219624,0 136.532357353758,34.844144444424,0 136.532581653758,34.844261544424,0 136.532717122526,34.84433682811,0 136.532819539862,34.8444001294494,0 136.533027663519,34.8445435514847,0 136.533653158541,34.8450219950449,0 136.534358449427,34.8455561065799,0 136.534416961414,34.8455969288964,0 136.534603718251,34.8457175097145,0 136.534683016557,34.8457629910666,0 136.534765000629,34.8458084398234,0 136.534815700131,34.8458328938234,0 136.534850011635,34.8458423335913,0 136.534883064145,34.8458479245631,0 136.534910452536,34.8458480702461,0 136.534935607375,34.8458429014435,0 136.534958158949,34.8458329841851,0 136.535208560014,34.8456526679343,0 136.535267270423,34.8456205930642,0 136.535338228604,34.8456005366232,0 136.535412158766,34.8455965715625,0 136.535479474995,34.845607131452,0 136.53554778807,34.8456338323725,0 136.535597795953,34.845667853378,0 136.535822299222,34.8458314878028,0 136.535970396797,34.8459140640042,0 136.53609911779,34.845968009715,0 136.536233529278,34.8460091115331,0 136.5364099186,34.8460311001856,0 136.536548431341,34.846035168392,0 136.536685237123,34.8460298130055,0 136.536788212132,34.8460189580901,0 136.536947060862,34.8459992129635,0 136.537006440608,34.8459883565713,0 136.537183988264,34.8459423511289,0 136.537302194447,34.8459044250407,0 136.537567686076,34.8457830434437,0 136.537786678996,34.8456545871936,0 136.537947178865,34.8455403230668,0 136.538115895965,34.845408202329,0 136.538334961085,34.8452052798924,0</coordinates></LineString>
  </Placemark>
</Folder>
</Document></kml>
