<?xml version="1.0" encoding="utf-8" ?>
<kml xmlns="http://www.opengis.net/kml/2.2">
<Document id="root_doc">
<Schema name="china_bound" id="china_bound">
	<SimpleField name="bridge" type="string"></SimpleField>
	<SimpleField name="highway" type="string"></SimpleField>
	<SimpleField name="layer" type="string"></SimpleField>
	<SimpleField name="sport" type="string"></SimpleField>
	<SimpleField name="surface" type="string"></SimpleField>
</Schema>
<Folder><name>china_bound</name>
  <Placemark id="china_bound.1">
	<Style><LineStyle><color>ff0000ff</color></LineStyle><PolyStyle><fill>0</fill></PolyStyle></Style>
	<ExtendedData><SchemaData schemaUrl="#china_bound">
		<SimpleData name="highway">raceway</SimpleData>
		<SimpleData name="sport">motor</SimpleData>
		<SimpleData name="surface">asphalt</SimpleData>
	</SchemaData></ExtendedData>
      <LineString><coordinates>121.22231684645,31.3377187184627,0 121.220598859296,31.3373733210454,0 121.218962411666,31.3370443315737,0 121.218630363595,31.3369782419095,0 121.217397561629,31.3367326411295,0 121.217292341008,31.3367137305111,0 121.217176685174,31.3367049730323,0 121.217105269291,31.336707480482,0 121.217020176282,31.3367180689786,0 121.216942890872,31.3367302414306,0 121.216868342915,31.33674720157,0 121.216794862447,31.3367681289575,0 121.216713084562,31.3368032582237,0 121.216624607682,31.3368449564279,0 121.216535650591,31.3369006387584,0 121.21647450568,31.3369417794703,0 121.216404954866,31.3370026944685,0 121.216343171378,31.3370730924458,0 121.216285358302,31.3371611663242,0 121.216243597387,31.3372476381542,0 121.216216857694,31.3373387375211,0 121.216202899067,31.337426002051,0 121.216200769618,31.3375181238471,0 121.216211098754,31.3376122027351,0 121.21623006797,31.3376920011178,0 121.21625934273,31.3377618856822,0 121.216300510202,31.3378269105557,0 121.216355539391,31.3378899423559,0 121.216407782112,31.3379309965011,0 121.216482104294,31.3379742900871,0 121.216556059454,31.3380035810608,0 121.216642386342,31.3380247695468,0 121.216716204261,31.3380334,0 121.216806252382,31.3380334,0 121.216900911273,31.3380176387025,0 121.216968587685,31.3379937108946,0 121.217022505871,31.337965801321,0 121.217063338429,31.3379323629889,0 121.217092812945,31.3378957550128,0 121.217106787793,31.3378640992789,0 121.217118613043,31.3378269342065,0 121.217121251713,31.337790432602,0 121.217114887608,31.3377543182221,0 121.217098825071,31.3377077105326,0 121.217045464561,31.3375894149905,0 121.217044549656,31.3375872661287,0 121.217026749656,31.3375428661287,0 121.217026658908,31.3375426382993,0 121.217009958908,31.3375004382993,0 121.217009000164,31.3374978240488,0 121.217008174959,31.3374951646254,0 121.217007485408,31.3374924668456,0 121.217006933278,31.3374897376242,0 121.217006519986,31.3374869839565,0 121.216999919986,31.3374338839565,0 121.216999628171,31.3374308526568,0 121.216999504581,31.3374278098524,0 121.216999549593,31.3374247648717,0 121.216999763071,31.3374217270499,0 121.217006163071,31.3373565270499,0 121.217006551087,31.3373534622514,0 121.217007110567,31.337350424073,0 121.217007839747,31.3373474220999,0 121.217008736327,31.3373444658031,0 121.217033836327,31.3372693658031,0 121.217034801669,31.3372667069428,0 121.217035902436,31.3372641012307,0 121.217037135717,31.337261555559,0 121.217038498247,31.3372590766614,0 121.217039986425,31.3372566710948,0 121.217041596313,31.3372543452221,0 121.217083696313,31.3371967452221,0 121.217085330346,31.3371946202844,0 121.217087065972,31.3371925774856,0 121.217088899068,31.337190621678,0 121.21709082528,31.3371887575072,0 121.217092840032,31.3371869894014,0 121.217151140032,31.3371382894014,0 121.217153332144,31.3371365509739,0 121.217155609823,31.3371349262688,0 121.217157967174,31.3371334194903,0 121.217160398098,31.3371320345373,0 121.217162896304,31.3371307749934,0 121.217230596304,31.3370987749934,0 121.217232898876,31.3370977504941,0 121.217235245963,31.337096832551,0 121.217237632637,31.3370960230913,0 121.217314432637,31.3370719230913,0 121.217317084455,31.3370711634456,0 121.217319771026,31.3370705377132,0 121.217322485591,31.3370700474681,0 121.217370285591,31.3370626474681,0 121.217373746966,31.3370622234772,0 121.217377228252,31.3370620196948,0 121.217429528252,31.3370606196948,0 121.217432252412,31.3370606142613,0 121.217434973499,31.3370607437214,0 121.217437684839,31.3370610077576,0 121.217440379779,31.3370614057222,0 121.217481979779,31.3370686057222,0 121.217484370101,31.3370690741708,0 121.217486737338,31.3370696479945,0 121.217535237338,31.3370825479945,0 121.217538341001,31.3370834721543,0 121.217541384896,31.3370845773728,0 121.217584984896,31.3371018773728,0 121.217587408894,31.3371029070251,0 121.217589780824,31.3371040515343,0 121.217592095246,31.3371053082764,0 121.217639795246,31.3371327082764,0 121.217642305255,31.3371342407566,0 121.217644729763,31.3371359052087,0 121.217647061838,31.3371376968738,0 121.217649294813,31.3371396106294,0 121.217651422304,31.3371416410041,0 121.217725022304,31.3372157410041,0 121.217726722833,31.3372175317584,0 121.217728341261,31.3372193970432,0 121.217729874327,31.3372213330978,0 121.217793374327,31.3373053330978,0 121.217794993497,31.3373075913971,0 121.21779649654,31.3373099285937,0 121.21784239654,31.3373854285937,0 121.21784395196,31.337388159969,0 121.217845348808,31.3373909757385,0 121.217881948808,31.3374703757385,0 121.21788295285,31.3374726923429,0 121.217883849517,31.3374750525857,0 121.217884636918,31.337477451493,0 121.217907936918,31.337554351493,0 121.217908695167,31.3375571107556,0 121.217933495167,31.3376575107556,0 121.217934131838,31.3376604257359,0 121.217934609495,31.3376633709529,0 121.217934926733,31.337666337739,0 121.217944426733,31.337785737739,0 121.21794457102,31.337788314791,0 121.217944594243,31.3377908957747,0 121.217944496351,31.3377934750058,0 121.21794427756,31.3377960468041,0 121.21793707756,31.3378622468041,0 121.217936633085,31.337865452729,0 121.217936000803,31.3378686269582,0 121.217915900803,31.3379560269582,0 121.217915114339,31.3379590507515,0 121.21791415744,31.3379620250071,0 121.217913033194,31.3379649401268,0 121.217879833194,31.3380442401268,0 121.217878656515,31.3380468569037,0 121.217877344974,31.3380494087576,0 121.217849044974,31.3381011087576,0 121.21784747588,31.3381037923056,0 121.217845757678,31.338106382917,0 121.217843895856,31.3381088723161,0 121.217794495856,31.3381711723161,0 121.217792598114,31.3381734378298,0 121.217790581421,31.3381755981378,0 121.217638381421,31.3383300981378,0 121.217637900187,31.3383305806284,0 121.216631200187,31.3393274806284,0 121.216630553642,31.3393281104558,0 121.215957456706,31.3399731242092,0 121.21586013797,31.340070247917,0 121.2158189497,31.3401212516544,0 121.215785275471,31.3401735832272,0 121.215738213162,31.3402695179346,0 121.215699698289,31.3403662461271,0 121.215699599305,31.3403664929824,0 121.215029692592,31.3420255424541,0 121.215018025817,31.3420714903699,0 121.2150203697,31.3421210566066,0 121.215042070008,31.3421563507861,0 121.215079901407,31.3421839347191,0 121.215126930154,31.3421987046849,0 121.215188881708,31.3421980051065,0 121.215257558057,31.3421740502445,0 121.215345373192,31.3421334690078,0 121.215430552137,31.3420847953252,0 121.21560582432,31.3419677829063,0 121.215695849213,31.3419021947375,0 121.215786689591,31.3418284354559,0 121.215924601701,31.3416976584166,0 121.216037650699,31.3415711139495,0 121.216109331086,31.3414811507114,0 121.216170495612,31.3413894039223,0 121.216338655968,31.3411320176608,0 121.216339198561,31.3411312030904,0 121.217040298561,31.3400987030905,0 121.217040534488,31.3400983584659,0 121.217085534488,31.3400331584659,0 121.217087055265,31.3400310623608,0 121.217088673024,31.3400290401651,0 121.217146673024,31.3399599401651,0 121.217147552464,31.3399589181254,0 121.217213352464,31.3398843181254,0 121.217215062605,31.3398824665805,0 121.217216855777,31.3398806953295,0 121.217292955777,31.3398088953295,0 121.217294750008,31.3398072755108,0 121.21729661368,31.3398057360937,0 121.217298543193,31.3398042800519,0 121.217392343193,31.3397366800519,0 121.217395893125,31.3397343250417,0 121.217487193125,31.3396787250417,0 121.217489591966,31.3396773456936,0 121.217589591966,31.3396231456936,0 121.217592069948,31.3396218826178,0 121.217686369948,31.3395767826178,0 121.217688776942,31.3395757016058,0 121.217691233012,31.3395747372789,0 121.217693732505,31.3395738918567,0 121.217797032505,31.3395416918567,0 121.217799795174,31.3395409092062,0 121.217884795174,31.3395192092062,0 121.21788737413,31.3395186165127,0 121.21797387413,31.3395009165127,0 121.217977844055,31.339500254481,0 121.218066744055,31.339488754481,0 121.218069368168,31.3394884788465,0 121.218159668168,31.3394811788465,0 121.218163037641,31.339481010261,0 121.218271737641,31.339478910261,0 121.218273170362,31.339478901247,0 121.218362270362,31.339479501247,0 121.218364858711,31.3394795796392,0 121.2183674405,31.3394797797765,0 121.2184553405,31.3394886797765,0 121.218457645176,31.3394889623916,0 121.218459935869,31.3394893420297,0 121.218557535869,31.3395076420297,0 121.218559728681,31.339508099593,0 121.218651028681,31.339529099593,0 121.218654715887,31.3395300835447,0 121.218759515887,31.3395619835447,0 121.218763325236,31.3395632973685,0 121.218856225236,31.3395991973685,0 121.218859056501,31.3396003833067,0 121.218861817194,31.3396017253524,0 121.218980217194,31.3396634253524,0 121.21898338113,31.3396652093733,0 121.21910488113,31.3397391093733,0 121.219106933909,31.3397404210815,0 121.219108926591,31.3397418224031,0 121.219110855264,31.339743310589,0 121.219232455264,31.339841510589,0 121.219234647698,31.339843378041,0 121.219236739373,31.3398453576955,0 121.219350239373,31.3399585576955,0 121.21935255023,31.3399610081025,0 121.219354706762,31.3399635953638,0 121.219414206762,31.3400395953638,0 121.21941646314,31.3400426941522,0 121.21948326314,31.3401414941522,0 121.21948494048,31.3401441337609,0 121.219486465073,31.340146864442,0 121.219673246191,31.3405049613595,0 121.219825163922,31.340774206631,0 121.219864258813,31.3408430517792,0 121.21992997919,31.3409288272288,0 121.219992477695,31.3409945760274,0 121.220074249312,31.3410585590581,0 121.220162073192,31.3411103526282,0 121.220261297837,31.3411547129848,0 121.220363229108,31.3411830690961,0 121.220462262562,31.3412015137223,0 121.220571599643,31.3412082943165,0 121.220685025329,31.3412012586914,0 121.220803020443,31.3411832001443,0 121.220903089947,31.3411509378111,0 121.221011950951,31.3411042965833,0 121.221124780317,31.3410325814121,0 121.221212599573,31.3409552929451,0 121.221291155006,31.3408683408504,0 121.221340625897,31.3407864838911,0 121.221632852873,31.3402619329764,0 121.221633405624,31.3402609640264,0 121.221663305624,31.3402097640264,0 121.22166471385,31.3402074822252,0 121.221666231613,31.3402052717692,0 121.221667855304,31.3402031379121,0 121.221669581065,31.3402010857258,0 121.221712781065,31.3401521857258,0 121.221714678698,31.3401501443733,0 121.221716677308,31.3401482017741,0 121.221718771762,31.3401463629166,0 121.22172095668,31.340144632523,0 121.22176965668,31.340108032523,0 121.221771794035,31.3401065047112,0 121.22177400191,31.3401050807112,0 121.22177627527,31.3401037637724,0 121.221778608926,31.3401025568998,0 121.221780997553,31.3401014628472,0 121.221830597553,31.3400801628472,0 121.221833499348,31.3400790131015,0 121.221836461691,31.3400780298189,0 121.221839475044,31.3400772161659,0 121.221842529701,31.3400765747632,0 121.221940029701,31.3400589747632,0 121.221943166436,31.3400585015034,0 121.221946325239,31.340058209873,0 121.221949495601,31.3400581008424,0 121.221952666976,31.340058174774,0 121.222025466976,31.340061974774,0 121.222028205465,31.3400621863932,0 121.222030929974,31.3400625344637,0 121.222033633709,31.3400630181174,0 121.222036309926,31.3400636361481,0 121.222103909926,31.3400810361481,0 121.222106359973,31.3400817276186,0 121.222108775397,31.3400825317218,0 121.222111151025,31.3400834467351,0 121.222113481767,31.3400844706981,0 121.222160781767,31.3401065706981,0 121.222164480582,31.3401084724691,0 121.222206580582,31.3401321724691,0 121.222209007958,31.3401336223491,0 121.222211357616,31.3401351950578,0 121.222213623347,31.3401368864388,0 121.222257823347,31.3401716864388,0 121.22226012266,31.3401736003105,0 121.22226231451,31.3401756363711,0 121.22226439241,31.3401777885969,0 121.22264819241,31.3405975885969,0 121.222650522921,31.3406003107161,0 121.222677522921,31.3406340107161,0 121.222679785484,31.3406370428319,0 121.222711985484,31.3406834428319,0 121.222713459614,31.3406856816134,0 121.222714822914,31.340687989559,0 121.222716072146,31.3406903611867,0 121.222717204344,31.3406927908633,0 121.222736504344,31.3407369908633,0 121.222737645993,31.3407398163968,0 121.222738629391,31.3407427008256,0 121.22273945152,31.3407456352941,0 121.222740109855,31.3407486107935,0 121.222740602375,31.3407516181885,0 121.222746602375,31.3407959181885,0 121.222746980103,31.3407996703635,0 121.222749480103,31.3408374703635,0 121.222749597323,31.3408405573115,0 121.222749541041,31.3408436459715,0 121.222749311437,31.3408467265997,0 121.222748909235,31.3408497894776,0 121.222741309235,31.3408972894776,0 121.222740822331,31.3408999206313,0 121.222740208032,31.3409025249895,0 121.222739467792,31.3409050963879,0 121.222738603363,31.34090762874,0 121.222720903363,31.34095562874,0 121.222719379423,31.3409593387649,0 121.222694179423,31.3410148387649,0 121.222692966878,31.3410173394176,0 121.222691629566,31.3410197756283,0 121.222690170899,31.3410221411766,0 121.222688594602,31.3410244300229,0 121.222569794602,31.3411879300229,0 121.22218521618,31.3417169252406,0 121.221762643364,31.3423159032187,0 121.221513254566,31.3426694873365,0 121.221498963904,31.3426897740801,0 121.221498791456,31.3426900174788,0 121.221051291456,31.3433180174788,0 121.220777092638,31.3437028158203,0 121.22025649383,31.3444335141477,0 121.220254845581,31.3444357095126,0 121.220253089841,31.3444378198986,0 121.220251230984,31.344439840048,0 121.220249273642,31.3444417649277,0 121.220202773642,31.3444852649277,0 121.220200582113,31.3444872082666,0 121.220198290234,31.3444890321799,0 121.220195904506,31.3444907314947,0 121.220193431696,31.3444923013915,0 121.220190878816,31.3444937374179,0 121.220146178816,31.3445173374179,0 121.220143583676,31.3445186213772,0 121.220140924564,31.3445197669874,0 121.220138208848,31.3445207710736,0 121.220135444055,31.3445216308532,0 121.220132637847,31.3445223439435,0 121.220129798001,31.3445229083682,0 121.220126932387,31.3445233225631,0 121.220075132387,31.3445294225631,0 121.220072437718,31.3445296728482,0 121.220069733999,31.3445297902796,0 121.220067027777,31.3445297745729,0 121.220064325604,31.3445296257664,0 121.220026725604,31.3445266257664,0 121.220024245093,31.3445263711486,0 121.220021778673,31.3445260043621,0 121.220019331412,31.3445255261607,0 121.219977331412,31.3445163261607,0 121.219974245209,31.344515555974,0 121.219971208691,31.3445146086632,0 121.219968232014,31.344513487397,0 121.219965325136,31.3445121959256,0 121.219914425136,31.3444877959256,0 121.219911663487,31.3444863748223,0 121.21990898646,31.3444848000972,0 121.219906402589,31.344483076772,0 121.219903920115,31.344481210342,0 121.219836920115,31.344427810342,0 121.219835031097,31.3444262344114,0 121.219833214439,31.3444245755853,0 121.219831473778,31.3444228371824,0 121.219775173778,31.3443640371824,0 121.219773289794,31.3443619665228,0 121.219735689794,31.3443184665228,0 121.219733699807,31.3443160264549,0 121.219731852713,31.344313476509,0 121.219693356815,31.344256997125,0 121.219654389431,31.3442164881748,0 121.219624190476,31.3441944367385,0 121.219612651415,31.3441860308001,0 121.219563835265,31.3441611821459,0 121.219516020483,31.3441431090359,0 121.21947147595,31.3441335519065,0 121.219420658223,31.3441322599304,0 121.219362415633,31.3441372596708,0 121.219308287103,31.3441523365672,0 121.219214285118,31.3442062334585,0 121.219147982604,31.344259019757,0 121.219129350888,31.3442787011476,0 121.219097335824,31.3443125539345,0 121.219038867403,31.3443818848241,0 121.219000904668,31.3444418786909,0 121.218967710708,31.3445111609061,0 121.218932357821,31.3446390469461,0 121.218930224949,31.3446602936243,0 121.218919277315,31.344768994941,0 121.218921080343,31.3448334531811,0 121.218929843492,31.3448893747199,0 121.21894557366,31.3449515551503,0 121.218967506836,31.345012860174,0 121.219012936134,31.3450933981176,0 121.21907909109,31.345184221024,0 121.219146428879,31.3452496296266,0 121.219246108689,31.345323786208,0 121.2193812989,31.3453844857681,0 121.219543118625,31.3454319898456,0 121.219705380684,31.3454546912081,0 121.219769311103,31.3454562156294,0 121.219855655876,31.345458354778,0 121.220019615765,31.3454474626749,0 121.220185192949,31.3454141152559,0 121.220344088618,31.3453687028356,0 121.220468147128,31.3453050099609,0 121.220608009116,31.3452209768603,0 121.220716716453,31.3451324322136,0 121.220797332123,31.3450489374131,0 121.220900332482,31.3449291627088,0 121.222298126953,31.3431145382724,0 121.222970725721,31.3422412398717,0 121.223516328101,31.3415329367812,0 121.223516403094,31.3415328396495,0 121.223753203094,31.3412268396495,0 121.224533598863,31.3402184451168,0 121.224641754394,31.3400786026145,0 121.225256615214,31.3392797535178,0 121.22599581513,31.3383193536277,0 121.225995912281,31.3383192277818,0 121.227735579195,31.3360724454124,0 121.22781156359,31.3359662963592,0 121.227829062935,31.335928494376,0 121.227835348313,31.3359114592395,0 121.227835115486,31.335902353144,0 121.22783491191,31.3359020401837,0 121.22782476906,31.3358938023358,0 121.227811039733,31.3358854015235,0 121.227791606751,31.3358842642243,0 121.227750959016,31.3358909722985,0 121.22769189369,31.3359104260049,0 121.227557236199,31.3359789223007,0 121.227201661142,31.3361595982601,0 121.227141075383,31.3361950232163,0 121.227079579999,31.3362497265733,0 121.227009968901,31.3363208760384,0 121.225627007674,31.3379666828174,0 121.225626759404,31.3379669761863,0 121.225408659404,31.3382228761863,0 121.225407035661,31.3382246978874,0 121.225405332709,31.3382264457686,0 121.225403553899,31.338228116389,0 121.225357353899,31.338269616389,0 121.225355383457,31.3382713041205,0 121.225353335617,31.3382728970515,0 121.225351214935,31.3382743916374,0 121.225321514935,31.3382942916374,0 121.225318820047,31.3382959864007,0 121.225316031618,31.3382975224056,0 121.225313158991,31.338298894506,0 121.225310211789,31.3383000981048,0 121.225283011789,31.3383102981048,0 121.225280089324,31.3383113013337,0 121.225277115133,31.3383121388621,0 121.225274098602,31.3383128080465,0 121.225271049251,31.3383133067749,0 121.225267976705,31.3383136334733,0 121.225232076705,31.3383164334733,0 121.225229065785,31.3383165854325,0 121.225226051062,31.3383165721858,0 121.225223041593,31.3383163937731,0 121.225185041593,31.3383130937731,0 121.225181192872,31.3383126223466,0 121.225114292872,31.3383020223466,0 121.225111369848,31.3383014778356,0 121.223473249399,31.3379502592126,0 121.222653830061,31.3377866352242,0 121.222653733607,31.3377866158743,0</coordinates></LineString>
  </Placemark>
</Folder>
</Document></kml>
