<?xml version="1.0" encoding="utf-8" ?>
<kml xmlns="http://www.opengis.net/kml/2.2">
<Document id="root_doc">
<Schema name="china_bound" id="china_bound">
	<SimpleField name="bridge" type="string"></SimpleField>
	<SimpleField name="highway" type="string"></SimpleField>
	<SimpleField name="layer" type="string"></SimpleField>
	<SimpleField name="sport" type="string"></SimpleField>
	<SimpleField name="surface" type="string"></SimpleField>
</Schema>
<Folder><name>china_bound</name>
  <Placemark id="china_bound.1">
	<Style><LineStyle><color>ff0000ff</color></LineStyle><PolyStyle><fill>0</fill></PolyStyle></Style>
	<ExtendedData><SchemaData schemaUrl="#china_bound">
		<SimpleData name="highway">raceway</SimpleData>
		<SimpleData name="sport">motor</SimpleData>
		<SimpleData name="surface">asphalt</SimpleData>
	</SchemaData></ExtendedData>
      <LineString><coordinates>121.222338566393,31.3376108841257,0 121.220620540704,31.3372654789546,0 121.218984040241,31.3369364788615,0 121.218983936405,31.3369364580905,0 121.218651841196,31.336870359044,0 121.217418546012,31.3366246600036,0 121.217417528917,31.3366244673095,0 121.217309028917,31.3366049673095,0 121.2173062499,31.3366045408679,0 121.217303452721,31.3366042569976,0 121.217181952721,31.3365950569976,0 121.217178913119,31.3365949112651,0 121.21717587011,31.3365949338693,0 121.21709897011,31.3365976338693,0 121.217096535006,31.3365977734843,0 121.217094108486,31.3365980209258,0 121.217005708486,31.3366090209258,0 121.217003942984,31.3366092697371,0 121.216923942984,31.3366218697371,0 121.216920298922,31.3366225704028,0 121.216842498922,31.3366402704028,0 121.216839634956,31.3366410034552,0 121.216761334956,31.3366633034552,0 121.216757975516,31.3366643778195,0 121.216754691845,31.3366656652988,0 121.216668791845,31.3367025652988,0 121.216667052613,31.3367033484169,0 121.216574752613,31.3367468484169,0 121.216571838941,31.3367483289467,0 121.216569018353,31.3367499799243,0 121.216476518353,31.3368078799243,0 121.216474996756,31.336808867656,0 121.216410196756,31.336852467656,0 121.216407362092,31.3368545086167,0 121.216404662697,31.3368567253961,0 121.216329762697,31.3369223253961,0 121.216327988798,31.3369239489177,0 121.216326287561,31.3369256484269,0 121.216324662238,31.3369274206748,0 121.216257962238,31.3370034206748,0 121.216256321154,31.3370053806348,0 121.216254772913,31.3370074147315,0 121.21625332086,31.3370095185708,0 121.21619142086,31.3371038185708,0 121.216190147528,31.3371058538836,0 121.216188964231,31.3371079428263,0 121.216187873225,31.3371100814188,0 121.216142573225,31.3372038814188,0 121.216141337452,31.3372066301227,0 121.216140254093,31.3372094423888,0 121.2161393264,31.3372123097732,0 121.2161103264,31.3373111097732,0 121.216109450463,31.3373144868989,0 121.216108790406,31.3373179127663,0 121.216093690406,31.3374123127663,0 121.216093353548,31.3374147738205,0 121.216093128156,31.3374172475746,0 121.216093014688,31.3374197289827,0 121.216090714688,31.3375192289827,0 121.216090712178,31.337521657323,0 121.216090816859,31.3375240834071,0 121.216091028527,31.3375265025059,0 121.216102128527,31.3376276025059,0 121.216102605622,31.3376309792009,0 121.216103291069,31.3376343198374,0 121.216124091069,31.3377218198374,0 121.216124862423,31.3377247124285,0 121.21612579002,31.3377275587651,0 121.216126871114,31.3377303504146,0 121.216159671114,31.3378086504146,0 121.216160937723,31.3378114516763,0 121.216162358872,31.3378141777904,0 121.216163930123,31.3378168202396,0 121.216209830123,31.3378893202396,0 121.216211393635,31.3378916556041,0 121.216213074401,31.3378939080524,0 121.216214868033,31.3378960717031,0 121.216276068033,31.3379661717031,0 121.216277804042,31.3379680687652,0 121.216279626824,31.3379698826099,0 121.216281532397,31.3379716092723,0 121.216283516594,31.337973244978,0 121.216342816594,31.338019844978,0 121.216344849795,31.338021368118,0 121.216346951162,31.3380227957449,0 121.216349116211,31.3380241248129,0 121.216430316211,31.3380714248129,0 121.216432731808,31.3380727520057,0 121.216435210859,31.3380739565186,0 121.21643774714,31.3380750353269,0 121.21651904714,31.3381072353269,0 121.2165213926,31.338108103125,0 121.216523775083,31.3381088634055,0 121.216526189665,31.3381095145965,0 121.216619489665,31.3381324145965,0 121.216622832552,31.3381331257514,0 121.216626213155,31.3381336279069,0 121.216706613155,31.3381430279069,0 121.216709801163,31.3381433068979,0 121.216713,31.3381434,0 121.2168108,31.3381434,0 121.21681382334,31.3381433168409,0 121.216816837537,31.3381430676152,0 121.216819833477,31.3381426530764,0 121.216923733477,31.3381253530764,0 121.216926878433,31.338124734744,0 121.216929982031,31.3381239342647,0 121.21693303373,31.3381229543569,0 121.21700883373,31.3380961543569,0 121.2170111955,31.3380952577892,0 121.217013513608,31.3380942537168,0 121.217015783166,31.338093144258,0 121.217078183166,31.338060844258,0 121.217080693883,31.3380594605105,0 121.217083129089,31.3380579478201,0 121.217085482167,31.3380563102965,0 121.217087746725,31.3380545523886,0 121.217137446725,31.3380138523886,0 121.217139598756,31.3380119951111,0 121.217141651952,31.3380100291242,0 121.217143600828,31.3380079596798,0 121.217145440178,31.3380057923059,0 121.217183040178,31.3379590923059,0 121.217184788813,31.3379567999655,0 121.21718641492,31.3379544191412,0 121.217187914031,31.3379519563754,0 121.217189282026,31.3379494184357,0 121.217190515146,31.3379468122961,0 121.217208615146,31.3379058122961,0 121.217209737565,31.3379030724644,0 121.217210710918,31.3379002762012,0 121.217225410918,31.3378540762012,0 121.217226139057,31.3378515859298,0 121.217226748944,31.3378490640901,0 121.217227239222,31.3378465162938,0 121.217227608799,31.3378439482107,0 121.217227856853,31.3378413655557,0 121.217231456853,31.3377915655557,0 121.217231585649,31.3377888563609,0 121.217231580727,31.3377861441109,0 121.217231442102,31.3377834354014,0 121.217231170109,31.3377807368195,0 121.21723076541,31.3377780549278,0 121.21722246541,31.3377309549278,0 121.217221890078,31.3377281264981,0 121.217221167156,31.3377253321457,0 121.217220298635,31.3377225795664,0 121.217201998635,31.3376694795664,0 121.217201120954,31.3376671108889,0 121.217200135439,31.3376647850095,0 121.217146215709,31.3375452497257,0 121.217128895971,31.3375020476844,0 121.21711481667,31.337466470049,0 121.217109834444,31.3374263857717,0 121.217115030717,31.3373734487396,0 121.217135451869,31.3373123480014,0 121.217168529189,31.3372670925701,0 121.217216262285,31.3372272194697,0 121.21727418026,31.3371998431741,0 121.21734341158,31.3371781182419,0 121.21738366301,31.3371718868488,0 121.217427006921,31.3371707265912,0 121.217460818345,31.3371765785685,0 121.217503829062,31.3371880185324,0 121.217540736491,31.3372026629939,0 121.217578590528,31.3372244072416,0 121.217644363067,31.3372906266045,0 121.217703948365,31.3373694481021,0 121.217746768624,31.3374398822972,0 121.217780463115,31.3375129790892,0 121.217802248056,31.3375848787414,0 121.217825629069,31.3376795341347,0 121.21783436259,31.3377893007066,0 121.217828072848,31.3378471313957,0 121.217809752279,31.3379267939688,0 121.217779475963,31.3379991105905,0 121.217754799651,31.3380441906373,0 121.217710142326,31.3381005094913,0 121.217560257701,31.3382526591263,0 121.216554120501,31.3392490018052,0 121.215880946358,31.3398940895442,0 121.215880148154,31.3398948701387,0 121.215780348154,31.3399944701387,0 121.215778320681,31.3399966048745,0 121.215776410341,31.339998845042,0 121.215731510341,31.340054445042,0 121.215729714846,31.340056794969,0 121.215728048256,31.3400592380081,0 121.215691048256,31.3401167380081,0 121.215689404791,31.3401194620827,0 121.215687921582,31.3401222766254,0 121.215638521582,31.3402229766254,0 121.215636801711,31.3402268538729,0 121.215597550905,31.3403254303254,0 121.214926300695,31.3419878070176,0 121.214925425277,31.341990123974,0 121.21492465506,31.3419924779939,0 121.214923991606,31.3419948643033,0 121.214909391606,31.3420523643033,0 121.214908789134,31.3420550087843,0 121.214908317765,31.3420576797508,0 121.214907978643,31.3420603707074,0 121.214907772593,31.3420630751102,0 121.214907700117,31.3420657863827,0 121.214907761391,31.3420684979314,0 121.214911161391,31.3421403979314,0 121.214911362037,31.3421431624095,0 121.214911701702,31.3421459132686,0 121.214912179521,31.3421486435225,0 121.214912794283,31.3421513462371,0 121.214913544425,31.3421540145482,0 121.214914428043,31.3421566416792,0 121.214915442892,31.342159220958,0 121.214916586395,31.342161745834,0 121.214917855648,31.3421642098946,0 121.214919247428,31.342166606882,0 121.214954047428,31.342223206882,0 121.214955722131,31.3422257681393,0 121.214957536694,31.3422282322883,0 121.2149594855,31.3422305917008,0 121.214961562515,31.3422328390724,0 121.21496376131,31.342234967446,0 121.214966075076,31.3422369702325,0 121.214968496653,31.3422388412319,0 121.215022396653,31.3422781412319,0 121.215024855623,31.3422798338736,0 121.215027402809,31.3422813906062,0 121.215030030706,31.3422828068435,0 121.215032731573,31.3422840784133,0 121.215035497453,31.3422852015696,0 121.215038320197,31.3422861730036,0 121.215102320197,31.3423062730036,0 121.215105101794,31.3423070668672,0 121.215107921281,31.3423077133886,0 121.21511077086,31.3423082107793,0 121.215113642648,31.3423085576636,0 121.215116528702,31.3423087530819,0 121.215119421039,31.3423087964936,0 121.215199121039,31.3423078964936,0 121.215202091435,31.3423077826165,0 121.21520505134,31.3423075084238,0 121.215207992107,31.3423070747164,0 121.215210905148,31.3423064827612,0 121.215213781953,31.3423057342874,0 121.215216614118,31.3423048314812,0 121.215296314118,31.3422770314812,0 121.215298817532,31.3422760893849,0 121.215301272183,31.3422750266902,0 121.215393672183,31.3422323266902,0 121.215395803349,31.3422312854907,0 121.215397887642,31.3422301533728,0 121.215486787642,31.3421793533728,0 121.21549003819,31.3421773429664,0 121.21566783819,31.3420586429664,0 121.215669686741,31.3420573533355,0 121.215761786741,31.3419902533355,0 121.215764068854,31.3419884974305,0 121.215857668854,31.3419124974305,0 121.21586084478,31.3419097095553,0 121.21600194478,31.3417759095553,0 121.216003564442,31.3417743087175,0 121.216005116446,31.3417726422041,0 121.216120716446,31.3416432422041,0 121.216122715389,31.3416408735516,0 121.216196815389,31.3415478735516,0 121.216198228978,31.3415460201469,0 121.216199562766,31.3415441085108,0 121.216262162766,31.3414502085108,0 121.216262444032,31.3414497823392,0 121.21643047636,31.3411925920381,0 121.21713118413,31.34016066967,0 121.217174593279,31.340097774635,0 121.21723049352,31.3400311762448,0 121.217294178955,31.3399589736088,0 121.217365802879,31.3398913967663,0 121.217454927477,31.3398271662453,0 121.217543224809,31.3397733948143,0 121.217640785017,31.3397205171819,0 121.217730252976,31.339677728158,0 121.217828396379,31.3396471355385,0 121.217910722479,31.3396261181695,0 121.217993953027,31.3396090871788,0 121.218079547195,31.3395980148173,0 121.218166849682,31.3395909571412,0 121.218273146057,31.3395889035774,0 121.218358938006,31.3395894813009,0 121.218441947826,31.3395978861633,0 121.218536163065,31.3396155515205,0 121.218624510638,31.3396358724299,0 121.218725555358,31.3396666293629,0 121.218813708157,31.3397006948688,0 121.218927771367,31.339760134903,0 121.219044592024,31.339831188784,0 121.219161101855,31.3399252781372,0 121.219270172463,31.3400340604532,0 121.219326411023,31.3401058945805,0 121.219390383023,31.3402005118491,0 121.219576134927,31.340556635558,0 121.219576998909,31.3405582274946,0 121.219729398909,31.3408283274946,0 121.219729473424,31.3408284591358,0 121.219770473424,31.3409006591358,0 121.219771766307,31.3409028191982,0 121.219773156678,31.3409049178366,0 121.219774641625,31.3409069506542,0 121.219844441625,31.3409980506542,0 121.219846279923,31.3410003222777,0 121.219848236279,31.3410024930568,0 121.219915536279,31.3410732930568,0 121.21991743726,31.341075197366,0 121.219919429101,31.341077006423,0 121.219921507036,31.3410787158981,0 121.220009307036,31.3411474158981,0 121.220011231847,31.3411488553038,0 121.220013217707,31.3411502092412,0 121.220015260824,31.3411514751247,0 121.220108860824,31.3412066751247,0 121.22011156673,31.3412081700532,0 121.220114352355,31.3412095105888,0 121.220220152355,31.3412568105888,0 121.220222674281,31.3412578636881,0 121.220225245406,31.3412587902105,0 121.220227859382,31.3412595878683,0 121.220336059382,31.3412896878683,0 121.220338382702,31.3412902799468,0 121.220340729617,31.341290770208,0 121.220445429617,31.341310270208,0 121.220448750057,31.3413107842309,0 121.220452095687,31.3413110945412,0 121.220568195687,31.3413182945412,0 121.220571600356,31.3413184,0 121.220575005023,31.3413182944971,0 121.220694305023,31.3413108944971,0 121.220696768735,31.3413106859941,0 121.220699220587,31.3413103669738,0 121.220824020587,31.3412912669738,0 121.220826907157,31.3412907460736,0 121.220829761852,31.3412900720258,0 121.220832576552,31.3412892467476,0 121.220939276552,31.3412548467476,0 121.22094168922,31.3412540065624,0 121.220944060269,31.3412530552443,0 121.221059360269,31.3412036552443,0 121.221062047549,31.3412024173077,0 121.221064664371,31.3412010366531,0 121.221067203161,31.3411995172761,0 121.221187403161,31.3411231172761,0 121.221189768607,31.3411215262413,0 121.221192048437,31.3411198147798,0 121.221194236527,31.3411179874895,0 121.221287636527,31.3410357874895,0 121.221289937151,31.3410336429503,0 121.221292111429,31.3410313704114,0 121.221376311429,31.3409381704114,0 121.2213780256,31.340936179411,0 121.221379642736,31.3409341088225,0 121.221381159147,31.3409319633707,0 121.221382571372,31.3409297479509,0 121.221435271372,31.3408425479509,0 121.221436247127,31.3408408670236,0 121.221728675665,31.3403159543012,0 121.221755581129,31.3402698820686,0 121.221791515245,31.340229206646,0 121.221830467075,31.3401999327863,0 121.221868240905,31.3401837113634,0 121.221953298015,31.3401683574645,0 121.222014228295,31.3401715378912,0 121.22207154471,31.340186290933,0 121.222112332847,31.3402053483923,0 121.222148915904,31.3402259426546,0 121.222186242601,31.3402553310947,0 121.222565797972,31.3406704883242,0 121.222590493624,31.3407013121574,0 121.222618547999,31.3407417383368,0 121.222632626884,31.3407739811718,0 121.222637344405,31.3408088122028,0 121.222639310389,31.3408385378758,0 121.222633539038,31.3408746088167,0 121.222618390925,31.3409156884461,0 121.222596326637,31.3409642824129,0 121.222480809553,31.341123264259,0 121.222096013701,31.341652558553,0 121.222095558456,31.341653194202,0 121.221672758456,31.342252494202,0 121.221423354794,31.3426060993936,0 121.22140912199,31.3426263039867,0 121.220961708544,31.3432541825212,0 121.220687508509,31.3436389825704,0 121.220170103022,31.3443651988378,0 121.220133006338,31.3443999021878,0 121.220103886619,31.3444152763571,0 121.220067660973,31.3444195423115,0 121.220039208943,31.3444172722028,0 121.220007111698,31.3444102413776,0 121.2199676009,31.3443913010348,0 121.21990837015,31.3443440932427,0 121.219855594571,31.3442889741661,0 121.219820971757,31.3442489185161,0 121.219781647287,31.344191223491,0 121.219779845172,31.3441887321205,0 121.219777906646,31.3441863453529,0 121.219775837766,31.3441840706478,0 121.219730337766,31.3441367706478,0 121.219728059767,31.3441345360577,0 121.219725656008,31.3441324373396,0 121.219723134581,31.3441304815582,0 121.219689034581,31.3441055815582,0 121.219688984444,31.3441055449911,0 121.219673884444,31.3440945449911,0 121.219671487928,31.3440928944238,0 121.21966900747,31.3440913729164,0 121.219666450012,31.3440899847279,0 121.219611050012,31.3440617847279,0 121.219608331398,31.3440604932913,0 121.21960554621,31.3440593525032,0 121.21955104621,31.3440387525032,0 121.21954845001,31.3440378447027,0 121.219545811676,31.3440370678226,0 121.219543137803,31.3440364238054,0 121.219489537803,31.3440249238054,0 121.21948702659,31.3440244457774,0 121.219484495878,31.3440240849511,0 121.219481951133,31.3440238421059,0 121.219479397853,31.3440237177665,0 121.219420397853,31.3440222177665,0 121.219417344333,31.344022224926,0 121.219414295915,31.3440224015367,0 121.219347895915,31.3440281015367,0 121.21934535352,31.344028379467,0 121.219342826794,31.3440287752881,0 121.2193403212,31.3440292881443,0 121.219337842158,31.3440299169264,0 121.219272142158,31.3440482169264,0 121.219269523541,31.3440490170654,0 121.219266947991,31.3440499465384,0 121.219264421891,31.3440510030416,0 121.219261951503,31.3440521839565,0 121.21925954295,31.3440534863564,0 121.219155942949,31.3441128863564,0 121.219153564921,31.3441143309492,0 121.219151262993,31.3441158939582,0 121.219149043057,31.3441175713832,0 121.219076443057,31.3441753713832,0 121.21907446751,31.3441770211809,0 121.21907257131,31.3441787615965,0 121.219070758611,31.3441805888185,0 121.219049458611,31.3442030888185,0 121.219016339616,31.3442381088939,0 121.219014255147,31.3442404425559,0 121.218952355147,31.3443138425559,0 121.218950786647,31.3443157906661,0 121.218949308334,31.3443178080695,0 121.218947923265,31.3443198905943,0 121.218906223265,31.3443857905943,0 121.218904578321,31.3443885672387,0 121.218903099067,31.3443914355843,0 121.218866399067,31.3444680355843,0 121.218865083439,31.3444710032743,0 121.218863945186,31.3444740434129,0 121.218862988275,31.3444771454094,0 121.218825088275,31.3446142454094,0 121.218824344724,31.3446172651236,0 121.21882377304,31.3446203220369,0 121.218823375051,31.3446234063757,0 121.218820775941,31.3446492975101,0 121.218809476831,31.3447614886648,0 121.218809236043,31.344765009165,0 121.218809221504,31.34476853786,0 121.218811221504,31.34484003786,0 121.218811431095,31.344843536571,0 121.218811863109,31.3448470148278,0 121.218821563109,31.3449089148278,0 121.21882201399,31.3449114135316,0 121.218822579711,31.3449138887637,0 121.218839579711,31.3449810887637,0 121.21884028676,31.3449836264452,0 121.21884111451,31.3449861273599,0 121.21886551451,31.3450543273599,0 121.218866646973,31.3450572306059,0 121.21886794205,31.3450600650522,0 121.218869395583,31.3450628215991,0 121.218918695583,31.3451502215991,0 121.21892034171,31.3451529518162,0 121.218922143261,31.3451555820689,0 121.218992943261,31.3452527820689,0 121.218994853269,31.3452552536327,0 121.218996900507,31.3452576127805,0 121.21899907837,31.3452598519031,0 121.21907237837,31.3453310519031,0 121.219074140507,31.345332690187,0 121.21907597261,31.3453342498344,0 121.219077871173,31.3453357278607,0 121.219185271173,31.3454156278607,0 121.219187719105,31.3454173475866,0 121.219190256922,31.3454189316668,0 121.219192877117,31.3454203754147,0 121.219195571936,31.3454216745588,0 121.219339671936,31.3454863745588,0 121.219341977016,31.3454873471498,0 121.219344323942,31.3454882139072,0 121.219346707856,31.3454889730374,0 121.219516007856,31.3455386730374,0 121.219518603032,31.345539366515,0 121.219521228973,31.3455399324533,0 121.219523879414,31.3455403695022,0 121.219693279414,31.3455640695022,0 121.219696426742,31.3455644177888,0 121.219699588897,31.3455645843706,0 121.219766663348,31.3455661837614,0 121.219855437805,31.3455683831286,0 121.219857942937,31.3455683881232,0 121.219860445697,31.3455682790387,0 121.220030545697,31.3455569790387,0 121.220032963508,31.3455567647407,0 121.220035369508,31.3455564439732,0 121.220037759013,31.3455560173611,0 121.220209059013,31.3455215173611,0 121.220211196741,31.3455210423496,0 121.220213313864,31.3455204826162,0 121.220379513864,31.3454729826162,0 121.220382085139,31.3454721791309,0 121.220384613986,31.3454712507065,0 121.220387094339,31.3454701995706,0 121.220389520248,31.3454690282447,0 121.220520020248,31.3454020282447,0 121.220523225989,31.3454002448653,0 121.220668025989,31.3453132448653,0 121.220670232661,31.3453118466566,0 121.220672370452,31.3453103452436,0 121.220674434538,31.3453087440135,0 121.220788734538,31.3452156440135,0 121.220791217119,31.3452134955068,0 121.22079356708,31.3452112026983,0 121.22087756708,31.3451242026983,0 121.220879701199,31.3451218609818,0 121.220984701199,31.3449997609818,0 121.220986571919,31.3449974631918,0 121.222385271919,31.3431816631918,0 121.223057873061,31.3423083617094,0 121.223603434457,31.3416001118258,0 121.223840196285,31.3412941611531,0 121.224620596,31.3402857615213,0 121.224728806309,31.340145848196,0 121.224728884786,31.3401457464822,0 121.225343784786,31.3393468464822,0 121.226082936385,31.3383865093667,0 121.227823187719,31.3361389722182,0 121.227824422708,31.3361373137372,0 121.227904022708,31.3360261137372,0 121.227905475339,31.3360239803964,0 121.227906826288,31.3360217812568,0 121.22790807258,31.336019521161,0 121.227909211472,31.3360172050858,0 121.227929811472,31.3359727050858,0 121.227930696322,31.3359706887089,0 121.227931499752,31.3359686385292,0 121.227942199752,31.3359396385292,0 121.227943154511,31.3359368179949,0 121.227943955221,31.335933949922,0 121.227944599534,31.3359310427173,0 121.227945085562,31.3359281049026,0 121.22794541188,31.3359251450893,0 121.227945577531,31.3359221719532,0 121.227945582031,31.3359191942094,0 121.227944682031,31.3358839942094,0 121.227944542622,31.3358812422576,0 121.227944265559,31.3358785007416,0 121.227943851538,31.3358757765426,0 121.227943301598,31.3358730764982,0 121.227942617119,31.3358704073854,0 121.22794179982,31.3358677759038,0 121.227940851751,31.3358651886582,0 121.227939775293,31.3358626521426,0 121.227938573147,31.3358601727235,0 121.227937248331,31.3358577566242,0 121.22793580417,31.3358554099091,0 121.22792240417,31.3358348099091,0 121.227920783314,31.3358324544474,0 121.227919042238,31.3358301864028,0 121.227917185646,31.335828011905,0 121.227915218557,31.3358259368308,0 121.227913146286,31.3358239667884,0 121.227910974435,31.3358221071018,0 121.227891274435,31.3358061071018,0 121.227889348112,31.3358046122059,0 121.227887357425,31.3358032041582,0 121.227885306287,31.3358018857259,0 121.227856706287,31.3357843857259,0 121.227854107255,31.3357828912073,0 121.227851430649,31.3357815405316,0 121.22784868442,31.3357803377122,0 121.227845876729,31.3357792863232,0 121.227843015918,31.3357783894887,0 121.227840110489,31.3357776498737,0 121.227837169075,31.3357770696757,0 121.227834200415,31.3357766506189,0 121.227831213331,31.3357763939484,0 121.227791913331,31.3357740939484,0 121.227788862486,31.33577400024,0 121.22778581114,31.3357740759207,0 121.227782768691,31.3357743207573,0 121.22777974451,31.3357747339959,0 121.22772884451,31.3357831339959,0 121.227726060873,31.3357836673944,0 121.227723308411,31.3357843434844,0 121.227720594432,31.3357851604706,0 121.227653494432,31.3358072604706,0 121.227650864166,31.3358082014652,0 121.227648285071,31.3358092747978,0 121.227645763801,31.3358104776993,0 121.227507374462,31.3358808722761,0 121.227150385122,31.3360622668599,0 121.227147538423,31.336063820585,0 121.227080838423,31.336102820585,0 121.227078524151,31.3361042517283,0 121.227076283494,31.3361057955798,0 121.227074121934,31.3361074483609,0 121.227072044764,31.3361092060261,0 121.227005044764,31.3361688060261,0 121.227002286438,31.3361714364609,0 121.226929886438,31.3362454364609,0 121.226927092326,31.3362485171826,0 121.225542915947,31.3378957700654,0 121.225327318698,31.338148733551,0 121.225286746343,31.3381851784153,0 121.225265598992,31.3381993478522,0 121.225251669945,31.3382045712448,0 121.225228042487,31.3382064140549,0 121.225196491081,31.3382036740645,0 121.225132976002,31.3381936103897,0 121.223495930152,31.3378426221644,0 121.223495169939,31.3378424647758,0 121.222675418175,31.3376787744077,0</coordinates></LineString>
  </Placemark>
</Folder>
</Document></kml>
