<?xml version="1.0" encoding="utf-8" ?>
<kml xmlns="http://www.opengis.net/kml/2.2">
<Document id="root_doc">
<Schema name="brazil_gp_boundary" id="brazil_gp_boundary">
	<SimpleField name="highway" type="string"></SimpleField>
	<SimpleField name="name_en" type="string"></SimpleField>
	<SimpleField name="name_pt" type="string"></SimpleField>
	<SimpleField name="oneway" type="string"></SimpleField>
	<SimpleField name="raceway_co" type="string"></SimpleField>
	<SimpleField name="sport" type="string"></SimpleField>
	<SimpleField name="surface" type="string"></SimpleField>
</Schema>
<Folder><name>brazil_gp_boundary</name>
  <Placemark id="brazil_gp_boundary.1">
	<name>S do Senna</name>
	<Style><LineStyle><color>ff0000ff</color></LineStyle><PolyStyle><fill>0</fill></PolyStyle></Style>
	<ExtendedData><SchemaData schemaUrl="#brazil_gp_boundary">
		<SimpleData name="highway">raceway</SimpleData>
		<SimpleData name="name_en">Senna-S</SimpleData>
		<SimpleData name="name_pt">S do Senna</SimpleData>
		<SimpleData name="oneway">yes</SimpleData>
		<SimpleData name="sport">motor</SimpleData>
		<SimpleData name="surface">asphalt</SimpleData>
	</SchemaData></ExtendedData>
      <LineString><coordinates>-46.7004719534835,-23.7022058317795,0 -46.7004717313415,-23.7022066423254,0 -46.6999962376548,-23.7038910199612,0 -46.6994253439522,-23.7059198975811,0 -46.6994244381769,-23.7059228052841,0 -46.6994233728438,-23.705925658393,0 -46.6993788728438,-23.706035458393,0 -46.699377649334,-23.706038252159,0 -46.699347149334,-23.706102952159,0 -46.6993460428189,-23.7061051685832,0 -46.6993448376207,-23.7061073329328,0 -46.6993059376207,-23.7061736329328,0 -46.6993043248246,-23.7061762152174,0 -46.6992516248246,-23.7062556152174,0 -46.6992500169578,-23.7062579087243,0 -46.6992482944132,-23.7062601174004,0 -46.6991929944132,-23.7063274174004,0 -46.6991910884934,-23.7063296156867,0 -46.6991890689932,-23.7063317101105,0 -46.6991869415635,-23.7063336948109,0 -46.6991401415635,-23.7063750948109,0 -46.6991372119021,-23.7063775113795,0 -46.6990802119021,-23.7064213113795,0 -46.6990773266363,-23.7064233837952,0 -46.6990743136027,-23.7064252656278,0 -46.6990147136027,-23.7064598656278,0 -46.6990124676866,-23.7064611004147,0 -46.6990101666841,-23.7064622292308,0 -46.699007815592,-23.7064632496246,0 -46.6990054195156,-23.7064641593805,0 -46.6989301195156,-23.7064907593805,0 -46.6989272912596,-23.706491673297,0 -46.6989244177626,-23.7064924330932,0 -46.6989215074164,-23.7064930365502,0 -46.6989185687205,-23.7064934819056,0 -46.6989156102571,-23.7064937678589,0 -46.6989126406661,-23.7064938935749,0 -46.6988341406661,-23.7064950935749,0 -46.6988314733684,-23.7064950696591,0 -46.6988288103671,-23.70649491645,0 -46.6988261579257,-23.7064946343082,0 -46.6988235222831,-23.7064942238972,0 -46.6987532222831,-23.7064815238972,0 -46.6987506523749,-23.7064809960461,0 -46.6987481105624,-23.706480346243,0 -46.6987456026292,-23.7064795759666,0 -46.6987431342817,-23.7064786869695,0 -46.6987407111365,-23.7064776812745,0 -46.6986737111365,-23.7064479812745,0 -46.6986709729528,-23.706446675983,0 -46.6986683108963,-23.7064452217165,0 -46.6986657330644,-23.7064436228985,0 -46.6986632472984,-23.7064418843925,0 -46.6986145472984,-23.7064057843925,0 -46.698611371368,-23.7064032429274,0 -46.698553071368,-23.7063529429274,0 -46.6985504111963,-23.706350490614,0 -46.6983364912045,-23.7061398555733,0 -46.6982839829747,-23.7060930859478,0 -46.6982513311166,-23.7060676805856,0 -46.6982147785049,-23.7060492025546,0 -46.6981818866032,-23.7060388198097,0 -46.6981407785593,-23.7060330041368,0 -46.6980962769604,-23.7060364960506,0 -46.6980488249856,-23.7060478022973,0 -46.6980028692072,-23.7060658847053,0 -46.6979431829086,-23.706096480994,0 -46.6977513589745,-23.7062079811379,0 -46.6976730781782,-23.7062540110449,0 -46.6976703397689,-23.7062555182177,0 -46.6976675201606,-23.7062568673893,0 -46.6976646284604,-23.7062580542022,0 -46.6975245284604,-23.7063109542022,0 -46.6975214352672,-23.7063120181782,0 -46.6975182842937,-23.7063128963894,0 -46.6973400842937,-23.7063568963894,0 -46.6973375419013,-23.7063574606332,0 -46.6973349756496,-23.7063579038959,0 -46.697332391292,-23.7063582251835,0 -46.697215791292,-23.7063699251835,0 -46.6972127182939,-23.7063701468093,0 -46.6970741182939,-23.7063762468093,0 -46.6970706068711,-23.7063762891359,0 -46.6969549068711,-23.7063739891359,0 -46.6969511023163,-23.7063737814996,0 -46.6968303023163,-23.7063629814996,0 -46.6968278874898,-23.7063627117161,0 -46.6968254869358,-23.7063623355372,0 -46.6966699869358,-23.7063344355372,0 -46.6966669910631,-23.7063338115214,0 -46.6966640345341,-23.7063330218473,0 -46.6965314345341,-23.7062936218473,0 -46.6965284960183,-23.7062926580126,0 -46.696525616321,-23.7062915305395,0 -46.696374316321,-23.7062273305395,0 -46.6963714269133,-23.7062260046919,0 -46.6963686189364,-23.706224514117,0 -46.6962284189364,-23.7061448141169,0 -46.69622538959,-23.7061429601037,0 -46.69611128959,-23.7060679601037,0 -46.6961093061972,-23.7060665932625,0 -46.6961073845536,-23.7060651408892,0 -46.6961055283452,-23.7060636057694,0 -46.6959999283452,-23.7059723057694,0 -46.6959980916928,-23.7059706441098,0 -46.6959963317119,-23.7059689014473,0 -46.6958873317119,-23.7058560014473,0 -46.6958856916585,-23.7058542262624,0 -46.6958841311755,-23.705852380741,0 -46.6957971311755,-23.705744780741,0 -46.6957956276142,-23.7057428336613,0 -46.6957942126242,-23.7057408212947,0 -46.6957928890364,-23.7057387476672,0 -46.6957158890364,-23.7056119476672,0 -46.6957144095071,-23.705609355194,0 -46.6957130728031,-23.7056066862717,0 -46.6956529728031,-23.7054780862717,0 -46.6956518410826,-23.7054754927219,0 -46.6956508442524,-23.7054728443978,0 -46.6955555442524,-23.7051984443978,0 -46.6955551357721,-23.7051972222363,0 -46.6953246357721,-23.7044797222363,0 -46.6953245518108,-23.7044794586066,0 -46.6951931518108,-23.7040632586066,0 -46.6951930120453,-23.7040628092216,0 -46.6950962120453,-23.7037468092216,0 -46.6950960407603,-23.7037462390679,0 -46.6950411407604,-23.7035598390679,0 -46.6950409119333,-23.7035590399044,0 -46.6950019119333,-23.7034188399044,0 -46.6950016419716,-23.703417832531,0 -46.6949244419716,-23.703118432531,0 -46.6949243299882,-23.7031179906673,0 -46.6948604861921,-23.7028616194802,0 -46.6945216192033,-23.7016946662677,0 -46.6942893483984,-23.7009091032184,0 -46.6940453432232,-23.700118010651,0 -46.694044722594,-23.7001158414917,0 -46.694015122594,-23.7000037414917,0 -46.6940145449664,-23.7000013359942,0 -46.694014076094,-23.6999989069551,0 -46.6940137169256,-23.6999964592888,0 -46.6940044169256,-23.6999213592888,0 -46.6940041043303,-23.6999179860675,0 -46.694004,-23.6999146,0 -46.694004,-23.6998566,0 -46.6940040731966,-23.6998537634057,0 -46.6940042925916,-23.6998509343615,0 -46.6940046576009,-23.6998481203975,0 -46.6940139576009,-23.6997885203975,0 -46.6940144759042,-23.6997856877629,0 -46.6940151417559,-23.6997828861387,0 -46.6940159533307,-23.699780123205,0 -46.6940336533307,-23.699725223205,0 -46.6940344367149,-23.6997229629252,0 -46.6940353176442,-23.6997207388481,0 -46.6940565176442,-23.6996704388481,0 -46.6940578576943,-23.6996675031511,0 -46.6940593676132,-23.6996646511,0 -46.6940610422028,-23.6996618925134,0 -46.6940956422028,-23.6996084925134,0 -46.6940974499533,-23.6996058719604,0 -46.6940994062987,-23.6996033603925,0 -46.6941015046842,-23.6996009662248,0 -46.694103738079,-23.699598697479,0 -46.694140038079,-23.699563897479,0 -46.6941417309588,-23.6995623411483,0 -46.6941434874153,-23.6995608569423,0 -46.6941802874153,-23.6995310569423,0 -46.6941829558255,-23.6995290275786,0 -46.6941857429173,-23.6995271645571,0 -46.6942444429173,-23.6994904645571,0 -46.6942471242314,-23.6994888917675,0 -46.6942498901202,-23.6994874729751,0 -46.6942527317482,-23.6994862127121,0 -46.6942983317482,-23.6994675127121,0 -46.6943007446878,-23.6994665887903,0 -46.6943031983566,-23.6994657792112,0 -46.6943715983566,-23.6994449792112,0 -46.6943740822518,-23.6994442870514,0 -46.6943765958584,-23.6994437120712,0 -46.6945430958584,-23.6994097120712,0 -46.6945454109938,-23.6994092906898,0 -46.6949948109938,-23.6993373906898,0 -46.6949955256317,-23.6993372811664,0 -46.6951702256317,-23.6993116811664,0 -46.6951706479782,-23.6993116209493,0 -46.6952853479781,-23.6992957209493,0 -46.6952876439524,-23.6992954517218,0 -46.6952899492121,-23.6992952792129,0 -46.6953811492121,-23.6992903792129,0 -46.6953833077216,-23.6992903057067,0 -46.6953854674528,-23.699290317002,0 -46.6954819674528,-23.699292717002,0 -46.6954842468336,-23.6992928210368,0 -46.6955775468336,-23.6992990210368,0 -46.6955807472939,-23.6992993278957,0 -46.6955839243555,-23.6992998212399,0 -46.6956864243555,-23.6993188212399,0 -46.6956887830518,-23.699319312128,0 -46.6956911179873,-23.6993199058414,0 -46.6958038179873,-23.6993512058414,0 -46.6958061313231,-23.6993519034032,0 -46.6958084117893,-23.6993527018952,0 -46.6959164117893,-23.6993932018952,0 -46.6959194218046,-23.6993944333407,0 -46.6959784218046,-23.6994206333407,0 -46.6959808734193,-23.6994217952375,0 -46.6959832647553,-23.6994230766159,0 -46.6960545647553,-23.6994635766159,0 -46.6960566284942,-23.6994648092807,0 -46.6961312284942,-23.6995116092807,0 -46.6961336457842,-23.6995132161769,0 -46.6961359749326,-23.6995149483647,0 -46.6962450749326,-23.6996006483647,0 -46.696246910049,-23.6996021550555,0 -46.6962486784254,-23.6996037395475,0 -46.6963497784254,-23.6996983395475,0 -46.6963513447149,-23.6996998646367,0 -46.6963528491601,-23.6997014507655,0 -46.6964763491602,-23.6998369507655,0 -46.6964782235156,-23.6998391180473,0 -46.6966544235156,-23.7000539180473,0 -46.6966550521055,-23.7000546987421,0 -46.6968886521055,-23.7003502987421,0 -46.6968887803979,-23.7003504617154,0 -46.6972716803979,-23.7008387617154,0 -46.6972717613308,-23.7008388651808,0 -46.6974331734093,-23.7010457243482,0 -46.6976716828244,-23.7013444856181,0 -46.6976717495239,-23.701344569334,0 -46.6981992114181,-23.702007921411,0 -46.6982769938294,-23.7021052971133,0 -46.698324281833,-23.7021568072601,0 -46.6983740315886,-23.7022012905009,0 -46.6984287422923,-23.7022450403273,0 -46.6984902689994,-23.702283438052,0 -46.6985676776358,-23.7023155544012,0 -46.69864709673,-23.7023379907646,0 -46.6987078388186,-23.7023501574782,0 -46.6988057083045,-23.7023566,0 -46.6988890244845,-23.7023566,0 -46.6989856111716,-23.7023517658315,0 -46.699085547101,-23.7023396552751,0 -46.6991695050042,-23.7023201701645,0 -46.6992693293666,-23.7022927958481,0 -46.6993475392325,-23.7022637794113,0 -46.6994355028773,-23.7022274860508,0 -46.6995105811179,-23.7021847176003,0 -46.6995877271732,-23.7021303625305,0 -46.6996510358804,-23.7020786743642,0 -46.6996710304972,-23.7020564403503,0 -46.6996942641394,-23.7020235037695,0 -46.6997264252082,-23.7019712532935,0 -46.6997557124751,-23.7018956021716,0 -46.6997817238854,-23.7018081616005,0 -46.6998311016812,-23.7015978378156,0 -46.6999296549164,-23.7010380435058,0 -46.6999375403785,-23.7009703439284,0 -46.699941685369,-23.7009154951011,0 -46.699944083322,-23.7008572728019,0 -46.6999432331755,-23.7007995573017,0 -46.6999382080279,-23.700738324947,0 -46.6999327898066,-23.7007087637692,0 -46.6999230710598,-23.7006829460295,0 -46.6999120274488,-23.7006640714943,0 -46.6998898570935,-23.7006403492141,0 -46.6998570663945,-23.7006166440993,0 -46.6998208894294,-23.7005964124316,0 -46.6997889459489,-23.7005838262223,0 -46.6997590230378,-23.7005780144233,0 -46.6997142339368,-23.7005747350672,0 -46.6996819706056,-23.7005769020073,0 -46.6996508210614,-23.7005837260054,0 -46.6996134873792,-23.7005974121348,0 -46.6995652808731,-23.7006200321108,0 -46.6995037018155,-23.700653967319,0 -46.6994641082374,-23.7006790182321,0 -46.6993308687052,-23.7007732970976,0 -46.6993285894067,-23.7007748260152,0 -46.6993262366743,-23.7007762393238,0 -46.6993238163668,-23.700777533504,0 -46.6992417163668,-23.700818833504,0 -46.6992381133213,-23.7008204860972,0 -46.6992025133213,-23.7008352860972,0 -46.6991993704814,-23.7008364813601,0 -46.6991961604759,-23.70083748234,0 -46.6991620604759,-23.70084698234,0 -46.6991597854492,-23.700847564107,0 -46.699157487663,-23.7008480482333,0 -46.699107087663,-23.7008575482333,0 -46.6991044875038,-23.7008579741203,0 -46.6991018699317,-23.7008582749923,0 -46.6990500699317,-23.7008629749923,0 -46.6990477248615,-23.7008631373289,0 -46.6990453749966,-23.7008631993125,0 -46.6990053749966,-23.7008633993125,0 -46.6990024122405,-23.7008633342876,0 -46.6989994572875,-23.7008631097779,0 -46.6989548572875,-23.7008585097779,0 -46.6989522487381,-23.7008581775383,0 -46.6989496590504,-23.700857720996,0 -46.6989470941442,-23.7008571411945,0 -46.6988714941442,-23.7008381411945,0 -46.6988690626162,-23.7008374704592,0 -46.6988666643976,-23.7008366889468,0 -46.6988643045323,-23.700835798301,0 -46.6987967045323,-23.700808498301,0 -46.6987936295883,-23.700807145862,0 -46.6987906429438,-23.7008056082254,0 -46.69878775574,-23.7008038911274,0 -46.69873185574,-23.7007682911274,0 -46.6987297030701,-23.700766847799,0 -46.6987276207851,-23.7007653046615,0 -46.6987256135087,-23.7007636651414,0 -46.6986767135087,-23.7007217651414,0 -46.6986747761865,-23.7007200239165,0 -46.6986729234788,-23.7007181929178,0 -46.6986711595414,-23.7007162762524,0 -46.6986360595414,-23.7006762762524,0 -46.6986341975573,-23.7006740374638,0 -46.6986324566708,-23.7006717032674,0 -46.6986063566708,-23.7006347032674,0 -46.698604726582,-23.7006322560547,0 -46.6986032296091,-23.7006297252225,0 -46.6986018700307,-23.7006271180044,0 -46.6985816700307,-23.7005857180044,0 -46.6985814548324,-23.700585271868,0 -46.6985670548324,-23.700555071868,0 -46.6985659983402,-23.7005527152926,0 -46.6985650536368,-23.7005503117205,0 -46.6985642228051,-23.7005478664512,0 -46.6985535228051,-23.7005137664512,0 -46.6985526670824,-23.7005107387464,0 -46.6985519858908,-23.7005076670635,0 -46.6985514814593,-23.7005045614547,0 -46.6985451814593,-23.7004572614547,0 -46.6985448210838,-23.7004536475413,0 -46.6985426210838,-23.7004205475413,0 -46.6985425158531,-23.7004182204527,0 -46.6985425092561,-23.7004158909955,0 -46.6985431092561,-23.7003831909955,0 -46.6985432187335,-23.7003805879934,0 -46.6985434513555,-23.7003779930961,0 -46.6985438066001,-23.700375412126,0 -46.6985539066001,-23.700313012126,0 -46.6985545428786,-23.7003097205415,0 -46.6985553785199,-23.7003064738381,0 -46.6985564104193,-23.7003032840791,0 -46.6985766104193,-23.7002467840791,0 -46.6985778248202,-23.7002436863194,0 -46.698579224316,-23.7002406676613,0 -46.6985808037849,-23.7002377391526,0 -46.6986090037849,-23.7001890391526,0 -46.6986104441298,-23.7001866895395,0 -46.6986120003644,-23.7001844150267,0 -46.6986136685814,-23.700182221325,0 -46.6986546685814,-23.700131021325,0 -46.6986563044155,-23.7001290726728,0 -46.6986580286181,-23.7001272017575,0 -46.6987192286181,-23.7000638017575,0 -46.6987221179066,-23.7000610192238,0 -46.6989221115766,-23.6998820039107,0 -46.6991001618091,-23.6997193714358,0 -46.699240552406,-23.6995813536377,0 -46.6992765129019,-23.6995426415471,0 -46.6993081427022,-23.6995043428131,0 -46.6993343079204,-23.6994705539161,0 -46.6993652935962,-23.6994245997754,0 -46.6993947187309,-23.6993777125116,0 -46.6994243110119,-23.6993259960332,0 -46.6994413855391,-23.699286304462,0 -46.6994684459515,-23.6992081939099,0 -46.699535199279,-23.6989757934365,0 -46.6995778667345,-23.6987977160701,0 -46.69958667408,-23.6987534977478,0 -46.6995893809851,-23.6987144280847,0 -46.699590939383,-23.6986778515677,0 -46.6995890922753,-23.698642168805,0 -46.699583947439,-23.6986174590982,0 -46.699577363565,-23.6986018689813,0 -46.6995670147313,-23.6985860582633,0 -46.6995511019626,-23.6985658915861,0 -46.6995368195677,-23.6985528511386,0 -46.6995033289008,-23.6985305527254,0 -46.6994749409535,-23.6985148963423,0 -46.6994469781798,-23.6985032043054,0 -46.699424128387,-23.6984971626653,0 -46.699405752739,-23.6984944561745,0 -46.6993840731055,-23.6984947583296,0 -46.699363895903,-23.698496959479,0 -46.6993409110092,-23.6985036012178,0 -46.6993226197002,-23.6985114186652,0 -46.6993054187578,-23.6985210571243,0 -46.6992655190634,-23.698551616663,0 -46.6992069641632,-23.6986007678789,0 -46.6991252424455,-23.6986755656802,0 -46.6989594827844,-23.6988464898124,0 -46.6989587994534,-23.6988471820781,0 -46.6987239994534,-23.6990808820781,0 -46.6987237560498,-23.699081122838,0 -46.6986237560498,-23.699179422838,0 -46.6986215514997,-23.6991814743076,0 -46.6986192379725,-23.699183402042,0 -46.6985697379725,-23.699222402042,0 -46.6985677778849,-23.6992238767199,0 -46.6985177778849,-23.6992597767199,0 -46.6985144059569,-23.6992620144758,0 -46.6984420059569,-23.6993063144758,0 -46.6984399900325,-23.6993074899383,0 -46.6984379260601,-23.6993085788284,0 -46.6983708260601,-23.6993421788284,0 -46.6983681893118,-23.699343412996,0 -46.6982874893118,-23.699378612996,0 -46.6982848789044,-23.6993796728867,0 -46.6982822176467,-23.6993805977126,0 -46.6981935176468,-23.6994088977126,0 -46.6981905410831,-23.6994097558226,0 -46.6981875209282,-23.6994104449877,0 -46.6980924209282,-23.6994293449877,0 -46.6980887225074,-23.699429949834,0 -46.6980017225074,-23.699441149834,0 -46.6979976329935,-23.6994415217402,0 -46.6979021329935,-23.6994466217402,0 -46.6978999884494,-23.6994466943483,0 -46.6978441884494,-23.6994474943483,0 -46.6978407240896,-23.699447434866,0 -46.6977709240896,-23.699444034866,0 -46.6977676095002,-23.6994437727895,0 -46.6976955095002,-23.6994358727895,0 -46.6976924770586,-23.6994354548295,0 -46.6976461770586,-23.6994277548295,0 -46.6976423374626,-23.6994269748084,0 -46.6975974374626,-23.6994161748084,0 -46.6975945723283,-23.6994154033238,0 -46.6975439723283,-23.6994003033238,0 -46.6975417120236,-23.6993995753086,0 -46.6974842120236,-23.6993796753086,0 -46.6974813382756,-23.6993785899642,0 -46.6974169382756,-23.6993521899642,0 -46.6974138224328,-23.6993507982451,0 -46.6973721224328,-23.6993305982451,0 -46.6973695117515,-23.6993292462879,0 -46.6973293117515,-23.6993070462879,0 -46.6973257600338,-23.6993049063304,0 -46.6972506600339,-23.6992557063304,0 -46.6972487908875,-23.6992544260183,0 -46.6972469760551,-23.6992530698138,0 -46.6971892760551,-23.6992080698138,0 -46.6971867553519,-23.699205980341,0 -46.6971407553519,-23.699165480341,0 -46.6971377778451,-23.6991626547544,0 -46.6970978778451,-23.6991218547544,0 -46.697096634315,-23.6991205406139,0 -46.697061934315,-23.6990826406139,0 -46.6970600050264,-23.6990804167183,0 -46.6970581975033,-23.6990780927719,0 -46.6969810975033,-23.6989732927719,0 -46.6969806464327,-23.6989726705836,0 -46.6968588464327,-23.6988021705836,0 -46.6968582218098,-23.6988012776424,0 -46.6966524218098,-23.6985007776424,0 -46.696652228014,-23.6985004927603,0 -46.696273028014,-23.6979392927603,0 -46.6962721450884,-23.697937943865,0 -46.6961364450884,-23.697723843865,0 -46.6961353217494,-23.6977219918479,0 -46.6961197217494,-23.6976950918479,0 -46.6961177514309,-23.6976913734015,0 -46.6961071514309,-23.6976693734015,0 -46.6961057741263,-23.6976662739112,0 -46.6961045904883,-23.6976630954196,0 -46.6960967904883,-23.6976399954196,0 -46.696096011599,-23.6976374936091,0 -46.6960953527484,-23.6976349575413,0 -46.6960900527484,-23.6976123575413,0 -46.696089400235,-23.6976091480198,0 -46.6960889399167,-23.6976059053497,0 -46.6960886734258,-23.6976026410297,0 -46.6960874734258,-23.6975794410297,0 -46.6960874018782,-23.6975761454701,0 -46.6960876018782,-23.6975519454701,0 -46.6960878037192,-23.6975476705591,0 -46.6960907037192,-23.6975140705591,0 -46.6960910156919,-23.6975112860015,0 -46.6960914690733,-23.6975085209456,0 -46.6960953690733,-23.6974880209456,0 -46.6960959167183,-23.6974854727406,0 -46.6960965844712,-23.6974829533419,0 -46.6960973708322,-23.6974804684073,0 -46.6961046708322,-23.6974591684073,0 -46.6961055025411,-23.6974569047219,0 -46.6961064326847,-23.6974546796727,0 -46.6961074594746,-23.6974524975376,0 -46.6961178594746,-23.6974315975376,0 -46.6961194311624,-23.6974286649508,0 -46.6961211772987,-23.6974258327651,0 -46.6961327772987,-23.6974082327651,0 -46.6961346719676,-23.6974055374097,0 -46.6961367246237,-23.6974029603351,0 -46.6961389279015,-23.6974005107887,0 -46.6961666279015,-23.6973715107886,0 -46.6961684117081,-23.6973697270233,0 -46.6961996117081,-23.6973399270233,0 -46.6962017987148,-23.6973379475393,0 -46.6962040887031,-23.6973360881555,0 -46.6962064750861,-23.6973343542203,0 -46.6962402750861,-23.6973111542203,0 -46.6962439185152,-23.6973088579178,0 -46.6962862185152,-23.6972844579178,0 -46.6962885570184,-23.6972831834335,0 -46.6962909544758,-23.697282023647,0 -46.6963739544758,-23.697244323647,0 -46.6963765932123,-23.6972432070602,0 -46.6964926932123,-23.6971976070602,0 -46.6964939665202,-23.6971971250541,0 -46.6966042665202,-23.6971569250541,0 -46.6966054337285,-23.697156514466,0 -46.6967879337285,-23.697094614466,0 -46.696788423113,-23.697094451033,0 -46.6969557002142,-23.697039458561,0 -46.6971033773162,-23.696990766111,0 -46.697104596594,-23.6969903797473,0 -46.697184496594,-23.6969660797473,0 -46.6971870182468,-23.6969653779377,0 -46.6972487182468,-23.6969497779377,0 -46.697251392189,-23.696949172352,0 -46.6972540929872,-23.6969487007689,0 -46.6973003929872,-23.6969418007689,0 -46.6973033601891,-23.6969414406872,0 -46.6973063425708,-23.6969412423299,0 -46.6973547425708,-23.6969393423299,0 -46.6973571001811,-23.6969393003643,0 -46.6973594574234,-23.6969393594905,0 -46.6974217574234,-23.6969422594905,0 -46.6974245140047,-23.6969424573169,0 -46.6974894140047,-23.6969487573169,0 -46.6974915715271,-23.6969490098515,0 -46.6976906715271,-23.6969763098515,0 -46.6976922382054,-23.6969765477112,0 -46.6979275382054,-23.6970157477112,0 -46.6979279699518,-23.6970158214063,0 -46.6981556699518,-23.6970556214063,0 -46.6981578727807,-23.6970560529425,0 -46.6982195727807,-23.6970694529425,0 -46.698221399358,-23.6970698823919,0 -46.698276299358,-23.6970837823919,0 -46.6982787164226,-23.6970844533715,0 -46.6983819164226,-23.6971156533715,0 -46.6983840142089,-23.6971163337775,0 -46.6984766142089,-23.6971484337775,0 -46.6984783438494,-23.6971490659917,0 -46.6985784438494,-23.6971875659917,0 -46.698579519952,-23.6971879929317,0 -46.698702019952,-23.6972380929317,0 -46.698702729619,-23.6972383889784,0 -46.698810629619,-23.6972842889784,0 -46.6988114220422,-23.6972846334462,0 -46.6989312220422,-23.6973378334462,0 -46.6989313592059,-23.6973378945812,0 -46.6990500592059,-23.6973909945812,0 -46.6990510495757,-23.6973914494483,0 -46.6991679495757,-23.6974465494483,0 -46.6991698843596,-23.6974475082559,0 -46.6992315843596,-23.6974796082559,0 -46.6992326947107,-23.6974802021753,0 -46.6993010947107,-23.6975178021753,0 -46.6993037048218,-23.6975193319237,0 -46.6993688048218,-23.6975599319237,0 -46.6993708704103,-23.6975612854822,0 -46.6994557704103,-23.6976196854822,0 -46.6994577013126,-23.697621076167,0 -46.6995478013126,-23.697688976167,0 -46.6995506883513,-23.6976913086719,0 -46.6996471883513,-23.6977748086719,0 -46.6996499925897,-23.6977774110915,0 -46.6997492925897,-23.6978762110915,0 -46.699750991972,-23.6978779790355,0 -46.6997526108587,-23.6978798209726,0 -46.6997541460313,-23.6978817332411,0 -46.6998238460313,-23.6979726332411,0 -46.6998255372695,-23.6979749626912,0 -46.6998271043116,-23.6979773774382,0 -46.6998895043116,-23.6980792774382,0 -46.6998907007399,-23.6980813294391,0 -46.6999533007399,-23.6981942294391,0 -46.6999546290556,-23.6981967801231,0 -46.6999558222313,-23.6981993967513,0 -46.6999990222312,-23.6983010967513,0 -46.6999999184248,-23.6983033424843,0 -46.7000007150476,-23.6983056254367,0 -46.7000373150476,-23.6984184254367,0 -46.7000379582312,-23.6984205532581,0 -46.7001603582312,-23.6988571532581,0 -46.7001606539842,-23.6988582517941,0 -46.7003298324143,-23.6995135682426,0 -46.7004235027657,-23.6998717548692,0 -46.7005975949176,-23.700534424996,0 -46.7005981036497,-23.7005365291109,0 -46.700598529188,-23.7005386516154,0 -46.700625129188,-23.7006863516154,0 -46.7006253974402,-23.7006879809791,0 -46.7006413974402,-23.7007951809791,0 -46.7006417348682,-23.7007979060954,0 -46.7006539348682,-23.7009217060954,0 -46.7006541319653,-23.7009243651897,0 -46.7006599319653,-23.7010408651897,0 -46.7006599952939,-23.7010428805195,0 -46.7006615952939,-23.7011651805195,0 -46.7006615323467,-23.7011686271378,0 -46.7006538323468,-23.7013237271378,0 -46.7006534664541,-23.7013278921754,0 -46.7006365664541,-23.7014616921754,0 -46.7006362669613,-23.7014637496875,0 -46.7006126669613,-23.7016068496875,0 -46.7006125187932,-23.7016077059281,0 -46.7005888187932,-23.7017385059281,0 -46.7005883498768,-23.7017408115943,0 -46.7005478498768,-23.7019202115943,0 -46.7005473534835,-23.7019222317795,0</coordinates></LineString>
  </Placemark>
</Folder>
</Document></kml>
