<?xml version="1.0" encoding="utf-8" ?>
<kml xmlns="http://www.opengis.net/kml/2.2">
<Document id="root_doc">
<Schema name="brazil_gp_boundary" id="brazil_gp_boundary">
	<SimpleField name="highway" type="string"></SimpleField>
	<SimpleField name="name_en" type="string"></SimpleField>
	<SimpleField name="name_pt" type="string"></SimpleField>
	<SimpleField name="oneway" type="string"></SimpleField>
	<SimpleField name="raceway_co" type="string"></SimpleField>
	<SimpleField name="sport" type="string"></SimpleField>
	<SimpleField name="surface" type="string"></SimpleField>
</Schema>
<Folder><name>brazil_gp_boundary</name>
  <Placemark id="brazil_gp_boundary.1">
	<name>S do Senna</name>
	<Style><LineStyle><color>ff0000ff</color></LineStyle><PolyStyle><fill>0</fill></PolyStyle></Style>
	<ExtendedData><SchemaData schemaUrl="#brazil_gp_boundary">
		<SimpleData name="highway">raceway</SimpleData>
		<SimpleData name="name_en">Senna-S</SimpleData>
		<SimpleData name="name_pt">S do Senna</SimpleData>
		<SimpleData name="oneway">yes</SimpleData>
		<SimpleData name="sport">motor</SimpleData>
		<SimpleData name="surface">asphalt</SimpleData>
	</SchemaData></ExtendedData>
      <LineString><coordinates>-46.7003657544911,-23.7021771620987,0 -46.6998903686585,-23.7038611576746,0 -46.6993202819216,-23.705887167377,0 -46.6992775001653,-23.7059927277556,0 -46.6992487077894,-23.706053805353,0 -46.6992118330277,-23.7061166535971,0 -46.6991615256289,-23.7061924488052,0 -46.6991107824051,-23.7062542032169,0 -46.6990686815266,-23.7062914463017,0 -46.6990160093462,-23.706331920714,0 -46.6989639327544,-23.7063621530978,0 -46.6989019635657,-23.70638404394,0 -46.6988378108402,-23.7063850246186,0 -46.698779263526,-23.7063744477923,0 -46.6987238584544,-23.7063498876337,0 -46.6986816876887,-23.7063186275795,0 -46.6986262990698,-23.7062708394572,0 -46.6984126888037,-23.706060509386,0 -46.6984106817823,-23.7060586296554,0 -46.6983557817823,-23.7060097296554,0 -46.6983529745796,-23.7060073917315,0 -46.6983146745796,-23.7059775917315,0 -46.6983125397126,-23.7059760119062,0 -46.6983103310701,-23.7059745369812,0 -46.698308053802,-23.7059731703958,0 -46.6983057132184,-23.7059719153365,0 -46.6982604132184,-23.7059490153365,0 -46.6982577229096,-23.7059477454881,0 -46.6982549678755,-23.7059466229624,0 -46.6982521561766,-23.7059456510437,0 -46.6982106561766,-23.7059325510437,0 -46.6982077439367,-23.7059317192062,0 -46.6982047903225,-23.7059310489388,0 -46.6982018042907,-23.7059305422741,0 -46.6981502042907,-23.7059232422741,0 -46.6981472147727,-23.7059229024552,0 -46.6981442111451,-23.7059227266248,0 -46.6981412023967,-23.7059227153092,0 -46.6981381975316,-23.7059228685422,0 -46.6980833975316,-23.7059271685422,0 -46.6980805606827,-23.7059274653308,0 -46.6980777430351,-23.7059279087914,0 -46.698074952167,-23.7059284977313,0 -46.698019552167,-23.7059416977313,0 -46.6980170532311,-23.7059423555487,0 -46.6980145879509,-23.7059431300152,0 -46.6980121617685,-23.7059440194213,0 -46.6979600617685,-23.7059645194213,0 -46.6979575584607,-23.7059655765454,0 -46.6979551104211,-23.7059667560215,0 -46.6978917104211,-23.7059992560215,0 -46.6978891605805,-23.7060006493692,0 -46.6976959605805,-23.7061129493692,0 -46.6976957218218,-23.7061130889551,0 -46.6976213739024,-23.7061568062903,0 -46.6974887357915,-23.7062068887748,0 -46.6973175149344,-23.7062491655296,0 -46.6972063421021,-23.706260320951,0 -46.6970710367415,-23.7062662759489,0 -46.6969589990046,-23.706264048751,0 -46.6968425196535,-23.7062536350342,0 -46.6966924286393,-23.706226705521,0 -46.6965657334375,-23.7061890600387,0 -46.6964202138701,-23.7061273128066,0 -46.6962843256835,-23.7060500639587,0 -46.6961747342753,-23.7059780275379,0 -46.6960737466819,-23.7058907153477,0 -46.6959681481651,-23.7057813385354,0 -46.6958849926011,-23.7056784932631,0 -46.6958114620109,-23.705557406525,0 -46.6957538264519,-23.7054340798546,0 -46.6956596671469,-23.7051629642901,0 -46.6954294065402,-23.7044462094732,0 -46.6952981190331,-23.7040303657865,0 -46.6952014751401,-23.7037148753918,0 -46.695146776673,-23.7035291596493,0 -46.6951080278233,-23.7033898625026,0 -46.6950310149356,-23.7030911881685,0 -46.6949669700118,-23.7028340093327,0 -46.6949664181441,-23.7028319623453,0 -46.6946272181441,-23.7016638623453,0 -46.6946271428233,-23.7016636053026,0 -46.6943947428233,-23.7008776053026,0 -46.6943945567768,-23.700876989349,0 -46.6941507893418,-23.7000866675625,0 -46.6941224262974,-23.6999792521138,0 -46.694114,-23.6999112074972,0 -46.694114,-23.6998608653,0 -46.6941219749938,-23.6998097567379,0 -46.6941376121038,-23.6997612551932,0 -46.694155997192,-23.6997176339699,0 -46.6941844794567,-23.6996736757925,0 -46.6942145008574,-23.6996448949455,0 -46.6942469036258,-23.6996186557472,0 -46.6942987933575,-23.6995862136151,0 -46.6943376756994,-23.6995702684442,0 -46.6944011326203,-23.6995509716028,0 -46.6945639510821,-23.6995177233884,0 -46.6950118320473,-23.6994460664204,0 -46.6951859633118,-23.6994205497612,0 -46.6952981606943,-23.6994049966802,0 -46.6953848928897,-23.6994003367268,0 -46.6954780917776,-23.6994026546266,0 -46.6955670409867,-23.6994085655065,0 -46.6956640050564,-23.699426539334,0 -46.6957720522261,-23.6994565471106,0 -46.6958762649911,-23.6994956268974,0 -46.6959312964047,-23.699520064576,0 -46.6959991899032,-23.6995586296067,0 -46.6960703100835,-23.6996032465563,0 -46.6961752565498,-23.6996856838813,0 -46.6962730243385,-23.6997771659072,0 -46.696394085425,-23.6999099900142,0 -46.6965690586326,-23.7001232944692,0 -46.6968022835955,-23.7004184198933,0 -46.6971850790733,-23.7009065865994,0 -46.6973466386692,-23.7011136348192,0 -46.6973470171756,-23.7011141143819,0 -46.6975856837862,-23.7014130725577,0 -46.6981131504761,-23.702076430666,0 -46.6981132267924,-23.7020765264247,0 -46.6981922267924,-23.7021754264247,0 -46.6981946841038,-23.7021782949211,0 -46.6982450841038,-23.7022331949211,0 -46.6982469651074,-23.7022351451795,0 -46.698248939878,-23.7022370004324,0 -46.698301839878,-23.7022843004324,0 -46.698304150743,-23.7022862549595,0 -46.698362550743,-23.7023329549595,0 -46.6983651118001,-23.702334883297,0 -46.6983677808582,-23.7023366591425,0 -46.6984358808582,-23.7023791591425,0 -46.6984384843824,-23.7023806863261,0 -46.6984411677658,-23.7023820683832,0 -46.6984439229266,-23.7023833011513,0 -46.6985285229266,-23.7024184011513,0 -46.6985315537917,-23.7024195551188,0 -46.6985346474027,-23.7024205284407,0 -46.6986192474027,-23.7024444284407,0 -46.6986233979942,-23.7024454288111,0 -46.6986897979942,-23.7024587288111,0 -46.698692179687,-23.7024591516175,0 -46.6986945776671,-23.7024594692922,0 -46.6986969872962,-23.7024596812206,0 -46.6988002872962,-23.7024664812206,0 -46.6988039,-23.7024666,0 -46.6988904,-23.7024666,0 -46.6988931493114,-23.7024665312414,0 -46.6989930493114,-23.7024615312414,0 -46.6989969166693,-23.7024612005466,0 -46.6991017166693,-23.7024485005466,0 -46.6991046391158,-23.7024480664589,0 -46.6991075340356,-23.7024474760652,0 -46.6991954340356,-23.7024270760652,0 -46.699197545376,-23.7024265417952,0 -46.699300745376,-23.7023982417952,0 -46.6993030544458,-23.7023975538695,0 -46.6993053311715,-23.7023967654756,0 -46.6993867311715,-23.7023665654756,0 -46.6993885773286,-23.7023658424201,0 -46.6994806773286,-23.7023278424201,0 -46.6994838487463,-23.7023264149578,0 -46.6994869236046,-23.7023247899085,0 -46.6995673236046,-23.7022789899085,0 -46.6995695848947,-23.7022776288809,0 -46.6995717782884,-23.7022761609391,0 -46.6996526782884,-23.7022191609391,0 -46.6996557837716,-23.7022168038641,0 -46.6997238837716,-23.7021612038641,0 -46.6997260197742,-23.702159366779,0 -46.699728058902,-23.7021574227248,0 -46.6997299958043,-23.7021553768024,0 -46.6997549958043,-23.7021275768024,0 -46.6997570944694,-23.7021250997901,0 -46.6997590433292,-23.7021225032674,0 -46.6997851433292,-23.7020855032674,0 -46.6997870384345,-23.702082629864,0 -46.6998227384345,-23.702024629864,0 -46.6998244035218,-23.7020217308382,0 -46.6998258893968,-23.7020187360024,0 -46.6998271905694,-23.7020156564219,0 -46.6998590905694,-23.7019332564219,0 -46.6998598456219,-23.7019311835105,0 -46.6998605169357,-23.7019290819863,0 -46.6998876169356,-23.7018379819863,0 -46.6998884441898,-23.70183487059,0 -46.6999385441898,-23.70162147059,0 -46.6999391669663,-23.7016184362344,0 -46.7000382669663,-23.7010555362344,0 -46.7000387306626,-23.7010523632306,0 -46.7000469306626,-23.7009819632306,0 -46.7000471436169,-23.7009797445967,0 -46.7000514436169,-23.7009228445967,0 -46.700051553411,-23.7009209633201,0 -46.700054053411,-23.7008602633201,0 -46.7000540940343,-23.7008571899406,0 -46.7000531940343,-23.7007960899406,0 -46.7000530157186,-23.7007924014456,0 -46.7000476157186,-23.7007266014456,0 -46.700047324572,-23.700723883973,0 -46.7000468987917,-23.7007211843185,0 -46.7000400987917,-23.7006840843185,0 -46.7000394123153,-23.7006808803744,0 -46.7000385362648,-23.7006777229953,0 -46.7000374737495,-23.7006746233874,0 -46.7000243737495,-23.7006398233874,0 -46.7000231984059,-23.7006369498234,0 -46.7000218627925,-23.7006341471569,0 -46.700020371165,-23.7006314243183,0 -46.700003871165,-23.7006032243183,0 -46.7000022558078,-23.7006006315148,0 -46.7000004989871,-23.7005981323969,0 -46.6999986061228,-23.7005957346742,0 -46.6999965830541,-23.7005934457438,0 -46.6999665830541,-23.7005613457438,0 -46.6999647224645,-23.7005594489074,0 -46.6999627724375,-23.7005576441424,0 -46.699960737524,-23.7005559356608,0 -46.6999586224732,-23.7005543274499,0 -46.6999189224732,-23.7005256274499,0 -46.6999162837467,-23.7005238340434,0 -46.6999135454702,-23.7005221966592,0 -46.6998713454702,-23.7004985966592,0 -46.6998691658428,-23.7004974411127,0 -46.6998669365897,-23.7004963844701,0 -46.6998646621959,-23.7004954288572,0 -46.6998245621959,-23.7004796288572,0 -46.6998221943442,-23.7004787580812,0 -46.6998197890509,-23.7004779968077,0 -46.6998173513772,-23.7004773466387,0 -46.6998148864522,-23.7004768089422,0 -46.6997767864522,-23.7004694089422,0 -46.6997735641389,-23.7004688818169,0 -46.6997703162242,-23.7004685468329,0 -46.6997184162242,-23.7004647468329,0 -46.6997158502032,-23.7004646191223,0 -46.6997132810177,-23.7004646113841,0 -46.699710714274,-23.7004647236351,0 -46.699670514274,-23.7004674236351,0 -46.6996678016663,-23.7004676734375,0 -46.6996651047544,-23.7004680572447,0 -46.699662430154,-23.7004685741149,0 -46.699623630154,-23.7004770741149,0 -46.6996212126172,-23.7004776613308,0 -46.6996188241084,-23.7004783572711,0 -46.6996164695148,-23.7004791605119,0 -46.6995733695148,-23.7004949605119,0 -46.699571132827,-23.7004958363242,0 -46.6995689365129,-23.7004968089619,0 -46.6995169365129,-23.7005212089619,0 -46.6995137544039,-23.7005228301824,0 -46.6994491544039,-23.7005584301824,0 -46.6994462931006,-23.7005601216796,0 -46.6994040931006,-23.7005868216796,0 -46.6994017312948,-23.7005884029024,0 -46.6992706985978,-23.7006811202349,0 -46.6991940553602,-23.7007196752375,0 -46.6991633958729,-23.7007324213165,0 -46.6991348031608,-23.7007403870281,0 -46.6990893037797,-23.7007489633003,0 -46.6990424727389,-23.7007532124488,0 -46.6990077916667,-23.7007533858542,0 -46.6989700734485,-23.7007494956344,0 -46.6989019813814,-23.7007323825487,0 -46.6988425815328,-23.7007083941483,0 -46.6987942291557,-23.7006776008634,0 -46.6987512587887,-23.7006407816737,0 -46.6987206630765,-23.7006059147652,0 -46.6986987914824,-23.7005749090571,0 -46.6986806385731,-23.7005377045797,0 -46.6986680153765,-23.7005112309312,0 -46.6986598938273,-23.7004853482371,0 -46.6986544584207,-23.7004445395496,0 -46.6986525335079,-23.7004155783618,0 -46.6986530189227,-23.7003891232578,0 -46.6986616875322,-23.7003355667003,0 -46.6986785044793,-23.7002885291996,0 -46.6987021205494,-23.7002477454191,0 -46.698738939816,-23.7002017662373,0 -46.6987969775059,-23.7001416422253,0 -46.6989956820934,-23.6999637807762,0 -46.6989960928833,-23.699963409334,0 -46.6991750928833,-23.699799909334,0 -46.6991765580163,-23.6997985209049,0 -46.6993185580163,-23.6996589209049,0 -46.6993202966059,-23.6996571323864,0 -46.6993581966059,-23.6996163323864,0 -46.6993603074001,-23.699613923027,0 -46.6993935074001,-23.699573723027,0 -46.6993945860208,-23.6995723744116,0 -46.6994223860208,-23.6995364744116,0 -46.6994245020267,-23.6995335482545,0 -46.6994570020267,-23.6994853482545,0 -46.6994579859755,-23.6994838360546,0 -46.6994884859755,-23.6994352360546,0 -46.6994896374566,-23.6994333154761,0 -46.6995213374566,-23.6993779154761,0 -46.6995228096697,-23.6993751643727,0 -46.6995241235011,-23.6993723342088,0 -46.6995432235011,-23.6993279342088,0 -46.6995446696781,-23.6993242042374,0 -46.6995728696781,-23.6992428042374,0 -46.6995737625436,-23.6992399839221,0 -46.6996412625436,-23.6990049839221,0 -46.6996418861447,-23.6990026153159,0 -46.6996850861447,-23.6988223153159,0 -46.6996855404404,-23.6988202437838,0 -46.6996952404404,-23.6987715437838,0 -46.699695815074,-23.6987680874346,0 -46.6996961684656,-23.6987646015103,0 -46.6996991684656,-23.6987213015103,0 -46.6996992501467,-23.6987198412343,0 -46.6997009501467,-23.6986799412343,0 -46.6997009994259,-23.6986773487119,0 -46.6997009264592,-23.698674756748,0 -46.6996987264592,-23.698632256748,0 -46.6996985090466,-23.698629450202,0 -46.6996981483241,-23.6986266584556,0 -46.6996976452364,-23.6986238888218,0 -46.6996905452364,-23.6985897888218,0 -46.6996899373126,-23.6985871873774,0 -46.6996892037825,-23.6985846185221,0 -46.6996883463768,-23.6985820883167,0 -46.6996873671183,-23.6985796027309,0 -46.6996767671183,-23.6985545027309,0 -46.6996753930955,-23.6985515034689,0 -46.6996738417234,-23.698548591982,0 -46.6996721185834,-23.6985457787454,0 -46.6996577185834,-23.6985237787454,0 -46.6996563415551,-23.6985217731957,0 -46.6996548771852,-23.6985198305023,0 -46.6996346771852,-23.6984942305023,0 -46.6996327658716,-23.6984919389241,0 -46.699630733087,-23.6984897543791,0 -46.699628584815,-23.6984876832978,0 -46.699607884815,-23.6984687832978,0 -46.6996057721876,-23.6984669506644,0 -46.6996035691326,-23.6984652277921,0 -46.6996012813465,-23.6984636191359,0 -46.6995623813465,-23.6984377191359,0 -46.6995604462597,-23.6984364881818,0 -46.6995584615373,-23.6984353389708,0 -46.6995254615373,-23.6984171389708,0 -46.6995228241424,-23.6984157759108,0 -46.699520117041,-23.6984145571466,0 -46.699485917041,-23.6984002571466,0 -46.6994835690876,-23.6983993380456,0 -46.6994811814771,-23.6983985275223,0 -46.6994787592276,-23.6983978272803,0 -46.6994492592276,-23.6983900272803,0 -46.6994462541778,-23.698389322313,0 -46.6994432143127,-23.6983887870347,0 -46.6994174143127,-23.6983849870347,0 -46.6994144991319,-23.6983846368842,0 -46.6994115694192,-23.6983844428019,0 -46.6994086335239,-23.698384405341,0 -46.6993799335239,-23.698384805341,0 -46.6993773306771,-23.6983849033001,0 -46.6993747353869,-23.6983851243803,0 -46.6993472353869,-23.6983881243803,0 -46.6993441006409,-23.6983885579345,0 -46.6993409960194,-23.6983891710632,0 -46.6993379318005,-23.6983899617366,0 -46.6993071318005,-23.6983988617366,0 -46.6993039237541,-23.6983998962517,0 -46.6993007851037,-23.6984011253398,0 -46.6992766851037,-23.6984114253398,0 -46.6992740150057,-23.6984126518587,0 -46.6992714142204,-23.6984140192241,0 -46.6992482142204,-23.6984270192241,0 -46.699245960801,-23.6984283533808,0 -46.699243773442,-23.6984297932885,0 -46.6992416571024,-23.6984313356827,0 -46.6991976571024,-23.6984650356827,0 -46.6991957391585,-23.6984665738693,0 -46.6991353391585,-23.6985172738693,0 -46.6991335658492,-23.6985188283985,0 -46.6990497658492,-23.6985955283985,0 -46.6990474172156,-23.6985978101876,0 -46.6988808558202,-23.6987695610333,0 -46.6986465218737,-23.6990027971632,0 -46.6985487939299,-23.6990988637319,0 -46.6985026256253,-23.6991352387597,0 -46.6984552668876,-23.6991692423334,0 -46.6983865859219,-23.6992112667365,0 -46.6983228759764,-23.6992431691831,0 -46.6982460956371,-23.6992766594922,0 -46.6981630370867,-23.6993031595708,0 -46.6980728179731,-23.6993210895524,0 -46.697989715303,-23.6993317878272,0 -46.6978973385702,-23.6993367210349,0 -46.6978443446678,-23.6993374808041,0 -46.6977779371678,-23.6993342460548,0 -46.6977090125384,-23.6993266939803,0 -46.6976661566398,-23.6993195667574,0 -46.6976246055135,-23.6993095722772,0 -46.697576565684,-23.6992952362806,0 -46.697521640011,-23.6992762272216,0 -46.6974602412439,-23.6992510575407,0 -46.6974214009812,-23.6992322428331,0 -46.6973843044702,-23.6992117567001,0 -46.6973128362926,-23.6991649360033,0 -46.6972582154065,-23.699122337392,0 -46.6972149861587,-23.6990842768585,0 -46.6971771547286,-23.6990455920879,0 -46.6971450559437,-23.6990105331845,0 -46.6970699302055,-23.6989084167465,0 -46.696948670302,-23.698738672793,0 -46.6967432755342,-23.698438764495,0 -46.6963646233346,-23.6978783752165,0 -46.6962299348192,-23.6976658710812,0 -46.6962159345892,-23.6976417296591,0 -46.6962077228915,-23.6976246865129,0 -46.6962018484886,-23.6976072892427,0 -46.6961982720898,-23.6975920389383,0 -46.6961974117487,-23.6975754056776,0 -46.6961975804244,-23.6975549959148,0 -46.6962000551043,-23.6975263237621,0 -46.6962026989553,-23.6975124265961,0 -46.6962075545594,-23.6974982588747,0 -46.6962148562217,-23.6974835853418,0 -46.6962218953144,-23.6974729053392,0 -46.6962453006543,-23.6974484015537,0 -46.6962723812787,-23.6974225360855,0 -46.6963007481859,-23.6974030653089,0 -46.6963388724934,-23.6973810739826,0 -46.6964181407032,-23.6973450690247,0 -46.6965322731169,-23.6973002418235,0 -46.6966413521851,-23.6972604868049,0 -46.6968230219622,-23.6971988683983,0 -46.6969900768869,-23.697143948967,0 -46.6971372152914,-23.6970954341599,0 -46.6972152509319,-23.6970717011679,0 -46.6972730212556,-23.6970570947327,0 -46.697313647412,-23.6970510402947,0 -46.6973566996348,-23.6970493502281,0 -46.6974152618001,-23.6970520762358,0 -46.6974777047402,-23.6970581377231,0 -46.6976749434203,-23.6970851825044,0 -46.6979092457746,-23.6971242163008,0 -46.6981356242298,-23.6971637853061,0 -46.6981953102674,-23.697176747914,0 -46.6982480844571,-23.6971901096852,0 -46.6983490278622,-23.6972206274588,0 -46.698439715678,-23.6972520645958,0 -46.6985384158525,-23.6972900262014,0 -46.6986600241798,-23.6973397615254,0 -46.6987671728165,-23.6973853419001,0 -46.6988865093344,-23.69743833608,0 -46.6990046433558,-23.6974911828916,0 -46.6991200736197,-23.6975455901417,0 -46.6991802570652,-23.6975769011401,0 -46.6992467791893,-23.6976134688574,0 -46.699309547186,-23.6976526144898,0 -46.699392449093,-23.6977096400654,0 -46.6994801157948,-23.6977757063146,0 -46.6995737642467,-23.6978567389129,0 -46.6996690957389,-23.6979515903875,0 -46.6997348005474,-23.6980372800157,0 -46.6997950753138,-23.6981357094821,0 -46.6998557032819,-23.6982450528941,0 -46.6998968317417,-23.6983418761434,0 -46.6999323418564,-23.6984513171527,0 -46.7000542882113,-23.6988862990034,0 -46.7002233460158,-23.6995411482059,0 -46.7002233894182,-23.6995413152429,0 -46.7003170894182,-23.6998996152429,0 -46.7003171050824,-23.699899675004,0 -46.7004906547212,-23.7005602800909,0 -46.7005167244547,-23.7007050357165,0 -46.7005323998217,-23.7008100606756,0 -46.7005443343457,-23.700931166747,0 -46.7005500178966,-23.7010453277258,0 -46.7005515821479,-23.7011648951846,0 -46.7005440713862,-23.7013161833846,0 -46.7005275638435,-23.7014468762375,0 -46.7005042037407,-23.7015885216067,0 -46.7004807910006,-23.7017177362227,0 -46.7004407792139,-23.7018949736185,0</coordinates></LineString>
  </Placemark>
</Folder>
</Document></kml>
