<?xml version="1.0" encoding="utf-8" ?>
<kml xmlns="http://www.opengis.net/kml/2.2">
<Document id="root_doc">
<Schema name="spa_circuit_boundary" id="spa_circuit_boundary">
	<SimpleField name="highway" type="string"></SimpleField>
	<SimpleField name="oneway" type="string"></SimpleField>
	<SimpleField name="sport" type="string"></SimpleField>
	<SimpleField name="surface" type="string"></SimpleField>
</Schema>
<Folder><name>spa_circuit_boundary</name>
  <Placemark id="spa_circuit_boundary.1">
	<name>Les Combes</name>
	<Style><LineStyle><color>ff0000ff</color></LineStyle><PolyStyle><fill>0</fill></PolyStyle></Style>
	<ExtendedData><SchemaData schemaUrl="#spa_circuit_boundary">
		<SimpleData name="highway">raceway</SimpleData>
		<SimpleData name="oneway">yes</SimpleData>
		<SimpleData name="sport">motor</SimpleData>
		<SimpleData name="surface">asphalt</SimpleData>
	</SchemaData></ExtendedData>
      <LineString><coordinates>5.96606905618257,50.4431346095572,0 5.9652036079798,50.4441009517215,0 5.96384814501601,50.4456206101989,0 5.96384803792253,50.4456207299129,0 5.96348213017223,50.4460285583547,0 5.96339523866486,50.4461330736693,0 5.96339462440796,50.446143466896,0 5.96340555241374,50.4461669143647,0 5.9634179207918,50.4461799197408,0 5.96344273573643,50.4461955464491,0 5.96348381314846,50.4462077976071,0 5.96353012859671,50.4462060569939,0 5.96363148139178,50.4461803872672,0 5.96374687056053,50.4461510931151,0 5.96435543294734,50.4459771041311,0 5.96496001770438,50.4457881028616,0 5.96538996669805,50.4456304615446,0 5.96539184488605,50.4456298111571,0 5.96567453486744,50.4455376058303,0 5.96597432498036,50.445424228131,0 5.9662578799472,50.4453078265825,0 5.96662389863,50.4451364013694,0 5.966820602348,50.4450357160741,0 5.96699290260787,50.4449426938529,0 5.96715764426313,50.4448522650095,0 5.96739902744982,50.4447106244855,0 5.96770889274527,50.4444987889409,0 5.96864807137788,50.4438026460042,0 5.96983301602599,50.4429095138448,0 5.96999093800396,50.4427884503171,0 5.9699914307421,50.4427880769602,0 5.9702435307421,50.4425992769602,0 5.97024471813772,50.4425984122151,0 5.97034061813772,50.4425305122151,0 5.97038272384078,50.4425007081777,0 5.97038475577714,50.4424993368267,0 5.97038684680242,50.4424980573806,0 5.97038899276267,50.4424968723811,0 5.97047209276267,50.4424533723811,0 5.97047533444574,50.4424518083994,0 5.97067613444574,50.4423629083994,0 5.97067870081092,50.4423618488369,0 5.97080197387835,50.4423145591687,0 5.97098832554783,50.442242847142,0 5.97114569129068,50.4421771546002,0 5.97127010890816,50.4421180390472,0 5.97135226387413,50.4420744998114,0 5.97142979442932,50.4420253810746,0 5.9715053565693,50.4419719927112,0 5.97154441596051,50.441936653262,0 5.97161465042267,50.4418547452148,0 5.97170652296132,50.4417439288727,0 5.97176980762658,50.4416534679098,0 5.97183067107132,50.4415371616709,0 5.97187459447543,50.4414221331415,0 5.97191269185159,50.4412337953434,0 5.97191295010662,50.441232588479,0 5.97193925010662,50.441116088479,0 5.9719396899191,50.4411142828419,0 5.9719713899191,50.4409930828419,0 5.97197216796163,50.4409903903235,0 5.97199896796163,50.4409057903235,0 5.97199996981736,50.4409029080449,0 5.97200112998021,50.4409000857644,0 5.97200244487909,50.4408973321693,0 5.9720039104666,50.4408946557354,0 5.9720424104666,50.4408287557354,0 5.97204417965084,50.4408259279593,0 5.97208857965084,50.4407595279593,0 5.9720904022917,50.4407569640496,0 5.97209236853471,50.4407545085373,0 5.97217376853471,50.4406586085373,0 5.9721764371337,50.440655684713,0 5.9723052371337,50.440524384713,0 5.97230560912703,50.440524009127,0 5.97264770912703,50.440181909127,0 5.97368103361454,50.4391498846549,0 5.97368217667557,50.4391487756225,0 5.97391177667557,50.4389323756225,0 5.97391250489667,50.4389317015685,0 5.97401839228007,50.438835449341,0 5.97410501665305,50.4387509832196,0 5.97418450828769,50.4386653012599,0 5.97425198725739,50.4385887858052,0 5.97431398566987,50.4385122457682,0 5.97438401866169,50.4384218395424,0 5.97444444861321,50.4383323100958,0 5.97454643653513,50.4381612304513,0 5.97463818418112,50.4379268515613,0 5.97463918202465,50.4379244688843,0 5.97492398202465,50.4372868688843,0 5.97492401147935,50.4372868030581,0 5.97595039090916,50.4349970489482,0 5.97725557042424,50.4320709948729,0 5.97725635055771,50.4320693219466,0 5.9773436378575,50.431890058772,0 5.97741560031622,50.4317353842757,0 5.97747417052777,50.4316056376812,0 5.97749010176554,50.4315489627606,0 5.97749918248255,50.4315096415427,0 5.97750026431161,50.4314725502604,0 5.97749570236868,50.4314457488456,0 5.97747633944476,50.4313955076025,0 5.97744773890501,50.4313437904023,0 5.97740607262594,50.4313003347738,0 5.97734345053196,50.4312489478202,0 5.97727211016296,50.4312048365997,0 5.9772212704344,50.4311846806719,0 5.97713892093322,50.4311562129616,0 5.97702081170047,50.4311158439852,0 5.97701873588086,50.4311150875889,0 5.97701669211413,50.4311142484344,0 5.97696649211413,50.4310924484344,0 5.9769639968461,50.4310912898172,0 5.97696156263643,50.4310900078735,0 5.97691666263643,50.4310649078735,0 5.97691582328735,50.4310644289341,0 5.97684232328735,50.4310216289341,0 5.97684015044945,50.4310202952847,0 5.97683804174954,50.4310188623751,0 5.97683600171863,50.4310173332842,0 5.97683403474013,50.4310157112975,0 5.97676033474013,50.4309520112975,0 5.97675817951708,50.4309500462959,0 5.97675613148779,50.43094796981,0 5.97675419641127,50.4309457876789,0 5.97671309641127,50.4308968876789,0 5.97671088582544,50.4308940768926,0 5.97670886256345,50.4308911283981,0 5.97667446256345,50.4308373283981,0 5.97667288655509,50.4308347055883,0 5.9766714588477,50.4308319991911,0 5.9766485588477,50.4307854991911,0 5.97664734406326,50.4307828586532,0 5.97664627047013,50.4307801576276,0 5.97664534106661,50.4307774036577,0 5.97664455844832,50.4307746044345,0 5.97664392480093,50.4307717677758,0 5.97663462480093,50.4307242677758,0 5.97663409598374,50.4307210696819,0 5.97663375648832,50.4307178459892,0 5.97663360749391,50.4307146078951,0 5.97663290749391,50.4306722078951,0 5.976632929046,50.4306695127628,0 5.97663308260476,50.4306668219224,0 5.97663336780143,50.4306641418355,0 5.97663886780143,50.4306222418355,0 5.97663952521935,50.4306183316664,0 5.97664782521935,50.4305779316663,0 5.97664842644852,50.4305753278124,0 5.97664915344785,50.4305727562364,0 5.97667725344785,50.4304818562364,0 5.97667856270331,50.4304781065154,0 5.9769284696646,50.4298376700255,0 5.97696782943468,50.4297199756519,0 5.97698031908017,50.4296569484342,0 5.97697195694596,50.4296056456108,0 5.97695813485362,50.4295745252113,0 5.97695661110433,50.429570717837,0 5.97694082282511,50.4295265627044,0 5.97692304257685,50.4295007075836,0 5.97689106599115,50.4294603852028,0 5.97685889564978,50.4294241935687,0 5.97682012114837,50.4293948652916,0 5.9768190867494,50.4293940633659,0 5.97678278587775,50.4293652228238,0 5.9767338189809,50.4293381787211,0 5.97656316344135,50.4292574352856,0 5.97633976377917,50.4291613226356,0 5.97633922580871,50.4291610877759,0 5.97336666344096,50.4278444373249,0 5.97322717253075,50.4277848794081,0 5.97313286385663,50.4277554968061,0 5.97306885761123,50.4277421237433,0 5.97296863566154,50.4277318834684,0 5.97287176299073,50.4277313119483,0 5.97277727236607,50.4277382794388,0 5.97267902744735,50.427753975932,0 5.9725707094706,50.4277853161858,0 5.97249034059241,50.4278182027612,0 5.97242223521228,50.4278591921104,0 5.97236074048323,50.427911603423,0 5.97231350426526,50.4279640586239,0 5.97228465301303,50.428013197212,0 5.97226893783995,50.4280614946287,0 5.97226189693231,50.428113547053,0 5.97226473825053,50.4281670306901,0 5.97227710563898,50.4282160088245,0 5.97230117904078,50.4282648976165,0 5.97233532792202,50.428308198059,0 5.97238264275334,50.428352550102,0 5.97243846150066,50.4283936797053,0 5.97248291126009,50.4284196238506,0 5.97256388239713,50.4284580994972,0 5.97266753155169,50.4284997748905,0 5.97276754144684,50.4285377886019,0 5.97276858608536,50.4285381979109,0 5.97337966975333,50.4287848509556,0 5.97375150022546,50.4289329647568,0 5.97383143637398,50.428961753642,0 5.97383294049579,50.4289623203123,0 5.97397194049579,50.4290170203123,0 5.97397409328304,50.4290179206849,0 5.97410039328304,50.4290739206848,0 5.974103428409,50.4290753791879,0 5.97410636859135,50.4290770206958,0 5.97417896859135,50.4291205206958,0 5.97418128494167,50.42912198828,0 5.9741835252666,50.4291235694905,0 5.97418568399734,50.4291252603967,0 5.97425228399734,50.4291801603967,0 5.97425478747151,50.4291823546341,0 5.97425715361066,50.42918469631,0 5.97425937374647,50.4291871768457,0 5.97430997374647,50.4292472768457,0 5.97431163071562,50.4292493439734,0 5.97431318622137,50.4292514884933,0 5.97431463665465,50.4292537054296,0 5.97431597865019,50.4292559896388,0 5.97435047865019,50.4293180896388,0 5.97435191016193,50.4293208470489,0 5.97435318369065,50.429323680891,0 5.97435429517262,50.4293265821226,0 5.97435524106118,50.4293295414859,0 5.97437554106118,50.4293998414859,0 5.97437621342048,50.4294023990619,0 5.97437676206627,50.4294049860003,0 5.97437718573017,50.4294075963204,0 5.97437748343275,50.4294102239877,0 5.97438258343275,50.4294675239877,0 5.97438275563035,50.4294701912236,0 5.97438279804546,50.4294728636758,0 5.97438271057793,50.429475535033,0 5.97437941057793,50.429533335033,0 5.97437914514394,50.4295364376473,0 5.97437870454436,50.4295395202667,0 5.97437809019152,50.4295425730098,0 5.97437730405474,50.4295455860912,0 5.97437634865399,50.4295485498523,0 5.97437522705181,50.4295514547927,0 5.97434832705181,50.4296156547927,0 5.97434737863053,50.4296177899111,0 5.97434634038994,50.4296198828254,0 5.97427534038994,50.4297556828254,0 5.97427528282283,50.429755792631,0 5.97404135476275,50.4302007753413,0 5.97379812383795,50.4306883355244,0 5.97366955174608,50.4309518486043,0 5.97360171363631,50.4311076396122,0 5.97355709711701,50.4312239335397,0 5.97347190278262,50.4315313869001,0 5.97347167705701,50.4315321784448,0 5.97316507357183,50.4325776083856,0 5.97295165301188,50.4333802335533,0 5.97295063103862,50.4333836315376,0 5.97290903103862,50.4335073315376,0 5.97290828255644,50.4335094171581,0 5.97286468255644,50.4336236171582,0 5.97286346524798,50.4336265487892,0 5.97286208083865,50.4336294053101,0 5.97286053393994,50.4336321772056,0 5.97285882970457,50.4336348552427,0 5.97279532970457,50.4337285552427,0 5.97279394043595,50.4337305119173,0 5.9727924671379,50.4337324061283,0 5.97279091261512,50.4337342342699,0 5.97271191261512,50.4338231342699,0 5.97271025097688,50.4338249225837,0 5.97270851162207,50.4338266354038,0 5.97270669797714,50.4338282693561,0 5.97259839797714,50.4339215693561,0 5.97259643643244,50.4339231818502,0 5.97259440255216,50.4339247020889,0 5.97259230067151,50.4339261268318,0 5.97246960067151,50.4340052268318,0 5.97246761385125,50.4340064488111,0 5.97246557700569,50.4340075854503,0 5.97236737700569,50.4340596854503,0 5.97236611616885,50.4340603337025,0 5.97226831616885,50.4341090337025,0 5.97226530738001,50.4341104204761,0 5.9722622205535,50.4341116235777,0 5.9720979205535,50.4341700235777,0 5.97209583391917,50.4341707185975,0 5.97209372116625,50.434171329638,0 5.97196072116625,50.434206929638,0 5.97195794981493,50.4342075949973,0 5.9719551477172,50.4342081158999,0 5.9718232477172,50.4342291158999,0 5.97182005324743,50.4342295289877,0 5.97170865324743,50.4342406289877,0 5.97170597380741,50.4342408300099,0 5.97094158597744,50.4342794293954,0 5.97085129814361,50.4342840287756,0 5.97084884347495,50.4342840989275,0 5.97072074347496,50.4342848989275,0 5.97071895067353,50.4342848809008,0 5.97060135067353,50.4342817809008,0 5.9705981649516,50.4342816043459,0 5.9704101649516,50.4342657043459,0 5.97040664691025,50.4342652923444,0 5.97021784691024,50.4342369923444,0 5.97021600694442,50.4342366845527,0 5.97007420694442,50.4342104845527,0 5.9700710348563,50.4342098011141,0 5.9699412348563,50.4341778011141,0 5.96993863995341,50.4341770936517,0 5.96977413995341,50.4341278936517,0 5.96977090088015,50.4341268142756,0 5.96962420088015,50.4340728142756,0 5.96962215337163,50.4340720137721,0 5.96950095337163,50.4340218137721,0 5.96949886584341,50.434020898004,0 5.96949681805551,50.43401989652,0 5.96939351805551,50.43396669652,0 5.96939044086889,50.4339649849712,0 5.96926304086889,50.4338886849712,0 5.96926063724396,50.4338871595597,0 5.96914463724396,50.4338092595597,0 5.9691427453292,50.433807930502,0 5.96914091094457,50.4338065231041,0 5.96900511094457,50.4336977231041,0 5.96900293298265,50.4336958834911,0 5.96900085327048,50.4336939334933,0 5.96899887739594,50.43369187835,0 5.96890367739594,50.43358757835,0 5.96890220376318,50.4335858964242,0 5.96890079971748,50.4335841559864,0 5.96879549971748,50.4334480559864,0 5.96879399613893,50.4334460172815,0 5.96879258802905,50.4334439115054,0 5.96833370208459,50.4327222336102,0 5.96725111616302,50.4310232557045,0 5.96724994203758,50.4310213268024,0 5.96720090543043,50.4309369130839,0 5.96718115994626,50.430907342552,0 5.96718101700522,50.4309071273934,0 5.96713266902954,50.4308339806548,0 5.96707224226728,50.4307640475016,0 5.96701512087804,50.4307078656089,0 5.96695322056683,50.4306587530866,0 5.96684621965254,50.4305931626685,0 5.96673240017814,50.4305394832001,0 5.96662229093077,50.430504240621,0 5.96647408098246,50.4304693392568,0 5.96631505276812,50.4304502014692,0 5.96621672189702,50.4304442652336,0 5.96610919462726,50.4304484932942,0 5.96600624337527,50.4304586912956,0 5.96588412149432,50.430477232853,0 5.96576235510846,50.4305062523955,0 5.96564317237938,50.4305457551594,0 5.9655193671169,50.430599109332,0 5.96551863619194,50.4305994180935,0 5.96534373619194,50.4306718180935,0 5.96534144693672,50.4306727064054,0 5.96533912031289,50.43067349165,0 5.96516202031289,50.43072889165,0 5.965159243832,50.4307296808206,0 5.96515642977245,50.430730323242,0 5.96506082977245,50.430749523242,0 5.96505855157466,50.4307499311197,0 5.96505625823408,50.4307502427901,0 5.96493925823408,50.4307636427901,0 5.96493556467613,50.4307639401714,0 5.96479846467613,50.4307703401714,0 5.96479607361255,50.430770399726,0 5.96479368222065,50.4307703552678,0 5.96462518222065,50.4307635552678,0 5.96462221180494,50.4307633547499,0 5.96461925659121,50.4307629937946,0 5.96446295659121,50.4307395937946,0 5.96446057360833,50.4307391832852,0 5.96445821097227,50.4307386684296,0 5.96431841097226,50.4307049684296,0 5.96431581671232,50.4307042756365,0 5.96431325935711,50.4307034570515,0 5.96418365935711,50.4306584570515,0 5.96418101178888,50.4306574607488,0 5.96417841894857,50.4306563296362,0 5.9641758876952,50.4306550667059,0 5.9640678876952,50.4305976667059,0 5.96406633981647,50.4305968118471,0 5.96396013981647,50.4305359118471,0 5.96395762165598,50.4305343766668,0 5.96395518940595,50.4305327087128,0 5.96395285005995,50.4305309127809,0 5.96395061034439,50.4305289940352,0 5.96385971034439,50.4304467940352,0 5.96385789420429,50.4304450750736,0 5.96328662122098,50.4298792008899,0 5.9630305490534,50.4296288258783,0 5.96302967417769,50.4296279510039,0 5.96274846771535,50.4293403466697,0 5.96249979765399,50.4290884821314,0 5.96243161250111,50.4290217814158,0 5.96238636762876,50.428979171285,0 5.9622863133836,50.4289181558139,0 5.96221811757429,50.4288875239051,0 5.96214697422235,50.4288603993289,0 5.96207832177046,50.4288435175785,0 5.96200021001251,50.4288281606552,0 5.96188518403218,50.4288186700628,0 5.96177732970433,50.4288220047814,0 5.96164505090807,50.4288368814082,0 5.96152297555847,50.4288744068816,0 5.96141591732081,50.4289203305057,0 5.9603629054231,50.4294087649483,0 5.96021196773412,50.4294792358561,0 5.96021186979347,50.4294792814662,0 5.96011239419802,50.429525487586,0 5.96003850058973,50.4295670114527,0 5.95990803011592,50.4296598610156,0 5.95982888293901,50.4297322241488,0 5.95975793931286,50.4298141844558,0 5.9597168648702,50.429871521404,0 5.95968385161844,50.4299293862981,0 5.95965847970023,50.4299889511957,0 5.95964170807655,50.4300463786401,0 5.95962985130962,50.4301630161381,0 5.95963915671257,50.430266287865,0 5.95966476115042,50.4303624651082,0 5.95970338702516,50.4304504617053,0 5.96000496682551,50.4309560367866,0 5.9601169002153,50.4311223686277,0 5.96020784771,50.4312336021698,0 5.96033197783604,50.4313667456909,0 5.96043982622475,50.4314668976713,0 5.96044083856055,50.431467862015,0 5.96060545516954,50.4316287148267,0 5.96080476578885,50.4317943474659,0 5.96101836316569,50.4319493762243,0 5.96132585075224,50.4321552306526,0 5.96164879133086,50.4323604210542,0 5.96198581003268,50.4325664046493,0 5.96213119881984,50.4326529621569,0 5.96228180058455,50.4327372121264,0 5.96244864299559,50.432821175348,0 5.96262506237723,50.4328978579171,0 5.96284605883159,50.4329891369021,0 5.96298942104365,50.4330416106399,0 5.96311831683012,50.4330866297542,0 5.96397789597019,50.4333713903322,0 5.96397799434471,50.4333714230245,0 5.96483919434471,50.4336585230245,0 5.9648394461826,50.4336586076566,0 5.9653011461826,50.4338150076566,0 5.96530199228707,50.4338153019757,0 5.96551319228707,50.4338907019757,0 5.96551647359023,50.4338919934582,0 5.96571387359023,50.4339770934582,0 5.96571428259284,50.4339772717517,0 5.96588308259284,50.4340516717517,0 5.96588694282372,50.434053556514,0 5.96606384282372,50.434148656514,0 5.96606628420527,50.4341500505574,0 5.96629918420527,50.4342910505574,0 5.96630161177234,50.4342926086565,0 5.96653781177234,50.4344531086565,0 5.96654001633693,50.4344546874935,0 5.96654214040604,50.434456373068,0 5.96667934040604,50.434570873068,0 5.96668185552941,50.4345731060005,0 5.96678905552941,50.4346743060005,0 5.96678969864197,50.4346749230487,0 5.96688629864197,50.4347691230487,0 5.96688898083654,50.4347719300004,0 5.96697978083654,50.4348739300004,0 5.96698200824672,50.4348765972602,0 5.96717160824672,50.4351187972602,0 5.96717331252515,50.4351210950545,0 5.96766951252515,50.4358277950545,0 5.96766979761653,50.4358282050335,0 5.96793169761653,50.4362085050335,0 5.96793203112472,50.4362089949441,0 5.96798963112472,50.4362945949441,0 5.96799084825996,50.4362964861051,0 5.96799198706323,50.436298425444,0 5.96805168706323,50.436405025444,0 5.96805286631767,50.4364072489715,0 5.9680539426119,50.4364095241213,0 5.96805491369202,50.4364118461288,0 5.96809301369202,50.4365091461288,0 5.96809407883307,50.4365121142278,0 5.96809497211696,50.4365151384931,0 5.96811647211696,50.4365964384931,0 5.96811707223053,50.4365989437366,0 5.96811755437614,50.4366014743328,0 5.96811791749607,50.4366040247298,0 5.96812941749607,50.4367010247298,0 5.968129666161,50.4367036653713,0 5.96812978723134,50.4367063149304,0 5.96813128723134,50.4367759149304,0 5.96813121229584,50.4367802047972,0 5.96812611229584,50.4368704047972,0 5.96812590467418,50.4368729919788,0 5.96812557522628,50.4368755664845,0 5.96812512468583,50.4368781225809,0 5.96810212468583,50.4369927225809,0 5.96810136792528,50.4369959773478,0 5.96810041490576,50.4369991801509,0 5.96809926914516,50.4370023191678,0 5.96805116914516,50.4371226191678,0 5.96805020780912,50.4371248761431,0 5.9680491467858,50.4371270880052,0 5.96804798818604,50.4371292503537,0 5.96796438818604,50.4372772503537,0 5.96796374665463,50.4372783558808,0 5.96695989741683,50.438962853642,0 5.96685256597934,50.4391985118805,0 5.96677344338072,50.4394112397604,0 5.96673473497743,50.4395493029822,0 5.96670136004616,50.4396967666993,0 5.96664396886475,50.4399536417112,0 5.96660209704491,50.4402976455013,0 5.96653829481889,50.440820363764,0 5.96653817117777,50.4408213085999,0 5.96647170550101,50.4412971469585,0 5.9664604763362,50.4414052760713,0 5.96646029110652,50.4414275653762,0 5.96646658841747,50.4414427472653,0 5.96647793295871,50.441458910187,0 5.96649241609941,50.4414716224633,0 5.96651482777244,50.4414854586087,0 5.96655009384137,50.4414983383904,0 5.96660375907943,50.4415058481486,0 5.96666445285133,50.4415050267291,0 5.96679058184335,50.4414959541199,0 5.96688370978935,50.4414886675817,0 5.96688645381481,50.4414885217378,0 5.96688920169982,50.4414885131296,0 5.96704020169981,50.4414918131296,0 5.96704302900702,50.4414919477703,0 5.9670458456433,50.4414922276886,0 5.9671590456433,50.4415064276886,0 5.96716166203564,50.4415068200232,0 5.96716425653412,50.4415073377229,0 5.96716682313544,50.4415079795897,0 5.96716935590083,50.4415087441384,0 5.96717184896981,50.4415096296001,0 5.96723354896981,50.4415332296001,0 5.96723604211511,50.4415342539303,0 5.96723848208255,50.4415353991746,0 5.96724086301215,50.4415366625827,0 5.96724317918572,50.4415380411202,0 5.9672454250406,50.4415395314765,0 5.96724759518301,50.441541130072,0 5.967249684401,50.4415428330676,0 5.967287384401,50.4415751330676,0 5.96728953806205,50.4415770791079,0 5.96729158605677,50.4415791360587,0 5.96729352268102,50.4415812981908,0 5.96729534254084,50.4415835594823,0 5.96729704056751,50.4415859136349,0 5.96729861203163,50.4415883540917,0 5.96730005255629,50.4415908740555,0 5.96731885255629,50.4416258740555,0 5.96732011520009,50.4416283755684,0 5.96732124880071,50.4416309381426,0 5.96732225041571,50.4416335551263,0 5.96732311744527,50.4416362197269,0 5.96732384763887,50.441638925028,0 5.96732443910119,50.4416416640075,0 5.967324890297,50.441644429556,0 5.967329990297,50.4416816295561,0 5.9673303324871,50.4416848106692,0 5.96733048912451,50.4416880062975,0 5.96733045967918,50.4416912056268,0 5.96733024425075,50.4416943978307,0 5.96732664425075,50.4417315978307,0 5.9673262991909,50.4417344072825,0 5.9673258100481,50.4417371952611,0 5.96732517811789,50.4417399543822,0 5.96732440507401,50.4417426773381,0 5.96732349296397,50.4417453569165,0 5.96732244420361,50.4417479860204,0 5.9673212615707,50.4417505576862,0 5.9673040615707,50.4417855576862,0 5.96730276582644,50.4417880334309,0 5.96730134601252,50.4417904401702,0 5.96729980579382,50.4417927716915,0 5.96729814914604,50.4417950219766,0 5.96729638034537,50.4417971852171,0 5.96726418034537,50.4418345852171,0 5.96726182107222,50.4418371558614,0 5.96725930354791,50.4418395717367,0 5.9671107830561,50.441973309167,0</coordinates></LineString>
  </Placemark>
</Folder>
</Document></kml>
