<?xml version="1.0" encoding="utf-8" ?>
<kml xmlns="http://www.opengis.net/kml/2.2">
<Document id="root_doc">
<Schema name="spa_circuit_boundary" id="spa_circuit_boundary">
	<SimpleField name="highway" type="string"></SimpleField>
	<SimpleField name="oneway" type="string"></SimpleField>
	<SimpleField name="sport" type="string"></SimpleField>
	<SimpleField name="surface" type="string"></SimpleField>
</Schema>
<Folder><name>spa_circuit_boundary</name>
  <Placemark id="spa_circuit_boundary.1">
	<name>Les Combes</name>
	<Style><LineStyle><color>ff0000ff</color></LineStyle><PolyStyle><fill>0</fill></PolyStyle></Style>
	<ExtendedData><SchemaData schemaUrl="#spa_circuit_boundary">
		<SimpleData name="highway">raceway</SimpleData>
		<SimpleData name="oneway">yes</SimpleData>
		<SimpleData name="sport">motor</SimpleData>
		<SimpleData name="surface">asphalt</SimpleData>
	</SchemaData></ExtendedData>
      <LineString><coordinates>5.96598715851266,50.4430611740607,0 5.96512162914055,50.4440276068307,0 5.96512155498399,50.4440276898011,0 5.96376610844346,50.4455473298658,0 5.96339956207747,50.4459558700871,0 5.96339820714245,50.4459574387401,0 5.96329910714245,50.4460766387401,0 5.96329730782961,50.4460789232527,0 5.96329563177844,50.4460812996738,0 5.96329408367441,50.44608376136,0 5.96329266784532,50.4460863014295,0 5.96329138824917,50.4460889127813,0 5.96329024846315,50.4460915881154,0 5.96328925167357,50.4460943199528,0 5.963288400667,50.4460971006564,0 5.96328769782248,50.4460999224527,0 5.96328714510483,50.4461027774532,0 5.9632867440592,50.4461056576767,0 5.96328649580674,50.4461085550713,0 5.96328399580674,50.4461508550713,0 5.96328390044324,50.4461538791924,0 5.96328397152208,50.4461569039816,0 5.96328420882815,50.4461599202853,0 5.9632846116433,50.4461629189754,0 5.96328517874853,50.4461658909771,0 5.96328590842762,50.4461688272963,0 5.96328679847238,50.4461717190471,0 5.96328784618933,50.4461745574782,0 5.9632890484078,50.446177334,0 5.9633096484078,50.446221534,0 5.96331097582166,50.4462241921632,0 5.96331244484367,50.4462267747654,0 5.96331405118676,50.4462292742696,0 5.96331579016316,50.4462316833815,0 5.96331765669799,50.4462339950708,0 5.96331964534417,50.4462362025911,0 5.96334294534417,50.4462607025911,0 5.96334487757357,50.4462626357826,0 5.9633469034587,50.446264470593,0 5.96334901799631,50.446266202491,0 5.96335121596418,50.4462678271993,0 5.96335349193408,50.4462693407055,0 5.96339049193408,50.4462926407055,0 5.9633930672665,50.4462941662143,0 5.96339572177654,50.4462955493595,0 5.96339844760202,50.4462967860444,0 5.96340123666952,50.4462978726063,0 5.96340408071831,50.4462988058268,0 5.96346108071831,50.4463158058268,0 5.96346397876273,50.4463165847256,0 5.96346691497563,50.4463172044018,0 5.96346988061599,50.4463176630106,0 5.96347286685517,50.4463179591868,0 5.96347586480321,50.4463180920486,0 5.96347886553532,50.4463180612005,0 5.96354006553532,50.4463157612005,0 5.9635429535493,50.4463155764762,0 5.96354582784933,50.4463152401026,0 5.96354868047786,50.446314753011,0 5.96355150353737,50.4463141165498,0 5.96365850353737,50.4462870165498,0 5.96377473367292,50.4462575089082,0 5.96377631882156,50.4462570811992,0 5.96438631882156,50.4460826811993,0 5.96438761054568,50.4460822947044,0 5.96499411054568,50.4458926947044,0 5.96499663330195,50.4458918384554,0 5.96542690008485,50.4457340806206,0 5.96570985511395,50.4456417888429,0 5.96571225559934,50.4456409439467,0 5.96601395559934,50.4455268439467,0 5.96601538655063,50.4455262797799,0 5.96630088655063,50.4454090797799,0 5.96630332756832,50.4454080078764,0 5.96667142756832,50.4452356078764,0 5.96667316027908,50.445234758987,0 5.96687126027908,50.445133358987,0 5.96687232885833,50.4451327971359,0 5.96704532885833,50.4450393971359,0 5.96704566528668,50.4450392139876,0 5.96721126528668,50.4449483139876,0 5.96721263505128,50.4449475363776,0 5.96745633505128,50.4448045363776,0 5.96745953989237,50.4448025040205,0 5.96777183989237,50.4445890040205,0 5.96777355133768,50.4445877854035,0 5.96871375133768,50.4438908854035,0 5.96871410484562,50.4438906211703,0 5.96989940484562,50.4429972211703,0 5.96989976199604,50.4429969496829,0 5.97005761667605,50.4428759377461,0 5.97030888133433,50.4426877633411,0 5.97040417900212,50.4426202898099,0 5.9704432701241,50.4425926196096,0 5.97052151199662,50.4425516626727,0 5.970719395748,50.4424640537808,0 5.97084139918908,50.4424172511631,0 5.97084145304111,50.4424172304721,0 5.97102855304111,50.4423452304721,0 5.97102998777656,50.4423446550798,0 5.97118928777656,50.4422781550798,0 5.97119170372306,50.4422770776032,0 5.97131840372306,50.4422168776032,0 5.97132055481254,50.4422157972183,0 5.97140565481254,50.4421706972183,0 5.97140933472955,50.4421685607006,0 5.97148983472955,50.4421175607006,0 5.9714921375628,50.4421160191174,0 5.9715715375628,50.4420599191174,0 5.97157418110787,50.4420579294703,0 5.97157670023282,50.4420557844679,0 5.97162080023282,50.4420158844679,0 5.97162330504132,50.4420134698152,0 5.97162565216956,50.4420109016248,0 5.97169845216956,50.4419260016248,0 5.97169904118205,50.4419253030526,0 5.97179264118205,50.4418124030526,0 5.97179404046201,50.4418106432449,0 5.97179536664974,50.4418088277192,0 5.97186196664974,50.4417136277193,0 5.97186389546673,50.4417106731711,0 5.97186563086918,50.4417076010272,0 5.97192963086918,50.4415853010272,0 5.97193104248278,50.4415823993677,0 5.97193228150213,50.4415794199195,0 5.97197898150212,50.4414571199195,0 5.97197998331876,50.4414542626942,0 5.97198082638584,50.4414513546689,0 5.97198150814841,50.4414484046566,0 5.97202038579175,50.4412562095377,0 5.97204634524228,50.4411412180553,0 5.97207745537197,50.4410222733324,0 5.9721019811677,50.4409448523503,0 5.97213654783545,50.4408856849891,0 5.97217826962699,50.4408232902378,0 5.97225634980955,50.4407313014232,0 5.97238357777207,50.4406016039739,0 5.97272547863255,50.4402597031134,0 5.97375820288451,50.4392282781371,0 5.97398686225421,50.4390127646893,0 5.97409309510333,50.4389161984315,0 5.97409449722214,50.4389148783358,0 5.97418279722214,50.4388287783358,0 5.9741847201067,50.4388268070715,0 5.9742656201067,50.4387396070715,0 5.97426655035262,50.4387385786807,0 5.97433525035262,50.4386606786807,0 5.97433673824498,50.4386589185271,0 5.97439983824498,50.4385810185271,0 5.97440058023968,50.4385800818758,0 5.97447208023968,50.4384877818758,0 5.97447418724965,50.4384848701588,0 5.97453648724965,50.4383925701588,0 5.97453814231024,50.4383899631696,0 5.97464324231024,50.4382136631696,0 5.97464471451071,50.4382110322629,0 5.97464604034147,50.4382083246407,0 5.97464721581888,50.4382055484387,0 5.97474014488163,50.4379681514969,0 5.97502440326963,50.4373317640383,0 5.97605078852065,50.4350419969419,0 5.97605082957576,50.4350419051271,0 5.97735565354751,50.4321166481368,0 5.97744274944229,50.4319377780534,0 5.97744316709255,50.4319369007129,0 5.97751546709255,50.4317815007129,0 5.97751572900909,50.4317809292388,0 5.97757612900909,50.4316471292388,0 5.97757719739901,50.4316445954307,0 5.97757813780999,50.4316420113897,0 5.97757894789125,50.4316393835752,0 5.97759634789125,50.4315774835752,0 5.97759698954734,50.4315749757996,0 5.97760758954734,50.4315290757996,0 5.97760813577219,50.4315264117542,0 5.97760854964628,50.4315237239655,0 5.97760883015775,50.4315210190047,0 5.97760897662082,50.4315183034848,0 5.97761037662082,50.4314703034848,0 5.97761038868975,50.4314675846526,0 5.97761026638278,50.4314648685459,0 5.9776100099988,50.4314621618022,0 5.97760962016434,50.4314594710359,0 5.97760322016434,50.4314218710359,0 5.97760269335491,50.4314191826329,0 5.97760203333203,50.431416523797,0 5.97760124173322,50.4314139011247,0 5.97760032052243,50.4314113211229,0 5.97757762052243,50.4313524211229,0 5.97757666187928,50.431350093867,0 5.9775755977656,50.431347812907,0 5.9775744304099,50.4313455830196,0 5.9775405304099,50.4312842830197,0 5.97753908641217,50.4312818245994,0 5.97753751695595,50.4312794443123,0 5.97753582625877,50.4312771485549,0 5.97753401886397,50.4312749434962,0 5.97753209962849,50.4312728350621,0 5.97748319962849,50.4312218350621,0 5.97748086086755,50.4312195370767,0 5.97747838932991,50.431217382537,0 5.97741038932991,50.431161582537,0 5.97740846503844,50.4311600738005,0 5.97740647558861,50.4311586520857,0 5.97740442491275,50.4311573202028,0 5.97732582491275,50.4311087202028,0 5.97732302697561,50.4311071018477,0 5.97732013880302,50.4311056506466,0 5.97731717036993,50.4311043716116,0 5.97726067036993,50.4310819716116,0 5.97725836972344,50.4310811183779,0 5.97717476972344,50.4310522183779,0 5.97717458829953,50.4310521560148,0 5.97705848015857,50.4310124709987,0 5.97701283372131,50.4309926484423,0 5.97697075914197,50.4309691279091,0 5.97690209610676,50.4309291445362,0 5.97683558249654,50.4308716558392,0 5.97679960803487,50.4308288541074,0 5.97676878771032,50.4307806525533,0 5.9767504706729,50.430743458569,0 5.97674351202207,50.4307079170729,0 5.97674295936897,50.4306744420846,0 5.97674767400824,50.4306385251054,0 5.97675503651089,50.4306026883455,0 5.97678175966332,50.4305162422759,0 5.97703143729669,50.4298763934846,0 5.97703236049644,50.4298738436983,0 5.97707326049644,50.4297515436983,0 5.97707426302696,50.429748195835,0 5.97707505091495,50.4297447910606,0 5.97709015091495,50.4296685910606,0 5.97709062600465,50.4296658252771,0 5.97709095940199,50.4296630388611,0 5.97709115023901,50.4296602390665,0 5.97709119801889,50.4296574331825,0 5.97709110261722,50.4296546285137,0 5.97709086428239,50.429651832362,0 5.97709048363486,50.4296490520067,0 5.97707938363486,50.4295809520067,0 5.9770788587445,50.4295781811623,0 5.97707819251593,50.4295754408652,0 5.97707738670077,50.42957273832,0 5.97707644341758,50.4295700806321,0 5.97707536514638,50.4295674747887,0 5.97705949804271,50.4295317500523,0 5.97704198889567,50.429482782163,0 5.97704096056094,50.4294801253582,0 5.97703979603547,50.4294775253651,0 5.97703849844368,50.4294749891593,0 5.97703707126703,50.4294725235456,0 5.97703551833463,50.4294701351392,0 5.97701261833463,50.4294368351392,0 5.9770103940548,50.4294338254124,0 5.9769762940548,50.4293908254124,0 5.97697430751253,50.4293884599889,0 5.97693750751253,50.4293470599889,0 5.97693566282665,50.4293450846726,0 5.97693372332928,50.4293432023628,0 5.9769316937039,50.4293414176048,0 5.97692957885163,50.4293397347084,0 5.97688700082241,50.429307529517,0 5.9768476132506,50.4292762366341,0 5.97684516777945,50.4292744022474,0 5.97684262416629,50.4292727065659,0 5.97683999026927,50.4292711548281,0 5.97678549026927,50.4292410548281,0 5.97678242252355,50.4292394838971,0 5.97660932252355,50.4291575838971,0 5.97660753622083,50.4291567773644,0 5.97638350583287,50.4290603933589,0 5.97341087419129,50.4277437122241,0 5.97341019694863,50.4277434176729,0 5.97326779694863,50.427682617673,0 5.97326520296712,50.4276815871407,0 5.97326256004441,50.4276806895349,0 5.97316306004441,50.4276496895349,0 5.97316052018878,50.427648964651,0 5.97315794846072,50.4276483625397,0 5.97308854846072,50.4276338625397,0 5.97308573094467,50.4276333500306,0 5.97308289057152,50.4276329848695,0 5.97297719057152,50.4276221848695,0 5.97297456092969,50.4276219797588,0 5.97297192447813,50.4276219009572,0 5.97287022447813,50.4276213009572,0 5.97286803848102,50.4276213315113,0 5.97286585542512,50.427621448916,0 5.97276685542512,50.427628748916,0 5.97276453336455,50.4276289697341,0 5.97276222275493,50.4276292888095,0 5.97265832275493,50.4276458888095,0 5.97265499537023,50.4276465260877,0 5.97265171353412,50.4276473670182,0 5.97253731353412,50.4276804670182,0 5.9725345163259,50.4276813579098,0 5.97253177063708,50.4276823967816,0 5.97244477063708,50.4277179967816,0 5.97244219661202,50.4277191277042,0 5.97243968374206,50.4277203886861,0 5.97243723859356,50.4277217764324,0 5.97236163859356,50.4277672764324,0 5.97235910552329,50.4277688969088,0 5.97235666480339,50.4277706534039,0 5.9723543237297,50.4277725406673,0 5.9722866237297,50.4278302406673,0 5.97228481865172,50.4278318489313,0 5.97228308599415,50.4278335349673,0 5.97228142910477,50.4278352955176,0 5.97222802910477,50.4278945955176,0 5.9722262217746,50.4278967075069,0 5.97222452346,50.4278989081134,0 5.97222293849909,50.4279011917158,0 5.97222147094044,50.4279035524811,0 5.97218677094043,50.4279626524811,0 5.97218533494627,50.42796525705,0 5.97218404184577,50.4279679354356,0 5.97218289542029,50.4279706798057,0 5.97218189902227,50.427973482135,0 5.97216279902227,50.428032182135,0 5.97216187208142,50.4280353512209,0 5.97216113697794,50.4280385702187,0 5.97216059636119,50.4280418275271,0 5.97215219636119,50.4281039275271,0 5.9721519107418,50.4281064898871,0 5.97215174551872,50.4281090628171,0 5.97215170105502,50.4281116406631,0 5.97215177744841,50.4281142177606,0 5.97215517744841,50.4281782177606,0 5.97215538385421,50.4281808806263,0 5.97215571928987,50.4281835303321,0 5.97215618296437,50.4281861606293,0 5.97215677378428,50.4281887653153,0 5.97217187378428,50.4282485653153,0 5.97217265475672,50.4282513479971,0 5.9721735808276,50.4282540858116,0 5.97217464943967,50.4282567711986,0 5.97217585764207,50.4282593967429,0 5.97220505764207,50.4283186967429,0 5.9722064021182,50.4283212552293,0 5.97220787913939,50.4283237395557,0 5.97220948462688,50.4283261428615,0 5.97221121414716,50.4283284585102,0 5.97225151414716,50.4283795585102,0 5.97225326944872,50.4283816733247,0 5.97225512820371,50.4283836978133,0 5.97225708577078,50.4283856269206,0 5.97230978577078,50.4284350269206,0 5.97231221863271,50.4284371761327,0 5.97231477405291,50.4284391780711,0 5.97237557405291,50.4284839780711,0 5.97237798155348,50.4284856548201,0 5.97238047503972,50.4284872008061,0 5.97242947503972,50.4285158008061,0 5.97243151181246,50.4285169324688,0 5.97243359468895,50.4285179768486,0 5.97251819468895,50.4285581768486,0 5.97252128198451,50.4285595295115,0 5.97262698198451,50.4286020295115,0 5.97262795855316,50.4286024113981,0 5.9727279341464,50.4286404120714,0 5.97333861391464,50.4288869020891,0 5.97333884678931,50.4288869954677,0 5.97371164678931,50.4290354954677,0 5.97371336362602,50.429036146358,0 5.97379340742456,50.4290649740132,0 5.97393057355828,50.4291189523406,0 5.97405272403007,50.4291731124864,0 5.97411889612585,50.4292127610562,0 5.97417845168871,50.4292618541553,0 5.97422240277702,50.4293140569302,0 5.97425129039611,50.4293660546446,0 5.97426838695466,50.4294252609532,0 5.97427266046799,50.4294732751324,0 5.97427012716648,50.4295176462922,0 5.97424777641926,50.4295709889677,0 5.9741778883315,50.4297046622398,0 5.97394371717717,50.430150107369,0 5.97394318435073,50.4301511476097,0 5.97369958435073,50.4306394476097,0 5.97369936988853,50.430639882287,0 5.97357016988853,50.430904682287,0 5.97356917333234,50.4309068420586,0 5.97350037333234,50.4310648420586,0 5.97349944945257,50.4310670992062,0 5.97345344945257,50.4311869992062,0 5.9734525631437,50.4311894863181,0 5.97345179721738,50.4311920130999,0 5.97336600711865,50.431501616483,0 5.97305932294299,50.4325473215552,0 5.97305894698812,50.4325486664467,0 5.97284580314072,50.4333502509627,0 5.97280512219166,50.4334712181117,0 5.9727641922773,50.433578424447,0 5.97270629272239,50.4336638604832,0 5.97263212349942,50.4337473243303,0 5.97252949260102,50.4338357404228,0 5.97241196111357,50.4339115084803,0 5.97231644923501,50.4339621822978,0 5.97222225353021,50.4340090875209,0 5.97206315301116,50.4340656393792,0 5.97193503479114,50.4340999326772,0 5.971807543467,50.4341202307652,0 5.97169908401673,50.4341310377661,0 5.97093602619259,50.4341695699901,0 5.97084692840743,50.4341741087423,0 5.97072095307267,50.4341748954735,0 5.97060584474909,50.4341718611554,0 5.97042120070586,50.4341562449837,0 5.97023507568302,50.4341283459469,0 5.97009578918434,50.4341026103597,0 5.96996887124687,50.4340713208836,0 5.96980729634215,50.4340229957449,0 5.96966323087505,50.4339699655116,0 5.9695451540438,50.4339210591013,0 5.96944544794557,50.4338697099781,0 5.96932078068909,50.4337950466212,0 5.96920788346128,50.4337192302932,0 5.96907723353535,50.4336145564203,0 5.96898643105913,50.4335150742956,0 5.96888405164611,50.4333827491474,0 5.96842651197095,50.4326631884946,0 5.96734449070273,50.4309650966924,0 5.96729515796242,50.4308801731976,0 5.96729334005374,50.430877257448,0 5.9672727117768,50.4308463648593,0 5.96722248299478,50.4307703726066,0 5.9672204402523,50.4307674880702,0 5.96721821644819,50.4307647407002,0 5.96715401644819,50.4306904407002,0 5.96715252473207,50.4306887834361,0 5.96715096706893,50.4306871879968,0 5.96709016706893,50.4306273879968,0 5.96708802751681,50.4306253927674,0 5.96708578490043,50.4306235141255,0 5.96701898490043,50.4305705141255,0 5.96701632185117,50.4305685292456,0 5.96701354384792,50.43056670873,0 5.96690114384792,50.43049780873,0 5.96689854131231,50.4304963095899,0 5.96689586082276,50.430494954751,0 5.96677606082276,50.430438454751,0 5.96677386828063,50.4304374786018,0 5.96677163524011,50.4304365990346,0 5.9667693659533,50.4304358177243,0 5.9666537659533,50.4303988177243,0 5.96664960689555,50.4303976643466,0 5.96649630689555,50.4303615643466,0 5.96649330407148,50.4303609450204,0 5.96649027140171,50.4303604939868,0 5.96632657140171,50.4303407939868,0 5.96632331431645,50.4303404999517,0 5.96622061431645,50.4303342999517,0 5.96621787738637,50.4303342030308,0 5.96621513902471,50.4303342424693,0 5.96610323902471,50.4303386424693,0 5.9660999784207,50.4303388678661,0 5.9659939784207,50.4303493678661,0 5.96599114405869,50.4303497231719,0 5.96586534405869,50.4303688231719,0 5.96586308762584,50.4303692139834,0 5.96586084941753,50.4303696983865,0 5.96573454941753,50.4303997983865,0 5.9657322588385,50.4304003966593,0 5.96572999612755,50.4304010929507,0 5.96560629612755,50.4304420929507,0 5.96560404607167,50.4304428933478,0 5.9656018328831,50.430443790668,0 5.96547619723183,50.430497933651,0 5.96530393436035,50.4305692420095,0 5.96513193735276,50.4306230457036,0 5.96504144084728,50.4306412207339,0 5.96492858353312,50.4306541462725,0 5.96479572622319,50.4306603482184,0 5.96463259580717,50.4306537649138,0 5.9644816365749,50.4306311644913,0 5.96434680176207,50.4305986613926,0 5.96422375753055,50.4305559377011,0 5.96412029311593,50.4305009482808,0 5.96401999734168,50.4304434340373,0 5.9639344172694,50.4303660447971,0 5.96336390579571,50.4298009249264,0 5.9633636509466,50.4298006741217,0 5.96310789330499,50.4295506066384,0 5.96282702582231,50.4292633489961,0 5.9628268382825,50.4292631581206,0 5.9625777382825,50.4290108581206,0 5.96257706054466,50.4290101835085,0 5.96250816054466,50.4289427835085,0 5.96250740759605,50.4289420608042,0 5.96245760759605,50.4288951608042,0 5.96245547756301,50.4288932567406,0 5.96245325152938,50.4288914658544,0 5.96245093550175,50.4288897929782,0 5.96244853572958,50.4288882426258,0 5.96234063572958,50.4288224426258,0 5.96233763610728,50.4288207400575,0 5.96233453566539,50.4288192288551,0 5.96226173566539,50.428786528855,0 5.96225879383905,50.4287853085467,0 5.96218299383905,50.4287564085467,0 5.96217979465576,50.4287553003308,0 5.96217653334667,50.4287543910569,0 5.96210333334667,50.4287363910569,0 5.96210081000024,50.4287358330852,0 5.96201841000024,50.4287196330852,0 5.96201537813101,50.428719124575,0 5.9620123225859,50.4287187862589,0 5.9618911225859,50.4287087862589,0 5.96188801369911,50.4287086181716,0 5.96188490028221,50.4287086262703,0 5.96177170028221,50.4287121262703,0 5.9617694735249,50.4287122403355,0 5.96176725322059,50.4287124445602,0 5.96162765322059,50.4287281445602,0 5.96162511611697,50.4287284898704,0 5.96162259783407,50.4287289528879,0 5.96162010382982,50.4287295326092,0 5.96161763950951,50.4287302277778,0 5.96148783950951,50.4287701277778,0 5.96148505158698,50.4287710670876,0 5.96148231787767,50.4287721541241,0 5.96137181787767,50.4288195541241,0 5.9613703569638,50.4288202061138,0 5.9603165569638,50.4293090061138,0 5.96031643226588,50.4293090641439,0 5.96016548121359,50.4293795412909,0 5.96006413020653,50.4294266185338,0 5.96006035598581,50.429428551902,0 5.95998205598581,50.429472551902,0 5.95997954125594,50.4294740545223,0 5.95997711009866,50.4294756889055,0 5.95984151009866,50.4295721889055,0 5.9598388344504,50.4295742188969,0 5.95983628769402,50.4295764084153,0 5.95975228769402,50.4296532084153,0 5.95974998422352,50.4296554412127,0 5.95974781484954,50.4296578045105,0 5.95967311484954,50.4297441045105,0 5.95967150627209,50.4297460514777,0 5.95966998876848,50.4297480702361,0 5.95962578876848,50.4298097702361,0 5.95962419679864,50.4298121181277,0 5.95962272800241,50.4298145449776,0 5.95958672800241,50.4298776449776,0 5.95958523105987,50.4298804547236,0 5.95958389919694,50.4298833463755,0 5.95955599919694,50.4299488463755,0 5.95955481138609,50.4299518813751,0 5.95955380542804,50.4299549814018,0 5.95953470542804,50.4300203814018,0 5.95953386432173,50.4300236256821,0 5.95953322238224,50.4300269151696,0 5.95953278199331,50.4300302376494,0 5.95951988199331,50.4301571376494,0 5.95951967873517,50.4301597581181,0 5.95951960090031,50.430162385305,0 5.95951964866647,50.4301650132107,0 5.95951982192458,50.4301676358336,0 5.95953002192458,50.4302808358336,0 5.95953039026356,50.4302839362043,0 5.95953093393627,50.4302870106786,0 5.95953165119077,50.430290049349,0 5.95955955119077,50.430394849349,0 5.9595603440592,50.4303975480107,0 5.95956127385642,50.430400202609,0 5.95956233815068,50.4304028062012,0 5.95960403815068,50.4304978062012,0 5.95960550743737,50.4305008896272,0 5.9596071652848,50.430503875906,0 5.9599112652848,50.431013675906,0 5.95991287003925,50.4310162067856,0 5.96002707003925,50.4311859067856,0 5.96002854761882,50.4311879958417,0 5.96003012076306,50.4311900139136,0 5.96012382076306,50.4313046139136,0 5.96012617129438,50.4313073053495,0 5.96025287129438,50.4314432053495,0 5.96025567377525,50.4314460023287,0 5.96036446147831,50.4315470265909,0 5.96053016143946,50.431708937985,0 5.96053177464949,50.4317104520937,0 5.9605334474493,50.4317119000967,0 5.9607358474493,50.4318801000967,0 5.96073869347691,50.4318823116677,0 5.96095459347691,50.4320390116677,0 5.96095630277322,50.4320402034978,0 5.96126520277322,50.4322470034978,0 5.96126630431339,50.4322477220257,0 5.96159020431339,50.4324535220257,0 5.96159101743898,50.4324540287832,0 5.96192871743899,50.4326604287832,0 5.96192926441252,50.4326607587422,0 5.96207556441252,50.4327478587422,0 5.96207684793069,50.4327485996497,0 5.96222914793069,50.4328337996497,0 5.96223127565067,50.4328349294876,0 5.96240057565067,50.4329201294876,0 5.96240337523625,50.4329214411016,0 5.96258167523625,50.4329989411016,0 5.96258260361579,50.4329993345537,0 5.9628051036158,50.4330912345537,0 5.96280719534319,50.4330920489492,0 5.96295199534319,50.4331450489492,0 5.96295276461226,50.4331453240572,0 5.96308246461226,50.4331906240572,0 5.96308330402981,50.4331909096678,0 5.96394325483044,50.4334757933691,0 5.96480427963352,50.4337628349634,0 5.96526542956672,50.4339190486293,0 5.96547454634993,50.4339937049051,0 5.96567012154676,50.4340780182245,0 5.96583675046129,50.4341514613006,0 5.96601051866528,50.4342448776725,0 5.96624098157489,50.4343844022335,0 5.96647374336636,50.4345425659403,0 5.96660756787976,50.4346542489343,0 5.96671322041461,50.434753988081,0 5.96680811069458,50.4348465208385,0 5.96689646330678,50.4349457715703,0 5.96708410972382,50.4351854760123,0 5.9675793439985,50.435890800603,0 5.96784093430964,50.4362706509097,0 5.96789711254128,50.436354138004,0 5.96795386513958,50.4364554751393,0 5.96798943509689,50.4365463139017,0 5.96800913823368,50.4366208192515,0 5.96801986996744,50.4367113390928,0 5.96802126651013,50.4367761386737,0 5.96801650786971,50.4368603012945,0 5.9679952645136,50.4369661486254,0 5.96795039915466,50.4370783586603,0 5.96786892615622,50.4372225931552,0 5.96686385334537,50.4389091441192,0 5.96686237643008,50.4389117850292,0 5.96686104698509,50.4389145031647,0 5.96675164698509,50.4391547031647,0 5.96675015026723,50.4391583264492,0 5.96666955026723,50.4393750264492,0 5.96666880140348,50.4393771748186,0 5.9666681420315,50.439379352321,0 5.9666284420315,50.439520952321,0 5.96662775674395,50.4395236591153,0 5.96659405674395,50.4396725591153,0 5.96659402336896,50.4396727075324,0 5.96653602336896,50.4399323075324,0 5.96653549718884,50.4399349696591,0 5.96653510295509,50.4399376544987,0 5.96649290406643,50.4402843453684,0 5.96642916290913,50.4408065632825,0 5.96636262882223,50.4412828914001,0 5.96636239420277,50.441284818825,0 5.96635079420277,50.441396518825,0 5.96635058589257,50.4413991274106,0 5.96635050189906,50.4414017429521,0 5.96635020189906,50.4414378429521,0 5.96635024822081,50.4414406025993,0 5.96635043292655,50.4414433564479,0 5.96635075555114,50.441446097563,0 5.96635121528212,50.4414488190416,0 5.96635181096176,50.4414515140303,0 5.96635254108998,50.4414541757424,0 5.9663534038281,50.4414567974749,0 5.96635439700351,50.4414593726256,0 5.96636729700351,50.4414904726256,0 5.96636852508181,50.4414932186374,0 5.96636990145479,50.4414958933999,0 5.96637142200527,50.4414984889121,0 5.96637308218479,50.4415009974099,0 5.96639168218479,50.4415274974099,0 5.96639323955252,50.4415296074102,0 5.96639489572985,50.441531640775,0 5.96639664695136,50.4415335928812,0 5.96639848923558,50.4415354592907,0 5.96640041839397,50.4415372357601,0 5.96642331839397,50.4415573357601,0 5.96642567853873,50.4415592935846,0 5.96642814413002,50.4415611168288,0 5.96643070750341,50.4415627998252,0 5.96646180750341,50.4415819998252,0 5.96646421783743,50.4415834047204,0 5.96646669631107,50.4415846855829,0 5.96646923654711,50.4415858391172,0 5.96647183200944,50.4415868623551,0 5.96651783200944,50.4416036623551,0 5.96652058392045,50.4416045858534,0 5.96652338072133,50.4416053628786,0 5.96652621462186,50.4416059912664,0 5.96652907772845,50.4416064692663,0 5.96659267772845,50.4416153692663,0 5.96659545646488,50.4416156863137,0 5.96659824772547,50.4416158616973,0 5.96660104429274,50.4416158949637,0 5.96666754429274,50.4416149949637,0 5.96667074602042,50.4416148582621,0 5.96679864602042,50.4416056582621,0 5.96679899021065,50.4416056324183,0 5.9668895481174,50.4415985469658,0 5.96703496565045,50.4416017249648,0 5.96713875921567,50.4416147450057,0 5.96718535144576,50.4416325663449,0 5.96720801079693,50.4416519800596,0 5.96721725625424,50.4416691923471,0 5.96722013649318,50.4416902011488,0 5.96721812059544,50.441711032092,0 5.96720843652971,50.4417307380398,0 5.96718309964265,50.441760166598,0 5.96703499645209,50.4418935282633,0 5.96703287225237,50.4418955460367,0 5.96703085851266,50.4418976740607,0</coordinates></LineString>
  </Placemark>
</Folder>
</Document></kml>
