<?xml version="1.0" encoding="utf-8" ?>
<kml xmlns="http://www.opengis.net/kml/2.2">
<Document id="root_doc">
<Schema name="qatar_bound" id="qatar_bound">
	<SimpleField name="highway" type="string"></SimpleField>
	<SimpleField name="lit" type="string"></SimpleField>
	<SimpleField name="oneway" type="string"></SimpleField>
	<SimpleField name="sport" type="string"></SimpleField>
</Schema>
<Folder><name>qatar_bound</name>
  <Placemark id="qatar_bound.1">
	<name>Lusail International Circuit</name>
	<Style><LineStyle><color>ff0000ff</color></LineStyle><PolyStyle><fill>0</fill></PolyStyle></Style>
	<ExtendedData><SchemaData schemaUrl="#qatar_bound">
		<SimpleData name="highway">raceway</SimpleData>
		<SimpleData name="lit">yes</SimpleData>
		<SimpleData name="oneway">yes</SimpleData>
		<SimpleData name="sport">motor</SimpleData>
	</SchemaData></ExtendedData>
      <LineString><coordinates>51.4524039268588,25.4845589539757,0 51.4511360511337,25.4866366503237,0 51.4475463284863,25.4925296874694,0 51.4475450914909,25.4925318247352,0 51.4475439516784,25.4925340153721,0 51.4475429113466,25.4925362549641,0 51.4474946113466,25.4926466549641,0 51.4474936452992,25.4926490100353,0 51.4474927892546,25.4926514072828,0 51.4474920450465,25.4926538415716,0 51.4474914142688,25.4926563076874,0 51.4474661142688,25.4927657076874,0 51.4474655352606,25.4927685511254,0 51.4474651070254,25.4927714211437,0 51.4474648307552,25.4927743097532,0 51.447464707219,25.4927772089133,0 51.447464007219,25.4928204089133,0 51.4474640345249,25.4928232484734,0 51.4474642083542,25.4928260828394,0 51.4474710083542,25.4929039828394,0 51.4474713166323,25.4929067208138,0 51.4474717616418,25.492909439914,0 51.4474818616418,25.492962739914,0 51.447482462537,25.4929655168179,0 51.447497662537,25.4930279168179,0 51.447498596597,25.4930312826943,0 51.4474997424339,25.4930345824897,0 51.4475212424339,25.4930906824897,0 51.4475223199278,25.4930932915756,0 51.4475235298674,25.4930958419421,0 51.4475248690654,25.493098326871,0 51.4475548690654,25.493150726871,0 51.447556140208,25.4931528361635,0 51.4475575044993,25.4931548864386,0 51.447558959204,25.4931568735855,0 51.447601759204,25.4932126735855,0 51.4476038314286,25.4932152146341,0 51.4476060513906,25.4932176276845,0 51.4476519513906,25.4932646276845,0 51.4476539755596,25.4932665966106,0 51.4476560981163,25.4932684590509,0 51.4476583134654,25.4932702100959,0 51.4477106134654,25.4933094100959,0 51.4477135404508,25.4933114589134,0 51.4477165942815,25.4933133133715,0 51.4478155942815,25.4933691133715,0 51.4478180266569,25.4933704051909,0 51.4478205206504,25.4933715736272,0 51.4478821206504,25.4933985736272,0 51.4478847161756,25.4933996332634,0 51.4478873623237,25.4934005592653,0 51.4479582623237,25.4934233592653,0 51.4479607738922,25.4934241014372,0 51.4479633179432,25.4934247232086,0 51.4479658887085,25.4934252231695,0 51.4480229887085,25.4934349231695,0 51.4480257832171,25.4934353243984,0 51.4480285946326,25.493435581703,0 51.4480970946326,25.493440081703,0 51.4480996196095,25.4934401893877,0 51.4481021468675,25.4934401809656,0 51.4481743468675,25.4934382809656,0 51.4481768044066,25.4934381612396,0 51.448179254132,25.4934379317216,0 51.448258354132,25.4934287317216,0 51.4482609646021,25.4934283644995,0 51.4482635544777,25.4934278726143,0 51.4482661178089,25.4934272571959,0 51.4483463178089,25.4934059571959,0 51.4483494923066,25.4934050108813,0 51.4483526040779,25.493403875176,0 51.4484312040779,25.493372475176,0 51.4484334389556,25.4933715246216,0 51.4484356296911,25.4933704763328,0 51.448437772013,25.4933693323535,0 51.449152172013,25.4929673323535,0 51.4498592582485,25.4925693972791,0 51.4499103828814,25.4925493061953,0 51.4499555581236,25.4925361527613,0 51.4500447391116,25.49251813077,0 51.4501717439038,25.492514217196,0 51.4502366741958,25.4925232327625,0 51.4502972796192,25.4925356834235,0 51.4503961123375,25.4925712447287,0 51.4504525202351,25.4926033608381,0 51.4504881763704,25.4926266677754,0 51.4505196505532,25.4926559480473,0 51.4505548936305,25.4926975311491,0 51.4506118796665,25.4927683147992,0 51.4506475939313,25.492831971765,0 51.4506663209119,25.4928938944698,0 51.450681949824,25.4929703842043,0 51.4506831865552,25.4929978396356,0 51.4506708032419,25.4941383028373,0 51.4506708308895,25.4941407430668,0 51.4506709667579,25.4941431796677,0 51.4506869667579,25.4943481796677,0 51.4506872861929,25.494351196906,0 51.4506877715259,25.4943541919381,0 51.4506884212799,25.4943571556495,0 51.4507219212799,25.4944920556495,0 51.4507227020514,25.4944948765605,0 51.4507236317861,25.4944976519409,0 51.4507247078511,25.4945003739304,0 51.4507259271988,25.4945030348201,0 51.4507581271988,25.4945686348201,0 51.4507592592239,25.4945708164252,0 51.4507604875851,25.4945729452772,0 51.4507618098295,25.4945750171246,0 51.4508073098295,25.4946429171246,0 51.4508087742299,25.4946449968081,0 51.4508103332159,25.4946470065632,0 51.4509302332158,25.4947944065632,0 51.4509320461033,25.4947965233502,0 51.450933963892,25.4947985455852,0 51.451277263892,25.4951426455852,0 51.4531046634512,25.4969743451434,0 51.4531065452409,25.4969761441242,0 51.4531085100513,25.4969778520424,0 51.4531779100513,25.4970353520424,0 51.4531804726667,25.4970373505647,0 51.4531831488438,25.4970391942472,0 51.4532662488439,25.4970928942472,0 51.4532689760802,25.4970945465566,0 51.4532717944883,25.4970960380391,0 51.4532746945946,25.4970973636815,0 51.4533546945946,25.4971311636815,0 51.4533576663234,25.4971323189113,0 51.4533607,25.4971333,0 51.4534111,25.497148,0 51.4534146573535,25.4971489098848,0 51.4534917573535,25.4971659098848,0 51.4534947329732,25.4971664805291,0 51.4534977355015,25.4971668864486,0 51.4535723355015,25.4971748864486,0 51.4535758835133,25.4971751511955,0 51.4535794412188,25.4971751859925,0 51.4536680412188,25.4971731859925,0 51.4536709356878,25.4971730442895,0 51.4536738186753,25.4971727503272,0 51.4536766821775,25.4971723049218,0 51.4537423821775,25.4971603049218,0 51.4537451059788,25.4971597358693,0 51.4537477975132,25.4971590297841,0 51.4538071975132,25.4971418297841,0 51.4538094994959,25.4971411081351,0 51.4538117676182,25.4971402862335,0 51.4538139975166,25.4971393656605,0 51.4538743975166,25.4971128656605,0 51.4538768247534,25.4971117294269,0 51.453879193759,25.4971104763038,0 51.453950193759,25.4970706763038,0 51.4539528405541,25.4970690934873,0 51.4539553944714,25.4970673648061,0 51.4539887944714,25.4970433648061,0 51.4539909991464,25.497041694983,0 51.4544260991464,25.496694594983,0 51.4544269970761,25.4966938630552,0 51.4545860970761,25.4965613630552,0 51.4545870934363,25.4965605129831,0 51.4546473934363,25.4965078129831,0 51.4546494669366,25.4965059049561,0 51.4546514399945,25.4965038932372,0 51.4546787399945,25.4964745932372,0 51.4546815455274,25.4964713356915,0 51.4547122455274,25.4964327356915,0 51.4547138575859,25.4964306045172,0 51.4547153642283,25.4964283975588,0 51.4547167618982,25.4964261200261,0 51.4547426618982,25.4963815200261,0 51.4547440573343,25.4963789635076,0 51.4547453154791,25.4963763367034,0 51.4547621154791,25.4963387367034,0 51.4547632074324,25.4963361128086,0 51.4547641623874,25.4963334360108,0 51.4547649777943,25.4963307134573,0 51.4547656514759,25.4963279524179,0 51.4547780514759,25.4962707524178,0 51.454778356665,25.4962692428284,0 51.454787156665,25.4962223428284,0 51.4547877022357,25.496218802716,0 51.4547966022357,25.496145202716,0 51.4547969013743,25.4961418922794,0 51.4547969999917,25.4961385698181,0 51.4547968977278,25.496135247467,0 51.4547912977278,25.496043547467,0 51.4547910596563,25.4960407908287,0 51.454790683251,25.4960380496517,0 51.4547901694645,25.4960353308733,0 51.4547708694645,25.4959456308733,0 51.4547702780807,25.4959431610635,0 51.4547695733143,25.4959407211866,0 51.4547687566679,25.4959383164447,0 51.4547445566679,25.4958721164447,0 51.4547435784862,25.4958696296692,0 51.4547424806715,25.495867193341,0 51.4547412658155,25.4958648132115,0 51.4547399367859,25.4958624948991,0 51.4546976367859,25.4957926948991,0 51.4546963870971,25.4957907280172,0 51.4546950552134,25.4957888158372,0 51.4546451552134,25.4957203158372,0 51.454643363866,25.4957179898497,0 51.4546414509563,25.4957157627618,0 51.4546394219347,25.4957136409194,0 51.4533071219347,25.4943928409194,0 51.4533065883067,25.4943923190295,0 51.4532034976752,25.4942928556609,0 51.4531801390773,25.4942553065155,0 51.4531701625596,25.4942314367731,0 51.4531637334619,25.494203347739,0 51.4531601,25.4941552265239,0 51.4531601,25.494130175567,0 51.4531620482282,25.494109419443,0 51.4531700647823,25.494078438802,0 51.4531761895338,25.4940601451363,0 51.4531850249949,25.4940404695296,0 51.4531971115366,25.4940225960983,0 51.4532152729388,25.4940013817017,0 51.4532460900579,25.4939756880243,0 51.4532997558682,25.4939519771867,0 51.4533265922271,25.4939436169503,0 51.4533614085919,25.4939359871676,0 51.4533967706067,25.4939317116595,0 51.4534307272947,25.4939297763042,0 51.4534645345369,25.4939314233237,0 51.4535015701738,25.4939363395587,0 51.4561733809226,25.4949034164977,0 51.4561761229377,25.4949043282574,0 51.4561789090547,25.4949050947466,0 51.4561817315827,25.4949057138494,0 51.4562588315827,25.4949205138494,0 51.4562619024947,25.4949210137269,0 51.4562649967595,25.4949213391536,0 51.4563484967595,25.4949277391536,0 51.4563516952071,25.494927890821,0 51.4563548970603,25.4949278561,0 51.4563580914668,25.4949276351084,0 51.4564514914668,25.4949184351083,0 51.4564539098627,25.4949181426859,0 51.4564563129379,25.4949177434631,0 51.4565325129379,25.4949033434631,0 51.4565350606186,25.4949027992207,0 51.4565375796697,25.4949021349477,0 51.4565400644393,25.4949013521344,0 51.4566071644393,25.4948784521344,0 51.4566103446778,25.4948772558794,0 51.4566134449807,25.4948758655325,0 51.4567033449807,25.4948321655325,0 51.4567063482621,25.4948305893675,0 51.4567092486796,25.4948288310805,0 51.4567913486796,25.4947755310805,0 51.4567937313715,25.4947738936222,0 51.4567960247273,25.4947721332219,0 51.4567982224103,25.4947702547439,0 51.456800318348,25.4947682633785,0 51.456871018348,25.4946974633785,0 51.456872806648,25.4946955860624,0 51.4568745044873,25.4946936265536,0 51.4569215044873,25.4946367265536,0 51.4569232984575,25.4946344337189,0 51.4569249685929,25.4946320491711,0 51.456926510214,25.4946295795913,0 51.456963910214,25.4945659795913,0 51.4569653778484,25.4945633181669,0 51.4569666962295,25.4945605797364,0 51.4569842962295,25.4945212797364,0 51.4569854594006,25.4945184777025,0 51.4569864662971,25.494515615794,0 51.4569873138554,25.494512702719,0 51.4570047138554,25.494446102719,0 51.4570054118058,25.4944430865601,0 51.4570059389432,25.4944400359085,0 51.4570173389432,25.4943608359085,0 51.4570176476062,25.4943582630428,0 51.4570178347401,25.4943556784942,0 51.4570178999296,25.4943530879999,0 51.4570179999296,25.4942905879999,0 51.4570179129865,25.4942874074429,0 51.457017642271,25.4942842372356,0 51.457017188689,25.4942810879872,0 51.457000288689,25.4941837879872,0 51.4569996442751,25.4941806297732,0 51.4569988159595,25.4941775147326,0 51.4569978065871,25.4941744535642,0 51.4569643065871,25.4940820535642,0 51.4569631624628,25.4940791565862,0 51.4569618561792,25.494076329021,0 51.4569603919257,25.4940735799369,0 51.4569587743984,25.4940709181504,0 51.4569178743984,25.4940077181504,0 51.4569159534385,25.4940049406495,0 51.4569138656382,25.494002286278,0 51.4568803656382,25.493962286278,0 51.4568784418641,25.4939601087694,0 51.4568764057793,25.4939580358947,0 51.4568742630663,25.4939560734392,0 51.4566669086563,25.4937759998745,0 51.4563542311709,25.4935005906193,0 51.456286153881,25.4934165007838,0 51.4561671505835,25.4932693926612,0 51.4560471705118,25.4930777973382,0 51.4559858655526,25.4929710670403,0 51.4558896347871,25.4927334759235,0 51.455838921585,25.4925810431774,0 51.4558099311678,25.4924666380411,0 51.455760788689,25.4922258995817,0 51.4557599956629,25.4922225525061,0 51.4557589949616,25.4922192615484,0 51.4557288949616,25.4921303615484,0 51.45572782754,25.492127477082,0 51.4557266005492,25.4921246567933,0 51.4557252178261,25.4921219095015,0 51.4557236836948,25.4921192437978,0 51.4556795836948,25.4920473437978,0 51.4556781405918,25.4920451136704,0 51.4556765914955,25.4920429558207,0 51.4556749400195,25.492040875282,0 51.4556036400195,25.491955375282,0 51.455601904175,25.4919533923152,0 51.4556000753341,25.4919514947761,0 51.4555981576957,25.4919496870215,0 51.4555961556627,25.491947973202,0 51.4555127556627,25.491879973202,0 51.4555101629814,25.4918779845024,0 51.4555074567788,25.4918761532759,0 51.4555046466068,25.491874485986,0 51.4554405466068,25.491838985986,0 51.4554382136665,25.4918377659791,0 51.4554358250176,25.4918366590087,0 51.4553983250176,25.4918203590087,0 51.4553962423524,25.491819503986,0 51.4553941264402,25.4918187349127,0 51.4553427264402,25.4918012349127,0 51.4553399036302,25.4918003577503,0 51.4553370377711,25.4917996335108,0 51.4543990377711,25.4915892335108,0 51.4538898946996,25.4914750861174,0 51.4537999277089,25.4914426835192,0 51.4537270493117,25.4913945348419,0 51.4536957843916,25.4913621975103,0 51.4536679655278,25.4913249028461,0 51.4536315971284,25.4912605796321,0 51.4536096831329,25.4912020553503,0 51.4536062728154,25.4911827302179,0 51.4536028585776,25.4911326846808,0 51.4536048042342,25.491070423672,0 51.4536200413423,25.4910045404941,0 51.4536327935453,25.4909753133953,0 51.4536516454236,25.4909432142511,0 51.4536967945372,25.4908840127027,0 51.4540399076829,25.4905570183068,0 51.4543128895319,25.4903625077044,0 51.4546197563202,25.4901850911275,0 51.4550370207594,25.490010968018,0 51.4551616351746,25.4899737001555,0 51.4553966002815,25.4899132663335,0 51.4555111650752,25.4898837232532,0 51.4557274285033,25.4898530246351,0 51.4559063401685,25.4898356345391,0 51.4561395663056,25.489829905138,0 51.456333256256,25.4898313784389,0 51.458534344697,25.4900589084778,0 51.4585378728797,25.4900591588515,0 51.4586489728797,25.4900634588515,0 51.458651673792,25.4900634970069,0 51.4586543733203,25.4900634025079,0 51.4587650733203,25.4900568025079,0 51.4587677170805,25.4900565807842,0 51.4587703470729,25.4900562318281,0 51.4587729571777,25.4900557564517,0 51.4589013571777,25.4900291564517,0 51.4589036125126,25.4900286395211,0 51.4589058441095,25.4900280281883,0 51.4590177441095,25.4899948281883,0 51.4590203998884,25.4899939663097,0 51.459023008505,25.4899929707619,0 51.4590255632365,25.4899918441105,0 51.4591226632365,25.4899460441105,0 51.4591249353868,25.4899449075083,0 51.4591271526247,25.4899436671909,0 51.4592142526247,25.4898922671909,0 51.4592167019086,25.4898907336553,0 51.4592190672659,25.4898890735926,0 51.4592829672659,25.4898416735926,0 51.4592856303116,25.4898395677195,0 51.459288158353,25.4898373015507,0 51.459357258353,25.4897714015507,0 51.4593601005533,25.4897684824464,0 51.4594307005533,25.4896903824464,0 51.459432353807,25.4896884667596,0 51.4594339171974,25.4896864770576,0 51.4594353874155,25.4896844175522,0 51.459436761349,25.4896822926027,0 51.459981261349,25.4887960926027,0 51.4599816405757,25.4887954660791,0 51.4600132405757,25.4887424660791,0 51.4600147763865,25.4887397138569,0 51.4600161520262,25.4887368781812,0 51.4600173629777,25.4887339683636,0 51.4600184052642,25.4887309939594,0 51.4600378052642,25.4886700939594,0 51.4600386046891,25.4886673377564,0 51.4600392592612,25.4886645436071,0 51.4600397671984,25.4886617191187,0 51.4600468671984,25.4886153191187,0 51.460047198333,25.4886127525963,0 51.4600474083775,25.4886101733388,0 51.4600507083775,25.4885530733388,0 51.4600507988652,25.4885502533118,0 51.4600510988652,25.4885035533118,0 51.4600510391295,25.488500613101,0 51.4600508223241,25.4884976802862,0 51.4600415223241,25.4884054802862,0 51.4600411626952,25.4884026515051,0 51.460040656937,25.4883998451652,0 51.460034256937,25.4883689451652,0 51.4600336594126,25.4883663728384,0 51.4600329391029,25.4883638321585,0 51.4600194391029,25.4883202321585,0 51.4600184727669,25.4883173884926,0 51.4600173526461,25.4883146018152,0 51.4599946526461,25.4882623018152,0 51.4599931358109,25.4882590944944,0 51.4599616358109,25.4881976944944,0 51.4599603794909,25.4881953834695,0 51.4599590141122,25.4881931351552,0 51.4599575427977,25.4881909546943,0 51.4591889427977,25.4871086546943,0 51.4591873761815,25.4871065563391,0 51.4591857114623,25.4871045349308,0 51.4591271114623,25.4870367349308,0 51.4591246886206,25.4870341091719,0 51.4590665886206,25.4869751091719,0 51.4590646291577,25.4869732155608,0 51.4590625783108,25.486971421324,0 51.4590604411143,25.4869697308657,0 51.459058222814,25.4869681483355,0 51.458994822814,25.4869252483355,0 51.4589920915958,25.486923515095,0 51.4589892632069,25.486921945416,0 51.4589103632069,25.486881145416,0 51.4589079156929,25.4868799555782,0 51.4589054123198,25.4868788882629,0 51.4589028592164,25.4868779460834,0 51.4589002626336,25.4868771313463,0 51.4587684626336,25.4868393313463,0 51.4587657941093,25.4868386379124,0 51.4587630941871,25.4868380790808,0 51.4587603696519,25.4868376562559,0 51.4587576273506,25.4868373705003,0 51.4586461273506,25.4868285705003,0 51.4586434174865,25.4868284237894,0 51.4586407036844,25.4868284109275,0 51.4586379925514,25.4868285319461,0 51.4585572925514,25.4868341319461,0 51.4585532462934,25.4868345636216,0 51.4584624462934,25.4868476636216,0 51.4584604380595,25.4868479913858,0 51.4561663272536,25.4872661204505,0 51.4560832037652,25.4872800383556,0 51.4559864967144,25.4872850937097,0 51.4559258069896,25.4872806015699,0 51.455870343015,25.4872723045201,0 51.4557726891287,25.4872425755913,0 51.4557364408863,25.4872280220576,0 51.4557024732346,25.4872117654988,0 51.4556436351631,25.4871704247274,0 51.4556193681262,25.4871493416635,0 51.4555909177139,25.4871199429042,0 51.4555396067524,25.4870477549691,0 51.4542403503792,25.4847732821762,0 51.4538817422726,25.484135445622,0 51.4538799045184,25.4841324104454,0 51.4538036045184,25.4840151104454,0 51.4538018314032,25.4840125465564,0 51.4537999158785,25.4840100872416,0 51.4537978640976,25.4840077404012,0 51.4537956826518,25.4840055135743,0 51.4537251826518,25.4839375135743,0 51.4537227289088,25.4839352855877,0 51.4537201454222,25.4839332094431,0 51.4537174415736,25.4839312926797,0 51.4536858415736,25.4839102926797,0 51.4536833660517,25.4839087407353,0 51.4536808116077,25.4839073224417,0 51.4535735116077,25.4838514224417,0 51.4535706974487,25.4838500566524,0 51.4535678101945,25.4838488530601,0 51.4534860101945,25.4838174530601,0 51.4534839064144,25.4838166942021,0 51.4534817735226,25.4838160214997,0 51.4534128735226,25.4837958214997,0 51.4534101560947,25.4837950997005,0 51.4534074053305,25.4837945177168,0 51.4534046284188,25.4837940770694,0 51.4533518284188,25.4837870770694,0 51.4533495123182,25.4837868198108,0 51.453347187399,25.483786660894,0 51.453283487399,25.483783660894,0 51.4532805978382,25.48378360083,0 51.4532777091117,25.4837836926395,0 51.4531865091117,25.4837889926395,0 51.4531839891459,25.4837891972931,0 51.4531814812476,25.4837895175386,0 51.4531789907163,25.4837899526994,0 51.4530847907163,25.4838086526994,0 51.4530806674737,25.4838096377855,0 51.4530124674737,25.4838287377855,0 51.4530099351928,25.4838295131868,0 51.4530074431735,25.4838304095872,0 51.4529405431735,25.4838563095872,0 51.4529378539984,25.4838574334991,0 51.4529352281372,25.4838586982891,0 51.452932672964,25.4838601004055,0 51.452869972964,25.4838967004055,0 51.4528677362275,25.4838980787214,0 51.4528655678653,25.4838995622814,0 51.4528634728254,25.4839011477002,0 51.4527912728254,25.4839585477002,0 51.4527885590013,25.4839608524526,0 51.4527859999841,25.4839633279639,0 51.4527485999841,25.4840019279639,0 51.4527462195092,25.4840045485696,0 51.4527193195092,25.4840361485696,0 51.4527174566889,25.4840384604929,0 51.4527157213401,25.4840408695701,0 51.4527141185196,25.4840433687811,0 51.4525301185196,25.4843480687811,0 51.452530004355,25.4843482586989,0</coordinates></LineString>
  </Placemark>
</Folder>
</Document></kml>
