<?xml version="1.0" encoding="utf-8" ?>
<kml xmlns="http://www.opengis.net/kml/2.2">
<Document id="root_doc">
<Schema name="qatar_bound" id="qatar_bound">
	<SimpleField name="highway" type="string"></SimpleField>
	<SimpleField name="lit" type="string"></SimpleField>
	<SimpleField name="oneway" type="string"></SimpleField>
	<SimpleField name="sport" type="string"></SimpleField>
</Schema>
<Folder><name>qatar_bound</name>
  <Placemark id="qatar_bound.1">
	<name>Lusail International Circuit</name>
	<Style><LineStyle><color>ff0000ff</color></LineStyle><PolyStyle><fill>0</fill></PolyStyle></Style>
	<ExtendedData><SchemaData schemaUrl="#qatar_bound">
		<SimpleData name="highway">raceway</SimpleData>
		<SimpleData name="lit">yes</SimpleData>
		<SimpleData name="oneway">yes</SimpleData>
		<SimpleData name="sport">motor</SimpleData>
	</SchemaData></ExtendedData>
      <LineString><coordinates>51.452498195645,25.4846156413011,0 51.4524979488663,25.4846160496763,0 51.4512299601957,25.4866939311107,0 51.4476422015909,25.4925837440359,0 51.4475974352597,25.4926860670786,0 51.4475745983923,25.4927848162208,0 51.4475740388346,25.4928193489261,0 51.4475803518193,25.4928916697372,0 51.4475896737847,25.4929408638713,0 51.4476037095054,25.4929984841984,0 51.447622439121,25.4930473554278,0 51.4476484926147,25.4930928621969,0 51.4476870425716,25.4931431212528,0 51.4477276829812,25.4931847356156,0 51.4477737231059,25.4932192437014,0 51.4478672041909,25.4932719330402,0 51.4479237091689,25.4932966998325,0 51.4479881911686,25.493317435934,0 51.4480386252475,25.4933260035446,0 51.4481017815323,25.4933301524976,0 51.4481689916826,25.4933283838094,0 51.448241710927,25.4933199259454,0 51.4483148762732,25.4933004942512,0 51.4483870077106,25.4932716783843,0 51.4490982266554,25.4928714683958,0 51.4498086253818,25.4924716691126,0 51.4498108605975,25.4924704780908,0 51.4498131482748,25.4924693912355,0 51.4498154835626,25.4924684108513,0 51.4498724835626,25.4924460108513,0 51.4498748355677,25.4924451478632,0 51.4498772244329,25.4924443928799,0 51.4499270244329,25.4924298928799,0 51.4499292534617,25.4924292943024,0 51.4499315056409,25.4924287897696,0 51.4500275056409,25.4924093897696,0 51.4500305508802,25.49240886296,0 51.450033620902,25.4924085080278,0 51.4500367060131,25.4924083260934,0 51.4501730060131,25.4924041260934,0 51.4501760997554,25.4924041178148,0 51.4501791890686,25.4924042835037,0 51.4501822641782,25.4924046226358,0 51.4502535641782,25.4924145226358,0 51.4502570679471,25.4924151251399,0 51.4503232679471,25.4924287251399,0 51.4503258183732,25.4924293126665,0 51.4503283379617,25.4924300208578,0 51.4503308210071,25.4924308481102,0 51.4504378210071,25.4924693481102,0 51.4504407591211,25.4924705015386,0 51.4504436262297,25.4924718216142,0 51.4504464128899,25.4924733039895,0 51.4505084128899,25.4925086039895,0 51.4505112926641,25.4925103627154,0 51.4505522926641,25.4925371627154,0 51.4505548570545,25.4925389448671,0 51.4505573161634,25.4925408696909,0 51.4505596620628,25.4925429309815,0 51.4505969620628,25.4925776309815,0 51.4505992795992,25.4925799186428,0 51.4506014576851,25.4925823394508,0 51.4506392576851,25.4926269394508,0 51.4506401415538,25.4926280094032,0 51.4507004415538,25.4927029094032,0 51.4507022893185,25.4927053396692,0 51.4507039993894,25.4927078687172,0 51.4507055664977,25.4927104887551,0 51.4507464664977,25.4927833887551,0 51.4507478587985,25.4927860366736,0 51.4507491050631,25.4927887563793,0 51.450750201604,25.4927915398255,0 51.4507511451769,25.4927943787767,0 51.4507723451769,25.4928644787767,0 51.4507730224662,25.4928669198444,0 51.4507735866321,25.4928693895103,0 51.4507905866321,25.4929525895103,0 51.4507910875499,25.492955414988,0 51.4507914404213,25.4929582627459,0 51.4507916442857,25.4929611250322,0 51.4507931442857,25.4929944250322,0 51.4507931967581,25.4929974971627,0 51.4507808232741,25.4941370551172,0 51.4507962782516,25.4943350720164,0 51.4508272623319,25.4944598407457,0 51.4508552457323,25.4945168504061,0 51.4508972731134,25.4945795681902,0 51.4510138064148,25.494722829313,0 51.451355136108,25.4950649544148,0 51.4531806963159,25.4968948102935,0 51.4532455842134,25.49694857188,0 51.4533219231421,25.4969979028123,0 51.4533945647025,25.4970285938716,0 51.453440136518,25.4970418856511,0 51.4535124805016,25.4970578369834,0 51.4535805213437,25.4970651335884,0 51.4536612034076,25.4970633123229,0 51.4537198778672,25.4970525955266,0 51.4537731212991,25.4970371782366,0 51.4538277460965,25.4970132120589,0 51.4538937129339,25.4969762334655,0 51.4539234821928,25.4969548423813,0 51.4543570480345,25.4966089662525,0 51.4545151996828,25.4964772560488,0 51.4545728827762,25.4964268431297,0 51.4545967935329,25.4964011806693,0 51.4546236547671,25.4963674072607,0 51.4546460739236,25.4963288013002,0 51.4546593572063,25.4962990720484,0 51.4546703853605,25.4962482002401,0 51.4546787128811,25.4962038183405,0 51.4546867974748,25.4961369614761,0 51.4546817557654,25.4960544034852,0 51.4546641331976,25.4959724996336,0 51.4546430842747,25.4959149195224,0 51.4546047717685,25.4958516993584,0 51.4545588435968,25.4957886516678,0 51.4532299431085,25.494471221836,0 51.4531222116933,25.4943672809705,0 51.4531203052318,25.4943653485001,0 51.4531184964429,25.4943633243162,0 51.4531167897331,25.4943612133499,0 51.4531151892598,25.4943590207435,0 51.453113698922,25.4943567518383,0 51.453084398922,25.4943096518383,0 51.4530829112591,25.4943071112288,0 51.4530815616764,25.494304494654,0 51.4530803540407,25.4943018096115,0 51.4530668540407,25.4942695096115,0 51.4530657288769,25.4942665862405,0 51.4530647719658,25.4942636035552,0 51.4530639864111,25.4942605712301,0 51.4530555864111,25.4942238712301,0 51.4530550412462,25.4942211827649,0 51.4530546308076,25.4942184704613,0 51.4530543561164,25.4942157410667,0 51.4530502561164,25.4941614410667,0 51.4530501,25.4941573,0 51.4530501,25.4941276,0 51.453050160206,25.4941250272523,0 51.453050340692,25.4941224601372,0 51.453052940692,25.4940947601372,0 51.453053291524,25.4940918552665,0 51.4530537963428,25.4940889731641,0 51.4530544537198,25.4940861219868,0 51.4530640537198,25.4940490219868,0 51.4530651454397,25.4940453385613,0 51.4530727454397,25.4940226385613,0 51.4530736732864,25.4940200794152,0 51.4530747266195,25.4940175693122,0 51.4530866266196,25.4939910693122,0 51.4530880045495,25.4939882227659,0 51.4530895438112,25.493985460124,0 51.4530912393154,25.4939827905207,0 51.4531077393154,25.4939583905207,0 51.4531095588994,25.4939558575927,0 51.453111519129,25.4939534318743,0 51.453134719129,25.4939263318743,0 51.4531367840033,25.4939240521406,0 51.453138973092,25.4939218914042,0 51.4531412795486,25.4939198564229,0 51.4531815795486,25.4938862564229,0 51.4531839898792,25.4938843582287,0 51.4531865023044,25.4938825973896,0 51.4531891090063,25.4938809793848,0 51.4531918018738,25.493879509249,0 51.4531945725274,25.4938781915567,0 51.4532581725274,25.4938500915567,0 51.4532610755869,25.4938489066309,0 51.4532640414542,25.493847889068,0 51.4532961414542,25.493837889068,0 51.4532984208794,25.4938372325441,0 51.4533007264932,25.4938366749171,0 51.4533404264932,25.4938279749171,0 51.4533430018845,25.4938274745939,0 51.4533455982049,25.493827097653,0 51.4533852982049,25.493822297653,0 51.453388770364,25.4938219891142,0 51.453427370364,25.4938197891142,0 51.4534302730221,25.4938197004684,0 51.453433176313,25.4938197651536,0 51.453472176313,25.4938216651536,0 51.4534744611577,25.4938218242123,0 51.453476737399,25.4938220782607,0 51.453521937399,25.4938280782607,0 51.4535248603218,25.4938285466203,0 51.4535277538122,25.493829171562,0 51.4535306094882,25.4938299512756,0 51.4535334190775,25.4938308835023,0 51.4562067344706,25.4947985050558,0 51.4562765092005,25.494811898908,0 51.4563521013316,25.4948176927959,0 51.4564382824695,25.4948092038615,0 51.4565082404436,25.494795983457,0 51.456568415278,25.4947754468891,0 51.456652200208,25.494734719398,0 51.4567265829972,25.4946864294752,0 51.4567913480714,25.4946215727956,0 51.4568339082913,25.4945700477634,0 51.4568675474109,25.4945128432712,0 51.456882039261,25.4944804836287,0 51.4568975026521,25.4944212961661,0 51.4569079063005,25.4943490181879,0 51.4569079924139,25.4942951972976,0 51.4568927409581,25.49420738862,0 51.4568630260981,25.494125428827,0 51.4568273629836,25.4940703210315,0 51.4567988389393,25.4940362624712,0 51.4565946369337,25.4938589265608,0 51.4565943466438,25.4938586726725,0 51.4562780466438,25.4935800726725,0 51.4562757918521,25.4935779715575,0 51.4562736582934,25.4935757474402,0 51.4562716526672,25.4935734073047,0 51.4562006526672,25.4934857073047,0 51.4560795395612,25.4933359911098,0 51.45607753107,25.4933333490673,0 51.4560756855883,25.4933305906941,0 51.4559533855883,25.4931352906941,0 51.4559523076144,25.4931334940934,0 51.4558886076144,25.4930225940934,0 51.4558874105989,25.4930203957627,0 51.4558863148451,25.4930181452455,0 51.4558853226226,25.4930158472031,0 51.4557870226226,25.4927731472031,0 51.4557858123912,25.492769862416,0 51.4557339123912,25.492613862416,0 51.4557327851044,25.4926100100671,0 51.4557029851044,25.4924924100671,0 51.455702411311,25.4924899004183,0 51.455653700296,25.4922512756078,0 51.4556266862727,25.492171490004,0 51.4555879034035,25.4921082589769,0 51.4555225463546,25.4920298855172,0 51.4554470536826,25.4919683327391,0 51.4553895584472,25.491936490604,0 51.4553565410102,25.4919221390247,0 51.4553100748142,25.4919063188218,0 51.4543749651082,25.4916965671351,0 51.4538624679474,25.4915816677716,0 51.4538591354304,25.491580810321,0 51.4538558630557,25.4915797461526,0 51.4537564630557,25.4915439461526,0 51.4537540205304,25.4915430001571,0 51.4537516258142,25.4915419389445,0 51.4537492843386,25.4915407649218,0 51.453747001414,25.4915394807515,0 51.4537447822184,25.4915380893464,0 51.4536613822184,25.4914829893464,0 51.4536589228947,25.4914812662922,0 51.453656561276,25.4914794115832,0 51.4536543044019,25.4914774307481,0 51.4536521589999,25.4914753296915,0 51.4536142589999,25.4914361296915,0 51.4536119010982,25.4914335297913,0 51.453609713828,25.4914307847903,0 51.453577713828,25.4913878847903,0 51.4535757264865,25.4913850371661,0 51.4535739228068,25.4913820698055,0 51.4535337228068,25.4913109698055,0 51.4535323780047,25.4913084396654,0 51.4535311667952,25.4913058429227,0 51.4535300924657,25.491303186625,0 51.4535048924657,25.491235886625,0 51.4535040617274,25.4912335028171,0 51.4535033412485,25.4912310834005,0 51.4535027325467,25.4912286334722,0 51.4535022369043,25.4912261581934,0 51.4534974369043,25.4911989581934,0 51.4534970047606,25.4911960603183,0 51.4534967275489,25.4911931435424,0 51.4534929275489,25.4911374435424,0 51.4534928093493,25.4911347140666,0 51.4534928268358,25.4911319820886,0 51.4534950268358,25.4910615820886,0 51.4534951770047,25.4910588910113,0 51.4534954588293,25.4910562105221,0 51.4534958716329,25.491053547058,0 51.4534964144242,25.4910509070153,0 51.4535140144242,25.4909748070153,0 51.4535146414895,25.4909723542542,0 51.4535153807612,25.4909699329477,0 51.4535162306728,25.4909675482259,0 51.4535171894237,25.4909652051415,0 51.4535332894237,25.4909283051415,0 51.4535346942312,25.4909253313272,0 51.4535362742777,25.490922446798,0 51.4535584742777,25.490884646798,0 51.4535602375914,25.4908818414866,0 51.4535621666341,25.4908791474483,0 51.453611966634,25.4908138474483,0 51.4536137819555,25.4908115927318,0 51.4536157133884,25.4908094366462,0 51.4536177555827,25.4908073851636,0 51.4539668555827,25.4904746851636,0 51.4539687854928,25.4904729313187,0 51.4539707963673,25.4904712709246,0 51.4539728836856,25.4904697077141,0 51.4542511836856,25.4902714077141,0 51.4542533439908,25.4902699444066,0 51.4542555712662,25.4902685852038,0 51.4545677712662,25.4900880852038,0 51.4545708944352,25.4900864113765,0 51.4545741189047,25.4900849421316,0 51.4549973189047,25.4899083421316,0 51.455000004627,25.4899073030775,0 51.4550027410526,25.4899064060195,0 51.4551311410526,25.4898680060195,0 51.4551331997185,25.4898674336665,0 51.4553691830086,25.4898067379643,0 51.455486666305,25.4897764422717,0 51.4554896516096,25.4897757604773,0 51.4554926702321,25.4897752458846,0 51.4557131702321,25.4897439458846,0 51.4557155791123,25.4897436579855,0 51.4558976791123,25.4897259579855,0 51.4559016492851,25.4897257165882,0 51.4561377492851,25.4897199165882,0 51.4561395183449,25.489719901591,0 51.4563367183449,25.489721401591,0 51.456339340282,25.4897214840944,0 51.456341955303,25.4897216915222,0 51.4585438952391,25.4899493095815,0 51.4586505255151,25.4899534365859,0 51.4587545468371,25.4899472347727,0 51.458876775608,25.489921913236,0 51.4589824324773,25.4898905655322,0 51.4590734371277,25.4898476405786,0 51.4591558560701,25.4897990029938,0 51.4592147020574,25.4897553519798,0 51.4592798664503,25.4896932053301,0 51.4593456957649,25.4896203828164,0 51.459887346952,25.4887388193966,0 51.4599155166936,25.4886915726782,0 51.4599316853228,25.4886408165175,0 51.4599377410548,25.4886012410292,0 51.4599408102002,25.4885481355138,0 51.4599410822232,25.4885057906023,0 51.4599323641417,25.4884193597305,0 51.4599270791238,25.4883938430034,0 51.4599152502259,25.4883556400442,0 51.4598944540205,25.4883077263198,0 51.4598655685034,25.4882514224866,0 51.4591007747114,25.4871744821781,0 51.4590450572939,25.4871100173162,0 51.4589920482446,25.4870561871284,0 51.4589358597347,25.4870181668276,0 51.4588646877919,25.4869813630853,0 51.4587434563696,25.4869465941341,0 51.4586415386194,25.4869385504014,0 51.4585669385676,25.4869437271088,0 51.4584791608556,25.4869563910739,0 51.4561856619405,25.4873744086142,0 51.4561848825721,25.4873745448789,0 51.4560982825721,25.4873890448789,0 51.4560951865528,25.4873894732218,0 51.4560920712007,25.4873897250053,0 51.4559887712007,25.4873951250053,0 51.4559853044714,25.4873951967758,0 51.4559818401093,25.4873950499525,0 51.4559156401093,25.4873901499525,0 51.4559115629009,25.4873896947389,0 51.4558500629009,25.4873804947389,0 51.4558474079398,25.4873800308023,0 51.4558447788941,25.4873794373595,0 51.4558421820771,25.4873787158355,0 51.4557383820771,25.4873471158355,0 51.4557361278865,25.4873463761011,0 51.4557339076946,25.4873455398415,0 51.4556938076946,25.4873294398415,0 51.455690556683,25.487328011036,0 51.455650856683,25.487309011036,0 51.4556481475284,25.4873076210198,0 51.455645519451,25.4873060832054,0 51.4556429805058,25.4873044023065,0 51.4555780805058,25.4872588023065,0 51.4555758096744,25.487257117962,0 51.4555736283997,25.487255319148,0 51.4555454283997,25.487230819148,0 51.455543667274,25.4872292209825,0 51.4555419768822,25.4872275481785,0 51.4555089768822,25.4871934481785,0 51.4555071017379,25.4871914102734,0 51.4555053315499,25.487189280565,0 51.4555036708059,25.4871870644529,0 51.4554483708059,25.4871092644529,0 51.4554468500166,25.4871070087663,0 51.4554454426265,25.4871046806393,0 51.4541447426265,25.4848276806393,0 51.4541445577274,25.484827354378,0 51.4537867276273,25.4841909016213,0 51.4537148100688,25.4840803389789,0 51.4536524059203,25.4840201477435,0 51.4536273944316,25.4840035261846,0 51.4535254659444,25.4839504245775,0 51.4534486790177,25.4839209489113,0 51.4533859820078,25.4839025674947,0 51.4533396832685,25.4838964294043,0 51.4532812025796,25.4838936752117,0 51.4531966832408,25.4838985869715,0 51.4531082899012,25.4839161342693,0 51.4530446849614,25.483933947383,0 51.452984342931,25.4839573084979,0 51.4529288367267,25.4839897092487,0 51.4528625185647,25.484042433106,0 51.4528288324476,25.4840772000611,0 51.4528059739841,25.4841040523825,0 51.452624338754,25.484404836375,0</coordinates></LineString>
  </Placemark>
</Folder>
</Document></kml>
