<?xml version="1.0" encoding="utf-8" ?>
<kml xmlns="http://www.opengis.net/kml/2.2">
<Document id="root_doc">
<Schema name="baku_circuit_boundary3" id="baku_circuit_boundary3">
	<SimpleField name="access" type="string"></SimpleField>
	<SimpleField name="addr_stree" type="string"></SimpleField>
	<SimpleField name="bench" type="string"></SimpleField>
	<SimpleField name="bicycle" type="string"></SimpleField>
	<SimpleField name="bin" type="string"></SimpleField>
	<SimpleField name="bus" type="string"></SimpleField>
	<SimpleField name="button_ope" type="string"></SimpleField>
	<SimpleField name="crossing" type="string"></SimpleField>
	<SimpleField name="crossing_i" type="string"></SimpleField>
	<SimpleField name="crossing_m" type="string"></SimpleField>
	<SimpleField name="crossing_s" type="string"></SimpleField>
	<SimpleField name="cycleway_b" type="string"></SimpleField>
	<SimpleField name="cycleway_l" type="string"></SimpleField>
	<SimpleField name="cycleway_1" type="string"></SimpleField>
	<SimpleField name="cycleway_r" type="string"></SimpleField>
	<SimpleField name="enforcemen" type="string"></SimpleField>
	<SimpleField name="foot" type="string"></SimpleField>
	<SimpleField name="highway" type="string"></SimpleField>
	<SimpleField name="horse" type="string"></SimpleField>
	<SimpleField name="int_name" type="string"></SimpleField>
	<SimpleField name="int_ref" type="string"></SimpleField>
	<SimpleField name="kerb" type="string"></SimpleField>
	<SimpleField name="lanes" type="string"></SimpleField>
	<SimpleField name="lanes_back" type="string"></SimpleField>
	<SimpleField name="lanes_forw" type="string"></SimpleField>
	<SimpleField name="lit" type="string"></SimpleField>
	<SimpleField name="maxspeed" type="string"></SimpleField>
	<SimpleField name="motor_vehi" type="string"></SimpleField>
	<SimpleField name="name_az" type="string"></SimpleField>
	<SimpleField name="name_az-cy" type="string"></SimpleField>
	<SimpleField name="name_en" type="string"></SimpleField>
	<SimpleField name="name_ru" type="string"></SimpleField>
	<SimpleField name="oneway" type="string"></SimpleField>
	<SimpleField name="oneway_bic" type="string"></SimpleField>
	<SimpleField name="parking_bo" type="string"></SimpleField>
	<SimpleField name="public_tra" type="string"></SimpleField>
	<SimpleField name="shelter" type="string"></SimpleField>
	<SimpleField name="sidewalk_b" type="string"></SimpleField>
	<SimpleField name="sidewalk_l" type="string"></SimpleField>
	<SimpleField name="sidewalk_r" type="string"></SimpleField>
	<SimpleField name="sport" type="string"></SimpleField>
	<SimpleField name="surface" type="string"></SimpleField>
	<SimpleField name="traffic_si" type="string"></SimpleField>
	<SimpleField name="traffic__1" type="string"></SimpleField>
	<SimpleField name="traffic__2" type="string"></SimpleField>
	<SimpleField name="turn_lanes" type="string"></SimpleField>
	<SimpleField name="wikidata" type="string"></SimpleField>
	<SimpleField name="wikipedia" type="string"></SimpleField>
</Schema>
<Folder><name>baku_circuit_boundary3</name>
  <Placemark id="baku_circuit_boundary3.1">
	<name>Pu?kin küç?si</name>
	<Style><LineStyle><color>ff0000ff</color></LineStyle><PolyStyle><fill>0</fill></PolyStyle></Style>
	<ExtendedData><SchemaData schemaUrl="#baku_circuit_boundary3">
		<SimpleData name="highway">secondary</SimpleData>
		<SimpleData name="lanes">5</SimpleData>
		<SimpleData name="lanes_back">3</SimpleData>
		<SimpleData name="lanes_forw">2</SimpleData>
		<SimpleData name="lit">yes</SimpleData>
		<SimpleData name="name_az">Pu?kin küç?si</SimpleData>
		<SimpleData name="name_az-cy">?????? ??????</SimpleData>
		<SimpleData name="name_en">Pushkin Street</SimpleData>
		<SimpleData name="name_ru">????? ???????</SimpleData>
		<SimpleData name="oneway">no</SimpleData>
		<SimpleData name="surface">asphalt</SimpleData>
	</SchemaData></ExtendedData>
      <LineString><coordinates>49.85058403707,40.37176967034,0 49.8505854951941,40.3717701604623,0 49.8506744652603,40.3718015382981,0 49.8514240298273,40.372044432388,0 49.8514241306529,40.3720444651739,0 49.8551547306529,40.3732617651739,0 49.855157218882,40.3732626475826,0 49.8551596591184,40.3732636551419,0 49.8551620450721,40.3732647852545,0 49.8551643705928,40.3732660350075,0 49.8551666296864,40.3732674011794,0 49.8551688165295,40.3732688802488,0 49.8551709254855,40.3732704684031,0 49.8551729511181,40.3732721615487,0 49.855174888206,40.3732739553211,0 49.8551767317561,40.3732758450969,0 49.8551784770164,40.3732778260047,0 49.8552056770164,40.3733103260047,0 49.855207306046,40.3733123751194,0 49.8552088298889,40.3733145036191,0 49.8552102446834,40.3733167061096,0 49.855211546844,40.3733189770094,0 49.8552127330708,40.3733213105634,0 49.8552138003574,40.3733237008578,0 49.8552147459993,40.3733261418351,0 49.8552155675998,40.373328627309,0 49.8552162630768,40.3733311509809,0 49.8552256630768,40.3733689509809,0 49.8552262665049,40.3733716912242,0 49.8552267212459,40.3733744600271,0 49.855227025976,40.3733772493278,0 49.8552271798077,40.373380051005,0 49.8552271822933,40.373382856901,0 49.8552270334255,40.3733856588463,0 49.8552229334255,40.3734367588463,0 49.8552226570927,40.3734393724586,0 49.855222249058,40.3734419687708,0 49.8552217103638,40.3734445411506,0 49.8552210423861,40.373447083027,0 49.8552202468313,40.3734495879066,0 49.8552015468313,40.3735036879066,0 49.8552006933522,40.3735059808748,0 49.855199732961,40.3735082311589,0 49.855175532961,40.3735614311589,0 49.8551748051602,40.3735629642374,0 49.8550490051602,40.3738171642374,0 49.8550473421222,40.373820257325,0 49.8549437421222,40.373998257325,0 49.8549435417093,40.3739985986688,0 49.8548318417093,40.3741871986688,0 49.8548317883817,40.3741872885039,0 49.8546967883817,40.3744141885039,0 49.85469670776,40.3744143235429,0 49.85468370776,40.3744360235429,0 49.8546830129596,40.3744371505293,0 49.8541667508371,40.3752511601116,0 49.8540912877963,40.3753788515201,0 49.8540789069213,40.3754002456721,0 49.8540779146478,40.3754018895428,0 49.8540166681661,40.3754992455137,0 49.8539718431043,40.3755722828402,0 49.8538889199366,40.3757224383248,0 49.8538888382312,40.3757225857103,0 49.8536627382312,40.3761288857103,0 49.8536279321559,40.3761913966244,0 49.8536265716545,40.3761936987186,0 49.8536250946077,40.3761959278292,0 49.8536235049214,40.3761980780616,0 49.8536218067995,40.3762001437294,0 49.8536200047326,40.3762021193703,0 49.8536181034862,40.3762039997595,0 49.853616108088,40.3762057799246,0 49.8536140238148,40.3762074551581,0 49.8536118561784,40.3762090210297,0 49.8536096109109,40.3762104733987,0 49.8536072939499,40.3762118084243,0 49.8536049114225,40.3762130225761,0 49.853602469629,40.3762141126433,0 49.8535999750269,40.3762150757433,0 49.8535974342128,40.3762159093293,0 49.8535948539059,40.3762166111969,0 49.8535922409297,40.3762171794899,0 49.8535896021941,40.3762176127056,0 49.853586944677,40.3762179096984,0 49.8535842754062,40.3762180696828,0 49.8535816014404,40.3762180922359,0 49.8535789298508,40.3762179772979,0 49.8535762677023,40.3762177251728,0 49.8535736220348,40.3762173365273,0 49.8535709998447,40.3762168123893,0 49.8535684080662,40.3762161541447,0 49.8534693080662,40.3761882541447,0 49.85346872827,40.3761880872763,0 49.8528815425473,40.3760153973436,0 49.8517756625459,40.3757242868751,0 49.8517737859379,40.3757237550513,0 49.8515933859379,40.3756689550513,0 49.8515930672545,40.3756688571281,0 49.8515383958471,40.3756518660142,0 49.8515258244461,40.3756479748663,0 49.8514635897523,40.3756286641145,0 49.8514625630385,40.3756283338251,0 49.8501732026611,40.375198746887,0 49.8498055535231,40.3750916239422,0 49.8498027372019,40.3750907156428,0 49.8497999771087,40.3750896486105,0 49.8497222298554,40.3750570199375,0 49.8496106819228,40.3750236141644,0 49.8496086132648,40.3750229472362,0 49.8469899132648,40.3741178472362,0 49.846989665272,40.3741177608209,0 49.8468510350553,40.3740690609819,0 49.846771711696,40.3740432486247,0 49.8467053140534,40.3740216493915,0 49.8467042248879,40.3740212817229,0 49.8442439498527,40.3731603604446,0 49.8440916755291,40.3731086371006,0 49.8440891506027,40.3731077059076,0 49.8440866772338,40.3731066453323,0 49.8440842620469,40.3731054582156,0 49.844081911511,40.3731041477368,0 49.8440796319216,40.373102717406,0 49.8440774293844,40.3731011710542,0 49.8440753097987,40.3730995128231,0 49.8440732788416,40.3730977471542,0 49.8440713419527,40.3730958787765,0 49.8440695043198,40.3730939126943,0 49.8440677708649,40.3730918541735,0 49.8440661462307,40.3730897087278,0 49.8440646347687,40.3730874821033,0 49.8440632405271,40.373085180264,0 49.8440619672404,40.373082809375,0 49.8440608183188,40.3730803757865,0 49.8440597968397,40.3730778860165,0 49.8440589055389,40.3730753467338,0 49.8440581468037,40.3730727647395,0 49.8440575226663,40.3730701469492,0 49.8440570347984,40.3730675003743,0 49.8440566845066,40.3730648321034,0 49.8440564727293,40.3730621492832,0 49.8440564000336,40.3730594590993,0 49.8440564666142,40.3730567687572,0 49.8440566722928,40.3730540854626,0 49.8440570165185,40.3730514164023,0 49.8440574983694,40.3730487687253,0 49.8440581165548,40.373046149523,0 49.844058869419,40.3730435658107,0 49.8440597549456,40.3730410245086,0 49.8440607707628,40.3730385324233,0 49.8440619141497,40.3730360962295,0 49.844100179239,40.3729597658686,0 49.8444271445374,40.3723026356113,0 49.8444283271835,40.3723003970962,0 49.844445084771,40.3722704659139,0 49.844479484207,40.3722023570018,0 49.8444806052412,40.372200258175,0 49.8445384037963,40.3720977607374,0 49.8450336023312,40.3712193633361,0 49.8450717675405,40.3711516866559,0 49.8445707889879,40.3709786424754,0 49.8444670632156,40.370944067218,0 49.8439895704297,40.3707872024397,0 49.8439891570732,40.3707870647236,0 49.8438708322268,40.3707470914604,0 49.843333109267,40.3705745124692,0 49.8433312453791,40.3705738750799,0 49.8432332453791,40.3705382750799,0 49.843231201237,40.3705374833545,0 49.8432291922797,40.370536606179,0 49.8421892922797,40.370056206179,0 49.8421891731532,40.3700561509638,0 49.8421033731532,40.3700162509638,0 49.8421012652898,40.3700152121752,0 49.8420992065107,40.3700140792154,0 49.8419694065107,40.3699387792154,0 49.841966912296,40.3699372366571,0 49.841873012296,40.3698754366571,0 49.8418724160443,40.369875038317,0 49.8418053160443,40.369829538317,0 49.8418031038342,40.3698279521504,0 49.8417491038342,40.3697870521504,0 49.8417464154113,40.369784871374,0 49.8417093154113,40.369752671374,0 49.8417074586937,40.369750979549,0 49.8417056858437,40.3697492000337,0 49.8417040009981,40.3697473369806,0 49.8417024080884,40.3697453947369,0 49.8417009108317,40.3697433778348,0 49.8416995127217,40.3697412909806,0 49.8416791127217,40.3697091909806,0 49.8416778125459,40.3697070311872,0 49.8416766185735,40.3697048109183,0 49.8416755336105,40.369702535392,0 49.841674560207,40.3697002099565,0 49.8416737006507,40.3696978400773,0 49.8416729569618,40.3696954313243,0 49.8416620569618,40.3696568313243,0 49.8416613250035,40.3696539205047,0 49.8416607622069,40.369650972303,0 49.841660370447,40.3696479965413,0 49.841657370447,40.3696186965413,0 49.8416571668516,40.369616035925,0 49.8416571000096,40.3696133683676,0 49.841657170097,40.3696107008935,0 49.8416573769293,40.3696080405269,0 49.8416577199617,40.3696053942731,0 49.8416644199617,40.3695623942731,0 49.8416648697731,40.369559906574,0 49.8416654399595,40.3695574436764,0 49.8416661291732,40.3695550114014,0 49.8416669357853,40.3695526154978,0 49.8416772357853,40.3695243154978,0 49.8416777715993,40.3695229071449,0 49.841791461252,40.3692366319113,0 49.841793366302,40.3692171459713,0 49.8417857421689,40.3691869241828,0 49.8417741056302,40.3691625227137,0 49.8417573149385,40.3691417570828,0 49.8417304978754,40.3691210985894,0 49.8411225836003,40.3687698238487,0 49.8411220332328,40.3687695013074,0 49.8401860096255,40.3682132061407,0 49.8389626829839,40.3674991656965,0 49.8387812866261,40.3673943255977,0 49.8385284938747,40.367248329784,0 49.8385276578994,40.3672478365202,0 49.8384609578994,40.3672076365202,0 49.8384583937084,40.3672059867114,0 49.8384559306227,40.3672041894487,0 49.8383949694663,40.367156907381,0 49.8383197367015,40.3671016538384,0 49.8382979390618,40.3670899020674,0 49.838273815736,40.3670878588349,0 49.8382401410584,40.3670872279276,0 49.8381683189261,40.3671063981646,0 49.8381265828912,40.3671219484633,0 49.8381148796028,40.3671312434938,0 49.8373711612097,40.3687136188276,0 49.8373699879082,40.3687159601693,0 49.837368698215,40.3687182394693,0 49.8373672954014,40.3687204509464,0 49.8373657830255,40.3687225889914,0 49.8373641649233,40.3687246481812,0 49.8373624451992,40.3687266232928,0 49.837360628215,40.3687285093166,0 49.8373587185793,40.3687303014686,0 49.837356721136,40.3687319952033,0 49.837327921136,40.3687551952033,0 49.8373257657943,40.3687568406618,0 49.8373235276064,40.3687583715266,0 49.8373212126588,40.3687597836347,0 49.8373188272464,40.3687610731461,0 49.837316377856,40.3687622365542,0 49.8373138711482,40.3687632706954,0 49.8372832711482,40.3687749706954,0 49.8372797448436,40.3687761760252,0 49.8372486448436,40.3687855760252,0 49.8372461937499,40.3687862519322,0 49.8372437125471,40.368786807219,0 49.8372412071673,40.368787240558,0 49.8372386836003,40.3687875509131,0 49.8372361478794,40.3687877375424,0 49.8372096478794,40.3687890375424,0 49.8372071534371,40.3687890999725,0 49.8372046588717,40.3687890426693,0 49.8372021699272,40.3687888657646,0 49.8371748699272,40.3687862657646,0 49.8371709041637,40.3687857334275,0 49.8371114519746,40.3687754105394,0 49.8370910482053,40.3687740874281,0 49.8370739626067,40.3687770163878,0 49.8368683939425,40.3688542757811,0 49.8368676836501,40.3688545368496,0 49.8367919836501,40.3688817368496,0 49.8367882108835,40.3688829324196,0 49.8367421108835,40.3688956324196,0 49.8367397178324,40.3688962309876,0 49.8367372990871,40.3688967153925,0 49.8366985990871,40.3689035153925,0 49.8366956547028,40.3689039463026,0 49.8366926904906,40.3689042080809,0 49.8366897161576,40.3689042998703,0 49.8365554161576,40.3689045998703,0 49.8365521049538,40.3689045017503,0 49.8364106719646,40.3688957952051,0 49.8363909406714,40.3688982083848,0 49.8363214888415,40.3689159773537,0 49.8363189108765,40.3689165674977,0 49.8363163062414,40.3689170258091,0 49.8361818988756,40.3689371669722,0 49.8361446813261,40.3689433265201,0 49.8361200998778,40.3689528479418,0 49.8361151883821,40.3689576396449,0 49.8359342754808,40.3694164738788,0 49.8359331827039,40.3694190413011,0 49.8359319537824,40.3694215464101,0 49.8359305922551,40.3694239819926,0 49.8359291020422,40.3694263410357,0 49.8359274874346,40.3694286167468,0 49.8359257530813,40.3694308025734,0 49.8359239039763,40.3694328922215,0 49.8359219454437,40.3694348796744,0 49.8359198831229,40.3694367592093,0 49.8359177229521,40.3694385254146,0 49.8359154711512,40.3694401732044,0 49.835913134204,40.3694416978344,0 49.8359107188394,40.3694430949145,0 49.8359082320121,40.369444360422,0 49.8359056808828,40.369445490713,0 49.8359030727969,40.369446482533,0 49.8358627727969,40.369460582533,0 49.8358604472401,40.3694613353234,0 49.835858088876,40.369461977995,0 49.8358557029158,40.3694625091275,0 49.8357835029158,40.3694768091275,0 49.835780684134,40.3694772872935,0 49.8357778433323,40.3694776098137,0 49.8357749890984,40.3694777757132,0 49.8357721300607,40.3694777844905,0 49.835769274862,40.369477636119,0 49.8357664321335,40.3694773310473,0 49.8357636104689,40.3694768701976,0 49.835760818398,40.369476254963,0 49.834858118398,40.369251154963,0 49.8348575161001,40.3692510009422,0 49.8347480161001,40.3692223009422,0 49.8347462856479,40.3692218152798,0 49.8345979856479,40.3691774152798,0 49.8345955344852,40.3691766146804,0 49.8338814344852,40.3689236146804,0 49.8338809710762,40.3689234480243,0 49.8332754735116,40.3687024489132,0 49.8330260759005,40.3686114497848,0 49.8330241171209,40.3686106898918,0 49.8330221906366,40.3686098514925,0 49.8323687906366,40.3683096514925,0 49.8323687126494,40.3683096155838,0 49.8318798126494,40.3680840155838,0 49.8318778350157,40.3680830517623,0 49.8318758999197,40.3680820051532,0 49.8318021999197,40.3680401051532,0 49.8317991246542,40.3680382125787,0 49.8317267246542,40.3679901125787,0 49.8317246430167,40.3679886550663,0 49.8317226350702,40.3679870975978,0 49.8316776350702,40.3679503975978,0 49.831675683516,40.3679487239879,0 49.8316738170655,40.3679469559672,0 49.8316528822966,40.3679261194835,0 49.8316048546597,40.3678801756905,0 49.8316026471154,40.3678779321015,0 49.831600579356,40.3678755590624,0 49.8315986589574,40.3678730652675,0 49.8315592589574,40.3678185652675,0 49.8315575489869,40.3678160479633,0 49.8315278489869,40.3677694479633,0 49.8315261364324,40.3677665591563,0 49.831524613918,40.3677635658306,0 49.831500713918,40.3677125658306,0 49.8314994007527,40.3677095134915,0 49.8313632007527,40.3673628134915,0 49.8313629872826,40.3673622608697,0 49.8312952057739,40.3671837728909,0 49.8310523026736,40.3665680719841,0 49.8309456785548,40.3663038600159,0 49.8309454753755,40.3663033487661,0 49.8309238753755,40.3662481487661,0 49.8309233870331,40.3662468499765,0 49.8309045870331,40.3661947499765,0 49.8309038802369,40.3661926524631,0 49.8308870802369,40.3661390524631,0 49.8308863384929,40.3661364506218,0 49.8308857330782,40.366133813723,0 49.8308852656316,40.3661311489049,0 49.8308725656316,40.3660457489049,0 49.8308721936454,40.3660425834838,0 49.8308720162831,40.3660394012194,0 49.8308700162831,40.3659595012195,0 49.8308700414497,40.3659561241741,0 49.8308733414497,40.3658735241741,0 49.8308734547428,40.3658715913461,0 49.830882444111,40.3657553288513,0 49.8309184342087,40.3652553664097,0 49.8309185052513,40.3652544843732,0 49.8309906698243,40.3644446819217,0 49.8310242933334,40.3639882203367,0 49.8310255619897,40.3639622616762,0 49.8310257329826,40.3639598830999,0 49.8310260128482,40.3639575148645,0 49.831026400998,40.3639551619507,0 49.8310268966157,40.3639528293069,0 49.8310312966157,40.3639342293069,0 49.8310320602926,40.3639313674828,0 49.8310329856765,40.3639285537834,0 49.831034069765,40.3639257973379,0 49.8310353090406,40.3639231070897,0 49.8310410090406,40.3639116070897,0 49.8310423803903,40.3639090253648,0 49.831043894655,40.3639065247837,0 49.831045547049,40.3639041132494,0 49.83104733235,40.3639017983836,0 49.83105403235,40.3638935983836,0 49.8310558579196,40.3638914827692,0 49.831057794501,40.3638894682765,0 49.8310598365019,40.3638875607229,0 49.8310685365019,40.3638798607229,0 49.8310706880818,40.3638780576394,0 49.83107293383,40.3638763732935,0 49.83108563383,40.3638673732935,0 49.8310877015517,40.3638659812039,0 49.8310898336095,40.3638646898033,0 49.8310920251045,40.3638635020592,0 49.8310942710008,40.3638624207008,0 49.8310965661377,40.3638614482129,0 49.8311339661377,40.3638466482129,0 49.8311340875961,40.3638466003254,0 49.8319224864147,40.3635369007895,0 49.8331495852224,40.3630548012579,0 49.8331513591279,40.3630541413379,0 49.8344625591279,40.3625933413379,0 49.8344638443318,40.3625929084184,0 49.8345491443318,40.3625654084184,0 49.8345513764869,40.3625647435928,0 49.8345536361727,40.3625641793862,0 49.8345559188562,40.3625637169305,0 49.8346267188562,40.3625510169305,0 49.8346296483567,40.3625505771663,0 49.8346325981459,40.3625503049351,0 49.8346355586507,40.3625502011204,0 49.8347269586507,40.3625496011204,0 49.8347306841151,40.3625497102345,0 49.8348042841151,40.3625545102345,0 49.8348071414842,40.362554775937,0 49.8348099798445,40.3625551988631,0 49.8348127905518,40.3625557777245,0 49.8348706905518,40.3625693777245,0 49.8348732289009,40.3625700419494,0 49.834875730514,40.3625708333681,0 49.834969530514,40.3626031333681,0 49.8349721847546,40.3626041290815,0 49.8349747807882,40.3626052679616,0 49.8349773108993,40.3626065466236,0 49.8350671108993,40.3626550466236,0 49.8350693271162,40.3626563148293,0 49.8350714784057,40.362657690299,0 49.8350735595805,40.362659169716,0 49.8350755656223,40.3626607495132,0 49.8350774916943,40.3626624258813,0 49.8350793331522,40.3626641947781,0 49.8351686331522,40.3627542947781,0 49.8351706428923,40.3627564405871,0 49.8351725281484,40.3627586965483,0 49.835174282894,40.3627610554504,0 49.83517590152,40.362763509753,0 49.8351773788523,40.3627660516108,0 49.8354613213981,40.3632880238599,0 49.8359681425157,40.3640428448114,0 49.8360069612502,40.3640843781427,0 49.8360555957997,40.3641296840919,0 49.8379600308314,40.3654635074948,0 49.837961868401,40.3654648554564,0 49.8379636451442,40.3654662826378,0 49.8380742451442,40.3655591826378,0 49.8380762000527,40.3655609101553,0 49.838078065859,40.3655627335451,0 49.8380798378669,40.3655646482177,0 49.8380815116164,40.3655666493541,0 49.8380830828944,40.3655687319171,0 49.8381223828944,40.3656236319171,0 49.8381239659288,40.3656259754537,0 49.8381254192123,40.3656284015883,0 49.838126738446,40.3656309031446,0 49.8381279197278,40.3656334727234,0 49.8381628197278,40.3657151727234,0 49.8381639334026,40.3657180067595,0 49.8381648792844,40.365720901123,0 49.8381656541299,40.365723845889,0 49.8383930301676,40.3667037188313,0 49.8384177003734,40.3667834374571,0 49.8384440319536,40.3668588503283,0 49.8384607087378,40.3668981397012,0 49.8384712829843,40.3669207988009,0 49.8385028811249,40.3669624919319,0 49.8385592542635,40.3670096323045,0 49.8386281947176,40.367053443157,0 49.8390994767922,40.3673266111024,0 49.8390998832754,40.3673268491774,0 49.8393874832754,40.3674970491774,0 49.8413366437489,40.3686505931508,0 49.8415844581585,40.3687835280222,0 49.841751466972,40.3688637355549,0 49.8419136134758,40.3689280435073,0 49.842930459326,40.3692807044993,0 49.8453767902938,40.3700759870023,0 49.8455941035472,40.3701448278445,0 49.8456670076385,40.3701679291407,0 49.8456676726413,40.3701681447914,0 49.8456884539507,40.3701750385911,0 49.8475163537807,40.3707798723569,0 49.8486187972136,40.371135689549,0 49.8486882224748,40.3711578656756,0 49.8487500657817,40.3711776795298,0 49.8487502672008,40.3711777445144,0 49.8501068770249,40.3716184827296,0 49.8505200863786,40.371749222409,0 49.85052023707,40.37174927034,0</coordinates></LineString>
  </Placemark>
</Folder>
</Document></kml>
