<?xml version="1.0" encoding="utf-8" ?>
<kml xmlns="http://www.opengis.net/kml/2.2">
<Document id="root_doc">
<Schema name="baku_circuit_boundary3" id="baku_circuit_boundary3">
	<SimpleField name="access" type="string"></SimpleField>
	<SimpleField name="addr_stree" type="string"></SimpleField>
	<SimpleField name="bench" type="string"></SimpleField>
	<SimpleField name="bicycle" type="string"></SimpleField>
	<SimpleField name="bin" type="string"></SimpleField>
	<SimpleField name="bus" type="string"></SimpleField>
	<SimpleField name="button_ope" type="string"></SimpleField>
	<SimpleField name="crossing" type="string"></SimpleField>
	<SimpleField name="crossing_i" type="string"></SimpleField>
	<SimpleField name="crossing_m" type="string"></SimpleField>
	<SimpleField name="crossing_s" type="string"></SimpleField>
	<SimpleField name="cycleway_b" type="string"></SimpleField>
	<SimpleField name="cycleway_l" type="string"></SimpleField>
	<SimpleField name="cycleway_1" type="string"></SimpleField>
	<SimpleField name="cycleway_r" type="string"></SimpleField>
	<SimpleField name="enforcemen" type="string"></SimpleField>
	<SimpleField name="foot" type="string"></SimpleField>
	<SimpleField name="highway" type="string"></SimpleField>
	<SimpleField name="horse" type="string"></SimpleField>
	<SimpleField name="int_name" type="string"></SimpleField>
	<SimpleField name="int_ref" type="string"></SimpleField>
	<SimpleField name="kerb" type="string"></SimpleField>
	<SimpleField name="lanes" type="string"></SimpleField>
	<SimpleField name="lanes_back" type="string"></SimpleField>
	<SimpleField name="lanes_forw" type="string"></SimpleField>
	<SimpleField name="lit" type="string"></SimpleField>
	<SimpleField name="maxspeed" type="string"></SimpleField>
	<SimpleField name="motor_vehi" type="string"></SimpleField>
	<SimpleField name="name_az" type="string"></SimpleField>
	<SimpleField name="name_az-cy" type="string"></SimpleField>
	<SimpleField name="name_en" type="string"></SimpleField>
	<SimpleField name="name_ru" type="string"></SimpleField>
	<SimpleField name="oneway" type="string"></SimpleField>
	<SimpleField name="oneway_bic" type="string"></SimpleField>
	<SimpleField name="parking_bo" type="string"></SimpleField>
	<SimpleField name="public_tra" type="string"></SimpleField>
	<SimpleField name="shelter" type="string"></SimpleField>
	<SimpleField name="sidewalk_b" type="string"></SimpleField>
	<SimpleField name="sidewalk_l" type="string"></SimpleField>
	<SimpleField name="sidewalk_r" type="string"></SimpleField>
	<SimpleField name="sport" type="string"></SimpleField>
	<SimpleField name="surface" type="string"></SimpleField>
	<SimpleField name="traffic_si" type="string"></SimpleField>
	<SimpleField name="traffic__1" type="string"></SimpleField>
	<SimpleField name="traffic__2" type="string"></SimpleField>
	<SimpleField name="turn_lanes" type="string"></SimpleField>
	<SimpleField name="wikidata" type="string"></SimpleField>
	<SimpleField name="wikipedia" type="string"></SimpleField>
</Schema>
<Folder><name>baku_circuit_boundary3</name>
  <Placemark id="baku_circuit_boundary3.1">
	<name>Pu?kin küç?si</name>
	<Style><LineStyle><color>ff0000ff</color></LineStyle><PolyStyle><fill>0</fill></PolyStyle></Style>
	<ExtendedData><SchemaData schemaUrl="#baku_circuit_boundary3">
		<SimpleData name="highway">secondary</SimpleData>
		<SimpleData name="lanes">5</SimpleData>
		<SimpleData name="lanes_back">3</SimpleData>
		<SimpleData name="lanes_forw">2</SimpleData>
		<SimpleData name="lit">yes</SimpleData>
		<SimpleData name="name_az">Pu?kin küç?si</SimpleData>
		<SimpleData name="name_az-cy">?????? ??????</SimpleData>
		<SimpleData name="name_en">Pushkin Street</SimpleData>
		<SimpleData name="name_ru">????? ???????</SimpleData>
		<SimpleData name="oneway">no</SimpleData>
		<SimpleData name="surface">asphalt</SimpleData>
	</SchemaData></ExtendedData>
      <LineString><coordinates>49.8505516302427,40.3718684953838,0 49.8506405048059,40.3718998395377,0 49.8506417701727,40.371900267612,0 49.8513919197405,40.3721433512696,0 49.8551082933531,40.3733560091795,0 49.8551182296922,40.3733678816435,0 49.8551226873192,40.3733858069944,0 49.8551197949361,40.3734218559641,0 49.8551040531325,40.3734673977594,0 49.8550812184295,40.3735175963629,0 49.8549565741061,40.3737694611244,0 49.8548539574345,40.3739457716219,0 49.8547423849085,40.3741341563884,0 49.8546074518272,40.3743609439154,0 49.8545948324661,40.3743820085411,0 49.8540784870404,40.3751961494707,0 49.8540776332066,40.3751975437302,0 49.8540016332066,40.3753261437302,0 49.8540013930787,40.3753265543279,0 49.8539893740376,40.3753473232309,0 49.8539284853522,40.3754441104572,0 49.8539281810312,40.3754446002022,0 49.8538825810312,40.3755189002022,0 49.8538813800634,40.3755209616752,0 49.8537979207955,40.3756720879184,0 49.8535718648177,40.3760783088109,0 49.8535570511642,40.376104913792,0 49.853497782316,40.3760882276077,0 49.85291017173,40.3759154127237,0 49.8529087374541,40.3759150131249,0 49.851803080746,40.3756239614359,0 49.8516237735606,40.3755694933995,0 49.8515692327455,40.3755525428719,0 49.8515691755539,40.3755525251337,0 49.8515565929038,40.3755486305039,0 49.8514949253173,40.3755294957062,0 49.8502051369615,40.3750997661749,0 49.8502032464769,40.3750991760578,0 49.8498374909577,40.374992604862,0 49.8497599228913,40.3749600513895,0 49.8497573452969,40.3749590493865,0 49.8497547180773,40.3749581858356,0 49.8496415593769,40.3749242976784,0 49.8470240108402,40.3740195956581,0 49.846884934728,40.3739707391791,0 49.8468837906665,40.3739703521441,0 49.8468038906665,40.3739443521441,0 49.8467380325614,40.3739229284229,0 49.8442780751121,40.3730621182771,0 49.8442776244709,40.3730619628994,0 49.8441816295178,40.3730293560891,0 49.8441931858503,40.3730063037705,0 49.8441932554626,40.3730061643887,0 49.8445196913942,40.3723500980454,0 49.8445363728165,40.3723203029038,0 49.844537415793,40.3723183429982,0 49.844571779292,40.3722503052393,0 49.8446289947588,40.372148841825,0 49.845124195912,40.3712704397801,0 49.8451929941389,40.3711484429243,0 49.8451942855649,40.3711460037907,0 49.8451954457596,40.3711434995739,0 49.8451964714547,40.3711409373282,0 49.8451973597609,40.3711383242714,0 49.8451981081758,40.3711356677646,0 49.8451987145912,40.371132975291,0 49.8451991772987,40.3711302544354,0 49.8451994949949,40.3711275128624,0 49.845199666785,40.371124758295,0 49.8451996921848,40.3711219984927,0 49.845199571123,40.37111924123,0 49.8451993039405,40.3711164942741,0 49.84519889139,40.371113765363,0 49.8451983346336,40.3711110621842,0 49.8451976352397,40.3711083923524,0 49.8451967951785,40.3711057633886,0 49.8451958168164,40.3711031826985,0 49.8451947029096,40.371100657552,0 49.8451934565957,40.3710981950623,0 49.8451920813859,40.3710958021663,0 49.8451905811538,40.3710934856048,0 49.8451889601258,40.3710912519034,0 49.8451872228683,40.3710891073546,0 49.845185374275,40.3710870579995,0 49.8451834195535,40.3710851096111,0 49.8451813642102,40.371083267678,0 49.845179214035,40.3710815373889,0 49.845176975085,40.3710799236181,0 49.8451746536672,40.3710784309116,0 49.845172256321,40.3710770634742,0 49.8451697897999,40.3710758251581,0 49.8451672610518,40.3710747194515,0 49.8451646772004,40.3710737494693,0 49.8446044772004,40.3708802494693,0 49.8446039438438,40.3708800684685,0 49.8444998438438,40.3708453684685,0 49.8444996295703,40.3708452975603,0 49.8440222365371,40.3706884655525,0 49.8439037429268,40.3706484352765,0 49.843902990733,40.3706481875308,0 49.8433658287144,40.3704757885704,0 49.8432708163711,40.3704412738824,0 49.8422329673187,40.3699618213535,0 49.8421493592774,40.3699229406909,0 49.8420228623546,40.3698495568829,0 49.8419304872032,40.3697887604574,0 49.841864810826,40.3697442258052,0 49.8418132766916,40.36970519347,0 49.8417832164469,40.3696791034464,0 49.84177097297,40.3696598379753,0 49.8417633697652,40.3696329128649,0 49.8417615128649,40.3696147771384,0 49.8417663990838,40.3695834178232,0 49.8417747065115,40.3695605925606,0 49.8418908284007,40.3692681928551,0 49.8418918287809,40.3692654520935,0 49.8418926738678,40.3692626595385,0 49.841893361001,40.3692598239817,0 49.8418938880173,40.3692569543495,0 49.8418942532577,40.369254059676,0 49.8418977532577,40.369218259676,0 49.8418979395296,40.3692157070425,0 49.8418979999743,40.3692131483355,0 49.8418979344453,40.3692105897537,0 49.8418977431014,40.3692080374954,0 49.8418974264061,40.3692054977436,0 49.8418969851266,40.3692029766511,0 49.841896420332,40.3692004803253,0 49.841885320332,40.3691564803254,0 49.8418846297254,40.3691540028157,0 49.8418838174614,40.3691515624841,0 49.8418828855271,40.3691491653003,0 49.8418818362023,40.369146817129,0 49.8418653362023,40.369112217129,0 49.8418639411666,40.3691095001565,0 49.8418623890263,40.3691068697716,0 49.8418606851358,40.3691043350485,0 49.8418588353732,40.3691019047313,0 49.8418343353732,40.3690716047313,0 49.8418323507056,40.3690692922403,0 49.8418302339844,40.3690670999788,0 49.8418279924791,40.3690650354757,0 49.8418256338878,40.3690631058212,0 49.8417912338878,40.3690366058212,0 49.8417893850495,40.3690352455194,0 49.8417874779815,40.3690339681332,0 49.8417855163997,40.3690327761514,0 49.8411748925727,40.3686799357341,0 49.8402389667672,40.3681236986926,0 49.840238613159,40.3681234904209,0 49.839015013159,40.3674092904209,0 49.8390148206338,40.3674091785983,0 49.8388333206338,40.3673042785983,0 49.838580926415,40.3671585129466,0 49.8385172569313,40.3671201394347,0 49.8384581693773,40.3670743105513,0 49.8384570809158,40.3670734889606,0 49.8383783809158,40.3670156889606,0 49.8383764066291,40.3670143082211,0 49.8383743705077,40.3670130204092,0 49.8383722769223,40.3670118282893,0 49.8383377769223,40.3669932282893,0 49.8383353999714,40.3669920243545,0 49.8383329644719,40.3669909437543,0 49.8383304768182,40.3669899893258,0 49.8383279435417,40.3669891635749,0 49.8383253712934,40.3669884686695,0 49.8383227668269,40.3669879064343,0 49.83832013698,40.3669874783452,0 49.8383174886576,40.3669871855263,0 49.8382808886576,40.3669840855263,0 49.8382774740679,40.366983909124,0 49.8382347740679,40.366983109124,0 49.838231867092,40.3669831359368,0 49.8382289661573,40.3669833251609,0 49.8382260803306,40.3669836762049,0 49.8382232186313,40.3669841879716,0 49.8382203900036,40.3669848588615,0 49.8381390900036,40.3670065588615,0 49.838136699226,40.3670072587491,0 49.8381343447111,40.3670080723335,0 49.8380825447111,40.3670273723335,0 49.838080016232,40.3670283906535,0 49.8380775445887,40.3670295400716,0 49.838075136573,40.3670308174294,0 49.8380727988017,40.3670322192168,0 49.8380705376987,40.367033741582,0 49.8380683594771,40.3670353803416,0 49.8380406594771,40.3670573803416,0 49.8380386204119,40.3670590866187,0 49.8380366712266,40.3670608948899,0 49.8380348170169,40.3670628004278,0 49.8380330626304,40.3670647982507,0 49.8380314126537,40.3670668831356,0 49.8380298714003,40.3670690496319,0 49.8380284428996,40.3670712920757,0 49.8380271308863,40.3670736046044,0 49.8380259387903,40.3670759811723,0 49.8372821398435,40.3686585278966,0 49.8372690669106,40.3686690588703,0 49.837247870395,40.3686771634204,0 49.8372246708519,40.368684175501,0 49.83720829729,40.3686849787323,0 49.8371867232029,40.3686829240573,0 49.8371264958363,40.3686724665725,0 49.837123739202,40.3686720636736,0 49.8371209649462,40.3686718089879,0 49.8370916649462,40.3686699089879,0 49.8370886183547,40.3686698009745,0 49.8370855706691,40.3686698716768,0 49.837082532364,40.3686701208516,0 49.8370795138816,40.3686705476428,0 49.8370515138816,40.3686753476427,0 49.8370490937478,40.368675821856,0 49.8370466988195,40.368676410281,0 49.8370443344834,40.3686771115945,0 49.8370420060575,40.3686779242189,0 49.8368321602537,40.3687567911004,0 49.8367586799684,40.3687831935279,0 49.836716869306,40.3687947118666,0 49.8366850086208,40.3688003101265,0 49.8365568410078,40.3688005964279,0 49.8364122950462,40.3687916982497,0 49.8364091219451,40.3687916000046,0 49.8364059487622,40.3687916955715,0 49.8364027873244,40.3687919845941,0 49.8363749873244,40.3687953845941,0 49.8363716793058,40.3687958977276,0 49.8363684111585,40.3687966226463,0 49.8362982757711,40.3688145665006,0 49.8361660937586,40.3688343741909,0 49.8361653094349,40.3688344978528,0 49.8361224094349,40.3688415978528,0 49.8361197857393,40.3688421016417,0 49.8361171913813,40.3688427395198,0 49.8361146332091,40.3688435098035,0 49.8361121179754,40.3688444104594,0 49.8360726179754,40.3688597104594,0 49.8360701971681,40.3688607190573,0 49.8360678302899,40.3688618484222,0 49.8360655233609,40.3688630956815,0 49.8360632822486,40.3688644576629,0 49.8360611126533,40.3688659309022,0 49.8360590200934,40.3688675116522,0 49.8360570098912,40.3688691958923,0 49.8360550871597,40.3688709793387,0 49.8360345871597,40.3688909793387,0 49.8360326744384,40.36889294654,0 49.8360308681435,40.3688950118928,0 49.8360291733038,40.3688971696467,0 49.8360275946382,40.3688994137943,0 49.8360261365418,40.3689017380875,0 49.8360248030744,40.368904136055,0 49.8360235979484,40.3689066010205,0 49.8360225245192,40.3689091261212,0 49.8358462567308,40.3693561793444,0 49.835831894102,40.3693612044825,0 49.8357747012909,40.3693725321445,0 49.8348835832112,40.3691503202472,0 49.8347752533232,40.3691219269341,0 49.8346290498616,40.3690781546233,0 49.833916397614,40.3688256675505,0 49.8333111289238,40.3686047519757,0 49.83306369904,40.368514470823,0 49.8324122483718,40.3682151664296,0 49.8319253862723,40.3679905068067,0 49.8318551705887,40.3679505877139,0 49.831786393873,40.3679048948958,0 49.831745359088,40.367871428749,0 49.8317258829345,40.3678520440328,0 49.8317251453403,40.3678513243095,0 49.8316801669234,40.3678082974356,0 49.8316444328733,40.367758868356,0 49.8316173587861,40.3677163884752,0 49.8315955914511,40.3676699393503,0 49.8314601075565,40.3673250622118,0 49.8313923127174,40.3671465391303,0 49.8313920717393,40.3671459166345,0 49.8311489717393,40.3665297166345,0 49.8311488214452,40.3665293399841,0 49.831042224387,40.3662651950712,0 49.8310209774607,40.3662108973706,0 49.8310027886904,40.3661604912573,0 49.8309875361389,40.3661118283548,0 49.8309759038496,40.3660336080786,0 49.8309740259931,40.3659585877121,0 49.8309772198984,40.3658786432946,0 49.8309861452572,40.3657632086539,0 49.8309861657913,40.3657629335903,0 49.8310221340225,40.3652632749107,0 49.8310942947487,40.3644535156268,0 49.8310943594962,40.3644527200328,0 49.8311280594962,40.3639952200328,0 49.8311281380103,40.3639939383238,0 49.8311292045201,40.3639721158919,0 49.8311311335449,40.3639639613781,0 49.8311315831399,40.3639630543004,0 49.8311319094706,40.3639626549106,0 49.831135359071,40.363959601816,0 49.8311406567901,40.3639558475269,0 49.8311721731624,40.3639433758073,0 49.8319605124039,40.3636336996746,0 49.8331867338307,40.3631519448463,0 49.8344964010929,40.3626916835022,0 49.8345777253172,40.3626654652587,0 49.8346406961926,40.3626541696356,0 49.8347257766607,40.3626536111205,0 49.8347932100785,40.362658008952,0 49.8348443527076,40.3626700217285,0 49.8349316394048,40.3627000788748,0 49.835010899168,40.3627428862079,0 49.8350895574177,40.3628222491227,0 49.8353711211477,40.3633398483892,0 49.8353723268237,40.3633419469218,0 49.8353736288391,40.363343987081,0 49.8358841288391,40.364104287081,0 49.8358857388381,40.3641065517171,0 49.8358874675058,40.3641087271209,0 49.8358893099065,40.3641108070809,0 49.8359322099065,40.3641567070809,0 49.8359347555489,40.3641592485333,0 49.8359873555489,40.3642082485333,0 49.835989155881,40.364209849379,0 49.8359910284274,40.3642113651208,0 49.8359929691687,40.3642127925052,0 49.8378985011564,40.3655473841915,0 49.8380023339003,40.3656345999412,0 49.8380345112935,40.36567955004,0 49.8380653811231,40.365751815515,0 49.8382921458701,40.366729054111,0 49.8382931243229,40.3667326729341,0 49.8383186243229,40.3668150729341,0 49.8383192066064,40.3668168417241,0 49.8383464066064,40.3668947417241,0 49.8383476335,40.3668979174353,0 49.8383653335,40.3669396174353,0 49.8383660784767,40.3669412900442,0 49.8383793784767,40.3669697900442,0 49.838380608924,40.3669722542254,0 49.8383819681207,40.3669746497993,0 49.8383834522535,40.3669769700449,0 49.8383850571586,40.3669792084526,0 49.8384235571586,40.3670300084526,0 49.8384253955335,40.3670322969766,0 49.8384273601179,40.3670344781169,0 49.838429444651,40.3670365449227,0 49.83843164249,40.3670384908076,0 49.83849514249,40.3670915908076,0 49.8384978110158,40.3670936784022,0 49.8385006098231,40.3670955877891,0 49.8385733098231,40.3671417877891,0 49.8385751232078,40.3671428888976,0 49.8390471194272,40.3674164707808,0 49.8393345163062,40.367586550575,0 49.8412846160072,40.368740650398,0 49.8412865190378,40.3687417233161,0 49.8415363190378,40.3688757233161,0 49.8415383881072,40.3688767744566,0 49.8417080881072,40.3689582744566,0 49.841711429279,40.368959737185,0 49.841876329279,40.369025137185,0 49.8418784610921,40.3690259291728,0 49.8428968610921,40.3693791291728,0 49.8428978234116,40.3693794524348,0 49.8453448234116,40.3701749524348,0 49.8453451964528,40.3701750721555,0 49.8455626943864,40.370243971501,0 49.845635259135,40.370266965269,0 49.8456557273587,40.3702737552086,0 49.8474838647556,40.3708786675986,0 49.8474842281195,40.370878786352,0 49.8485869281195,40.371234686352,0 49.8485870775252,40.3712347343244,0 49.848656555863,40.3712569274049,0 49.8487182334433,40.3712766881831,0 49.8500749327992,40.3717174554856,0 49.8500753136214,40.371717577591,0 49.8504886382392,40.37184835374,0</coordinates></LineString>
  </Placemark>
</Folder>
</Document></kml>
