<?xml version="1.0" encoding="utf-8" ?>
<kml xmlns="http://www.opengis.net/kml/2.2">
<Document id="root_doc">
<Schema name="canada_circuit_boundary_lines" id="canada_circuit_boundary_lines">
	<SimpleField name="FID" type="string"></SimpleField>
</Schema>
<Folder><name>canada_circuit_boundary_lines</name>
  <Placemark id="canada_circuit_boundary_lines.1">
	<Style><LineStyle><color>ff0000ff</color></LineStyle><PolyStyle><fill>0</fill></PolyStyle></Style>
	<ExtendedData><SchemaData schemaUrl="#canada_circuit_boundary_lines">
		<SimpleData name="FID">0</SimpleData>
	</SchemaData></ExtendedData>
      <LineString><coordinates>-73.5227614792184,45.5000668718569,0 -73.522678374498,45.499770916283,0 -73.5226367270649,45.4994950264794,0 -73.5226268457552,45.4992596360731,0 -73.5226308568135,45.4991584791387,0 -73.5226373168321,45.4989924766201,0 -73.5226757954618,45.4987697729399,0 -73.5226936701033,45.4986665194239,0 -73.522775037728,45.4982103009483,0 -73.5227878290774,45.4981392489998,0 -73.522814928325,45.4979888531756,0 -73.5228153818442,45.4979858692159,0 -73.5228156709918,45.497982864871,0 -73.5228203709919,45.497914364871,0 -73.5228204889366,45.4979117031122,0 -73.5228204778369,45.4979090387647,0 -73.5228203377188,45.4979063780811,0 -73.5228200689112,45.4979037273051,0 -73.5228196720448,45.4979010926576,0 -73.5228100720448,45.4978463926576,0 -73.522809466809,45.4978434261483,0 -73.5228086992526,45.4978404974378,0 -73.5228077717017,45.4978376154008,0 -73.5228066869668,45.4978347887707,0 -73.522805448335,45.4978320261127,0 -73.5228040595597,45.4978293357984,0 -73.5227762595597,45.4977789357984,0 -73.522774737289,45.4977763458703,0 -73.5227730758766,45.497773842923,0 -73.5227712802795,45.4977714344241,0 -73.5227693558548,45.4977691275593,0 -73.522767308344,45.497766929211,0 -73.5227651438557,45.497764845938,0 -73.5227133438557,45.497717645938,0 -73.5227111159847,45.4977157224565,0 -73.5227087884055,45.4977139209113,0 -73.5227063677838,45.4977122464619,0 -73.5227038610521,45.4977107039035,0 -73.5227012753893,45.4977092976539,0 -73.5226237753893,45.4976697976539,0 -73.5226209641378,45.4976684636216,0 -73.5226180819408,45.4976672907119,0 -73.5226151380238,45.4976662826793,0 -73.522281262554,45.4975624147497,0 -73.5221860753015,45.4975311057043,0 -73.5221376915163,45.49750968115,0 -73.5220961475036,45.4974842784416,0 -73.5220609713114,45.4974573492992,0 -73.522038435459,45.4974316231304,0 -73.5220254862995,45.4973943514754,0 -73.5220224208378,45.4973482965633,0 -73.5220337842721,45.4973090216936,0 -73.5220601169738,45.4972646144747,0 -73.5221051812207,45.4972217909915,0 -73.5221504592816,45.4971924780272,0 -73.5222120111567,45.4971609269919,0 -73.5222678484338,45.4971416881865,0 -73.5223268522186,45.4971283941239,0 -73.5223873931208,45.4971213417041,0 -73.5224653262935,45.4971199178337,0 -73.5225303064377,45.4971222248211,0 -73.5226131780595,45.4971286219288,0 -73.5227339906219,45.4971445801522,0 -73.5228920548364,45.4971720266554,0 -73.5231239128825,45.4972205874822,0 -73.5234818371648,45.4972985056904,0 -73.5237250250537,45.4973529996296,0 -73.5239142163968,45.4974077836304,0 -73.5240934245517,45.4974738543292,0 -73.5242729182982,45.4975476418244,0 -73.5244771840349,45.4976487400616,0 -73.5246900338869,45.4977686666574,0 -73.525045216797,45.4979740519985,0 -73.5253744860215,45.4981728692209,0 -73.525853027403,45.4984811583852,0 -73.5259505666823,45.4985475538789,0 -73.5259823319103,45.4985785087695,0 -73.5259965822672,45.4985994833208,0 -73.5260034896446,45.4986289147548,0 -73.5259985806874,45.498667617258,0 -73.5259817460156,45.4987151752056,0 -73.5259142661665,45.4988479864861,0 -73.5259129418959,45.4988507852684,0 -73.525911777221,45.498853654137,0 -73.525892577221,45.498905054137,0 -73.5258918577695,45.4989071026354,0 -73.5258912197287,45.4989091779331,0 -73.5258751197287,45.4989654779331,0 -73.5258743614067,45.4989684385319,0 -73.5258737687029,45.4989714366812,0 -73.5258733434473,45.4989744631239,0 -73.5258669434473,45.4990314631239,0 -73.5258667124593,45.4990340846225,0 -73.5258666071341,45.4990367141694,0 -73.5258666277127,45.4990393457444,0 -73.525866774148,45.4990419733225,0 -73.5258670461048,45.4990445908882,0 -73.5258726461048,45.4990882908882,0 -73.5258731070645,45.499091247579,0 -73.5258737281483,45.4990941748233,0 -73.5258745075177,45.4990970639559,0 -73.5258853075177,45.4991331639559,0 -73.5258862059081,45.4991359032983,0 -73.5258872466014,45.4991385918034,0 -73.5258884267382,45.4991412220845,0 -73.5258897430761,45.4991437869152,0 -73.5258911919986,45.4991462792486,0 -73.5259180919986,45.4991898792486,0 -73.5259199066159,45.4991926321891,0 -73.5259218829345,45.4991952714469,0 -73.5259240138516,45.4991977875369,0 -73.5259608138516,45.4992386875369,0 -73.5259632163389,45.499241193865,0 -73.5259657721709,45.4992435436201,0 -73.526500738366,45.4997050830825,0 -73.5268892165414,45.5000580090136,0 -73.5268910604448,45.500059610893,0 -73.5269500604448,45.500108610893,0 -73.5269519088585,45.5001100801313,0 -73.5270191088585,45.5001611801313,0 -73.5270217690896,45.5001630809296,0 -73.5270245375655,45.5001648202989,0 -73.5271033375655,45.5002111202989,0 -73.5271070667721,45.5002131225385,0 -73.5272096667721,45.5002632225385,0 -73.5272123218557,45.5002644328877,0 -73.5273965889177,45.5003425977866,0 -73.5274930337637,45.5003915413824,0 -73.5275827279584,45.5004475639701,0 -73.5276758324369,45.5005110442963,0 -73.5277388079439,45.50056636685,0 -73.5278065359103,45.5006443681596,0 -73.5278592019368,45.500712557807,0 -73.5279193272533,45.5008087964277,0 -73.5279619065285,45.5008961216227,0 -73.5279979897615,45.5009977418562,0 -73.5280208132525,45.5010931855458,0 -73.5280339003943,45.501196354255,0 -73.5280402135887,45.5013055239558,0 -73.5280413933166,45.5014434538075,0 -73.5280121221967,45.5024734375852,0 -73.5280121448385,45.5024772204106,0 -73.5280153448385,45.5025564204106,0 -73.5280155708416,45.5025596515335,0 -73.528015986655,45.5025628637496,0 -73.5280165908367,45.5025660459182,0 -73.5280268908367,45.5026127459182,0 -73.5280276248184,45.5026156861468,0 -73.5280285196288,45.5026185814857,0 -73.5280295725513,45.502621423145,0 -73.5280307803893,45.5026242024975,0 -73.5280321394759,45.5026269111054,0 -73.5280562394759,45.5026718111054,0 -73.5280579608095,45.5026747904824,0 -73.5280598650776,45.5026776563923,0 -73.5280841650776,45.5027118563923,0 -73.5280860727096,45.5027143838296,0 -73.5280881226332,45.5027167972945,0 -73.5280903080535,45.502719088787,0 -73.5281297080534,45.502758088787,0 -73.5281318442407,45.5027600935088,0 -73.5281340841401,45.5027619816444,0 -73.5281364213967,45.5027637478372,0 -73.5281767213967,45.5027925478372,0 -73.5281789308624,45.5027940471453,0 -73.5281812104914,45.5027954374529,0 -73.5281835549107,45.5027967154831,0 -73.5281859585949,45.5027978782237,0 -73.5282284585949,45.5028171782237,0 -73.528230737568,45.5028181518254,0 -73.5282330580856,45.5028190217772,0 -73.5282354154366,45.5028197863128,0 -73.5282848154366,45.5028345863128,0 -73.5282875506629,45.5028353295312,0 -73.5282903205457,45.5028359308506,0 -73.5283539205457,45.5028480308506,0 -73.5283560565682,45.5028483937912,0 -73.5283582052279,45.5028486723212,0 -73.5284266052279,45.5028561723212,0 -73.5284298889607,45.5028564331436,0 -73.5284331824182,45.5028564969162,0 -73.5284992824182,45.5028557969162,0 -73.528501515236,45.5028557279023,0 -73.5285037434096,45.5028555682757,0 -73.5285732434096,45.5028491682757,0 -73.5285756321812,45.502848895529,0 -73.5285780067504,45.5028485186442,0 -73.5285803625793,45.5028480383414,0 -73.5286588625793,45.5028302383414,0 -73.5286595272894,45.5028300832745,0 -73.5287557303333,45.5028070101867,0 -73.5288215342702,45.5027968438481,0 -73.5288857238365,45.5027944664568,0 -73.5289580280792,45.5027991879886,0 -73.5290434300252,45.5028141985927,0 -73.5291197693053,45.5028372951671,0 -73.5291946563972,45.5028689745627,0 -73.5292683036167,45.5029084047342,0 -73.5293360827651,45.5029515881252,0 -73.5294292441539,45.5030272344154,0 -73.5294933318921,45.5030948722033,0 -73.5295350095213,45.5031496379076,0 -73.5295702811742,45.5032052621332,0 -73.5296182683752,45.5033058652218,0 -73.5296901787714,45.5035173090696,0 -73.5297409635542,45.5037323860495,0 -73.5297648283474,45.5038887348183,0 -73.5297967833886,45.5041389169887,0 -73.5298202810974,45.5044277595867,0 -73.5298202859378,45.5044278186934,0 -73.5298769058956,45.5051146477401,0 -73.5298877014864,45.5053450197053,0 -73.529887898287,45.5055155474564,0 -73.5298809801162,45.5056436324476,0 -73.5298783954858,45.5056914481097,0 -73.5298634653585,45.5059232632195,0 -73.5298318922796,45.5062598441558,0 -73.5297972478125,45.5064850331916,0 -73.5297588971673,45.5066975514042,0 -73.5297221364232,45.5068755090765,0 -73.529684722554,45.5070287183775,0 -73.5296420941179,45.5071779671282,0 -73.5295968899794,45.5073106250249,0 -73.5295356884832,45.5074748870633,0 -73.5292149302734,45.5082771822864,0 -73.5292146507668,45.5082778957809,0 -73.5291118767399,45.508545725094,0 -73.5290826078439,45.508611305714,0 -73.5290683071626,45.508631788786,0 -73.529047697023,45.5086461639254,0 -73.5290164939331,45.5086557648761,0 -73.528960984138,45.5086623211511,0 -73.5288263405306,45.5086632011747,0 -73.5288258799607,45.5086632061137,0 -73.5287185799607,45.5086648061137,0 -73.5287152388336,45.5086649576378,0 -73.5287119130941,45.5086653119624,0 -73.5286464130941,45.5086743119624,0 -73.5286430344968,45.5086748839464,0 -73.5286396980759,45.5086756652152,0 -73.528552898076,45.5086988652152,0 -73.5285502129977,45.5086996566226,0 -73.5285475716636,45.5087005836205,0 -73.5284643716636,45.5087321836205,0 -73.5284607627713,45.5087337034205,0 -73.5283932627713,45.5087650034205,0 -73.5283907038244,45.5087662717514,0 -73.528388214167,45.5087676712078,0 -73.5283858005122,45.5087691980159,0 -73.5283834693686,45.5087708480589,0 -73.5283529693686,45.5087936480589,0 -73.5283525286655,45.5087939809649,0 -73.5283018286655,45.5088326809649,0 -73.5282988616201,45.5088351141411,0 -73.5282504616201,45.5088777141411,0 -73.5282488024692,45.5088792358496,0 -73.5282472069831,45.5088808241828,0 -73.5282041069831,45.5089255241828,0 -73.5282015527042,45.5089283643883,0 -73.5281600527042,45.5089778643883,0 -73.5281586929738,45.5089795527316,0 -73.5281574008321,45.5089812933463,0 -73.5281230008321,45.5090295933463,0 -73.5281216409704,45.5090315944154,0 -73.5281203704284,45.5090336533532,0 -73.5281191916646,45.5090357661754,0 -73.5280660916646,45.5091360661754,0 -73.5280645881357,45.5091391328199,0 -73.5279772881357,45.5093321328199,0 -73.5279770704769,45.5093326202998,0 -73.5279131704769,45.5094776202998,0 -73.5279125326103,45.5094791281548,0 -73.5277935326103,45.5097725281548,0 -73.5277929646999,45.5097739876902,0 -73.5277315646999,45.5099386876902,0 -73.5277311443638,45.5099398552814,0 -73.5276433443638,45.5101926552814,0 -73.5276427427862,45.5101944907658,0 -73.5275635427862,45.5104512907658,0 -73.5275631450239,45.5104526416518,0 -73.5274959450239,45.5106921416518,0 -73.527495530288,45.5106937081289,0 -73.527423230288,45.5109840081289,0 -73.5274230660415,45.5109846859092,0 -73.5273610233394,45.511247993942,0 -73.5273256249517,45.5113748133759,0 -73.5273249232897,45.511377607887,0 -73.5273243689348,45.5113804353086,0 -73.5273013689348,45.5115165353086,0 -73.5273011777906,45.5115177487032,0 -73.5272877080225,45.5116099417824,0 -73.5272520398275,45.5118417350942,0 -73.527251718661,45.5118441880486,0 -73.527251508125,45.511846652964,0 -73.527227708125,45.512225652964,0 -73.5272276036722,45.5122284644492,0 -73.5272261036722,45.5123582644492,0 -73.5272261188758,45.512360340827,0 -73.5272330188758,45.512623640827,0 -73.5272331527669,45.512626296464,0 -73.5272334148524,45.5126289425263,0 -73.5272449148524,45.5127220425263,0 -73.5272454302948,45.5127253730821,0 -73.5272609302948,45.5128085730821,0 -73.5272613504317,45.5128106129607,0 -73.5272881504317,45.5129293129607,0 -73.5272886931776,45.5129315061319,0 -73.5272893255392,45.512933675162,0 -73.5273200394453,45.5130315009475,0 -73.5273235562222,45.5130431258487,0 -73.5276342712277,45.5140697322185,0 -73.5276423969521,45.5141108341835,0 -73.5276383083561,45.5141474271174,0 -73.5276261370174,45.5141742681222,0 -73.5276027538921,45.5142015811846,0 -73.5275671396221,45.5142193883196,0 -73.5275169610035,45.5142322843072,0 -73.5274657320251,45.5142358720044,0 -73.5274147380755,45.514229819064,0 -73.5273836071779,45.5142197225567,0 -73.5273463649836,45.514200195123,0 -73.5273218281689,45.514181940324,0 -73.5273027255469,45.5141591050058,0 -73.5272819789415,45.5141241802184,0 -73.5272401777031,45.5140024482335,0 -73.527206542676,45.5138683900024,0 -73.5271887554183,45.5137438791982,0 -73.5271745919522,45.5135182541926,0 -73.527174487682,45.5135168719667,0 -73.527169887682,45.5134646719667,0 -73.5271694931584,45.5134613523424,0 -73.5271586931584,45.5133892523424,0 -73.527158280081,45.5133868571892,0 -73.5271577615882,45.5133844826246,0 -73.5271571386926,45.5133821332858,0 -73.5271417386926,45.5133288332858,0 -73.527140660088,45.5133255017935,0 -73.527121760088,45.5132729017935,0 -73.5271209176043,45.5132707058283,0 -73.5271199820037,45.5132685478911,0 -73.5270805820037,45.5131827478911,0 -73.5270787575135,45.5131791320891,0 -73.5270264575135,45.5130843320891,0 -73.5270253442902,45.5130824072859,0 -73.5270241541766,45.5130805290519,0 -73.5270193022978,45.5130732036663,0 -73.5269639442658,45.5129865822853,0 -73.5269623553409,45.5129842318994,0 -73.5268441638807,45.512818763855,0 -73.5266447474206,45.5125278692089,0 -73.5265651627724,45.5124087891942,0 -73.5264991869675,45.5123005967284,0 -73.5262105971087,45.5117769039279,0 -73.5257119973845,45.5108677514543,0 -73.5253966604414,45.5102634555633,0 -73.5253963089306,45.5102627930003,0 -73.5253480838787,45.510173371649,0 -73.5253086161047,45.5100812167743,0 -73.5252803727077,45.5099921340049,0 -73.5252508145497,45.5098929455552,0 -73.5252310149925,45.509823099881,0 -73.525159105814,45.5095701675378,0 -73.5249451081221,45.508816575666,0 -73.5249448280614,45.5088156222921,0 -73.5246021280614,45.5076868222921,0 -73.5241464614189,45.5061861321513,0 -73.5239757949039,45.5056153441407,0 -73.5238904927278,45.5053303368631,0 -73.5236562619126,45.5045469682468,0 -73.5235223786527,45.5040849125581,0 -73.5235155058784,45.5040273634243,0 -73.5235192186531,45.5040033777213,0 -73.5235259403507,45.5039908129793,0 -73.5235410551188,45.5039763931431,0 -73.5235638489896,45.5039630008985,0 -73.5236187590892,45.5039457795044,0 -73.5236200807739,45.5039453465568,0 -73.5236923807739,45.5039206465568,0 -73.5236949617267,45.5039196920746,0 -73.5236974917089,45.5039186096957,0 -73.5236999643872,45.5039174021297,0 -73.523702373572,45.5039160723994,0 -73.523755873572,45.5038847723994,0 -73.5237582680264,45.5038832879352,0 -73.5237605833254,45.5038816828071,0 -73.5237628133942,45.5038799612267,0 -73.5237649523813,45.5038781277111,0 -73.5238029523813,45.5038438277111,0 -73.5238048656451,45.5038420156989,0 -73.5238066899213,45.5038401141252,0 -73.5238084210223,45.503838127355,0 -73.5238100549743,45.503836059949,0 -73.5238115880265,45.5038339166531,0 -73.5238359880265,45.5037980166531,0 -73.5238375654533,45.5037955577424,0 -73.523839010093,45.5037930185431,0 -73.5238403178698,45.5037904062191,0 -73.5238414850941,45.5037877281406,0 -73.5238425084727,45.5037849918633,0 -73.5238433851183,45.5037822051072,0 -73.5238441125577,45.5037793757347,0 -73.5238446887384,45.5037765117282,0 -73.5238512887384,45.5037385117282,0 -73.5238516803333,45.5037358813877,0 -73.5238519443268,45.5037332351931,0 -73.5238520801017,45.503730579331,0 -73.5238520873406,45.5037279200105,0 -73.5238519660266,45.5037252634486,0 -73.5238517164433,45.5037226158561,0 -73.5238465164433,45.5036788158561,0 -73.5238460814822,45.5036758465885,0 -73.5238454852171,45.5036729054647,0 -73.5238447294233,45.5036700012408,0 -73.5238180294233,45.5035778012408,0 -73.5238178663274,45.5035772488817,0 -73.5227657361444,45.5000814808529,0</coordinates></LineString>
  </Placemark>
</Folder>
</Document></kml>
