<?xml version="1.0" encoding="utf-8" ?>
<kml xmlns="http://www.opengis.net/kml/2.2">
<Document id="root_doc">
<Schema name="canada_circuit_boundary_lines" id="canada_circuit_boundary_lines">
	<SimpleField name="FID" type="string"></SimpleField>
</Schema>
<Folder><name>canada_circuit_boundary_lines</name>
  <Placemark id="canada_circuit_boundary_lines.1">
	<Style><LineStyle><color>ff0000ff</color></LineStyle><PolyStyle><fill>0</fill></PolyStyle></Style>
	<ExtendedData><SchemaData schemaUrl="#canada_circuit_boundary_lines">
		<SimpleData name="FID">0</SimpleData>
	</SchemaData></ExtendedData>
      <LineString><coordinates>-73.5226557960851,45.5000973865712,0 -73.5226556480108,45.5000968689893,0 -73.5225715480108,45.4997973689893,0 -73.5225707288923,45.4997940614868,0 -73.5225701161576,45.4997907096091,0 -73.5225275161576,45.4995085096091,0 -73.522527152664,45.4995055658519,0 -73.5225269483961,45.4995026067797,0 -73.5225168483961,45.4992620067797,0 -73.5225168000371,45.4992597638737,0 -73.5225168431865,45.4992575208614,0 -73.5225209423851,45.4991541410705,0 -73.5225275415983,45.4989845612886,0 -73.5225276891584,45.4989821424088,0 -73.5225279431285,45.4989797323771,0 -73.5225283030156,45.4989773358723,0 -73.5225674030156,45.4987510358723,0 -73.522585306061,45.4986476182639,0 -73.5225853544315,45.4986473430121,0 -73.5226667544315,45.4981909430121,0 -73.5226667701827,45.4981908551102,0 -73.5226795701827,45.4981197551102,0 -73.5227061358461,45.497972320576,0 -73.5227101707655,45.497913513772,0 -73.5227033126601,45.4978744368592,0 -73.5226843332911,45.4978400282189,0 -73.5226447285047,45.4978039404599,0 -73.5225779937652,45.4977699272701,0 -73.5222481619762,45.4976673173207,0 -73.522247315106,45.497667046334,0 -73.522149115106,45.497634746334,0 -73.5221465489601,45.4976338312422,0 -73.5221440312777,45.4976327901979,0 -73.5220898312777,45.4976087901979,0 -73.5220876415472,45.4976077624004,0 -73.522085499127,45.4976066393141,0 -73.5220834081612,45.4976054231114,0 -73.5220363081612,45.4975766231114,0 -73.5220338950627,45.497575059485,0 -73.5220315669807,45.4975733718814,0 -73.5219897669808,45.4975413718814,0 -73.5219876467733,45.4975396638901,0 -73.5219856136862,45.4975378530698,0 -73.5219836727012,45.4975359438576,0 -73.5219818285746,45.4975339409321,0 -73.5219486285746,45.4974960409321,0 -73.521946698839,45.4974937117894,0 -73.5219449000632,45.4974912800842,0 -73.5219432376872,45.4974887531709,0 -73.5219417167388,45.4974861386918,0 -73.5219403418179,45.4974834445543,0 -73.5219391170827,45.4974806789063,0 -73.5219380462375,45.4974778501124,0 -73.5219191462375,45.4974234501124,0 -73.5219182540793,45.4974206416753,0 -73.5219175136154,45.4974177894869,0 -73.5219169269713,45.4974149017345,0 -73.5219164958309,45.4974119867074,0 -73.5219162214318,45.4974090527732,0 -73.5219120214318,45.4973459527732,0 -73.5219119077005,45.4973432203249,0 -73.5219119299358,45.4973404856012,0 -73.5219120880827,45.4973377553636,0 -73.5219123817501,45.4973350363624,0 -73.5219128102121,45.4973323353202,0 -73.5219133724092,45.4973296589154,0 -73.5219140669514,45.4973270137653,0 -73.5219300669514,45.4972717137653,0 -73.5219309098915,45.4972690548441,0 -73.5219318865521,45.4972664420785,0 -73.5219329944212,45.4972638821886,0 -73.5219342306492,45.4972613817585,0 -73.5219355920566,45.4972589472195,0 -73.5219693920566,45.4972019472195,0 -73.5219710096651,45.4971993831207,0 -73.5219727661007,45.4971969120491,0 -73.5219746560265,45.4971945415131,0 -73.5219766737001,45.4971922787153,0 -73.5219788129909,45.4971901305312,0 -73.5220331129909,45.4971385305312,0 -73.5220350005889,45.4971368182443,0 -73.522036965481,45.4971351952374,0 -73.5220390034483,45.497133664995,0 -73.5220411101151,45.4971322308027,0 -73.5220930101151,45.4970986308027,0 -73.5220953757646,45.4970971826033,0 -73.5220978114174,45.4970958555108,0 -73.5221653114174,45.4970612555108,0 -73.5221676529934,45.4970601243204,0 -73.5221700454217,45.4970591050771,0 -73.5221724833539,45.4970582000597,0 -73.5222348833539,45.4970367000597,0 -73.5222377744058,45.4970357922357,0 -73.5222407110676,45.4970350450122,0 -73.5223055110676,45.4970204450122,0 -73.5223083606852,45.4970198815985,0 -73.5223112360744,45.4970194694183,0 -73.5223773360745,45.4970117694184,0 -73.5223800112847,45.497011523836,0 -73.5223826952956,45.4970114091774,0 -73.5224647952956,45.4970099091774,0 -73.5224677514333,45.4970099346299,0 -73.5225353514333,45.4970123346299,0 -73.522537633021,45.4970124631371,0 -73.522623133021,45.4970190631371,0 -73.5226261024297,45.4970193736302,0 -73.5227495024297,45.4970356736302,0 -73.5227517094802,45.4970360108712,0 -73.5229118094802,45.4970638108712,0 -73.5229136746799,45.4970641680244,0 -73.5231466746799,45.4971129680244,0 -73.5231470991975,45.4971130586865,0 -73.5235053991975,45.4971910586865,0 -73.5235057262532,45.4971911309285,0 -73.5237507262532,45.4972460309285,0 -73.5237539978539,45.4972468703145,0 -73.5239466978539,45.4973026703145,0 -73.52395042562,45.4973038954868,0 -73.52413242562,45.4973709954868,0 -73.5241343117468,45.4973717305706,0 -73.5243165117468,45.4974466305706,0 -73.5243199968051,45.49744820704,0 -73.5245272968051,45.49755080704,0 -73.5245298983169,45.4975521824574,0 -73.5247442983169,45.4976729824574,0 -73.5247448322055,45.4976732872112,0 -73.5251007322055,45.4978790872112,0 -73.5251016291797,45.4978796172883,0 -73.5254320291797,45.4980791172883,0 -73.5254333864616,45.4980799640107,0 -73.5259131864616,45.4983890640107,0 -73.525914348972,45.4983898339563,0 -73.526016448972,45.4984593339563,0 -73.5260190444015,45.498461213613,0 -73.5260215259534,45.4984632412382,0 -73.5260238852033,45.4984654099484,0 -73.5260630852033,45.4985036099484,0 -73.5260650203469,45.4985055931874,0 -73.5260668531498,45.4985076713719,0 -73.5260685789601,45.4985098392271,0 -73.5260701933974,45.4985120912506,0 -73.5260932933974,45.4985460912506,0 -73.526094847604,45.498548512758,0 -73.526096273044,45.4985510122335,0 -73.5260975658159,45.498553582836,0 -73.5260987223815,45.49855621753,0 -73.5260997395755,45.4985589091045,0 -73.5261006146137,45.4985616501928,0 -73.5261013451012,45.4985644332926,0 -73.5261128451012,45.4986134332926,0 -73.5261134156651,45.498616176824,0 -73.5261138457518,45.4986189458551,0 -73.5261141342448,45.4986217331978,0 -73.5261142803951,45.4986245316166,0 -73.5261142838235,45.4986273338472,0 -73.5261141445211,45.4986301326152,0 -73.5261138628493,45.4986329206555,0 -73.5261069628493,45.4986873206555,0 -73.5261065145716,45.4986902291984,0 -73.5261059113638,45.4986931096004,0 -73.526105154953,45.4986959536147,0 -73.5261042475048,45.498698753099,0 -73.5260842475048,45.498755253099,0 -73.5260829472142,45.4987585790022,0 -73.5260814338335,45.4987618135139,0 -73.5260137380285,45.4988950498304,0 -73.5259963829677,45.4989415107746,0 -73.5259821437888,45.4989913036797,0 -73.5259769942428,45.4990371668239,0 -73.5259811820201,45.4990698464434,0 -73.5259886146141,45.4990946905771,0 -73.526009103661,45.4991278995899,0 -73.5260402604865,45.4991625276922,0 -73.5265731278291,45.4996222563799,0 -73.5265741834586,45.4996231909864,0 -73.5269622792961,45.4999757695698,0 -73.527019431121,45.5000232346448,0 -73.5270830851285,45.500071638213,0 -73.5271572363821,45.5001152067795,0 -73.527256621745,45.5001637370591,0 -73.5274412781443,45.5002420671123,0 -73.5274446897056,45.5002436540771,0 -73.5275449897056,45.5002945540771,0 -73.5275471396241,45.5002957057548,0 -73.5275492363705,45.500296951614,0 -73.5276419363705,45.500354851614,0 -73.5276437835253,45.5003560574961,0 -73.5277405835253,45.5004220574961,0 -73.5277433043692,45.5004240371941,0 -73.5277458990619,45.5004261795679,0 -73.5278141990619,45.5004861795679,0 -73.5278160208661,45.5004878540725,0 -73.5278177655095,45.5004896088249,0 -73.5278194294607,45.5004914402732,0 -73.5278906294607,45.5005734402732,0 -73.5278926286959,45.5005758807698,0 -73.5279479286959,45.5006474807698,0 -73.5279495424451,45.5006496809031,0 -73.5279510450951,45.5006519583614,0 -73.5280141450951,45.5007529583614,0 -73.5280156066929,45.5007554401782,0 -73.5280169363641,45.5007579951062,0 -73.5280621363641,45.5008506951062,0 -73.5280634131623,45.5008535120887,0 -73.5280645295963,45.5008563963875,0 -73.5281026295963,45.5009636963875,0 -73.5281035354251,45.5009664803028,0 -73.528104291839,45.5009693084733,0 -73.528128491839,45.5010705084733,0 -73.5281291069639,45.5010734290094,0 -73.5281295627566,45.5010763786133,0 -73.5281432627566,45.5011843786133,0 -73.5281436082641,45.5011881247,0 -73.5281501082641,45.5013005247,0 -73.5281501979883,45.5013032295967,0 -73.5281513979883,45.5014435295967,0 -73.5281513778033,45.5014455624148,0 -73.5281221315665,45.5024746706126,0 -73.5281250584771,45.5025471116503,0 -73.5281326668009,45.5025816076427,0 -73.5281515308371,45.5026167526728,0 -73.5281710765525,45.5026442614575,0 -73.5282039618534,45.5026768128974,0 -73.528236319626,45.5026999370625,0 -73.528270551264,45.5027154822534,0 -73.5283136666884,45.5027283994251,0 -73.5283723497553,45.5027395639708,0 -73.5284353159104,45.5027464681545,0 -73.52849588244,45.502745826754,0 -73.5285595599036,45.50273996293,0 -73.5286342045847,45.5027230371297,0 -73.5287322727106,45.5026995167255,0 -73.5287344786239,45.5026990353229,0 -73.5287367024367,45.5026986448629,0 -73.5288079024367,45.5026876448629,0 -73.5288110745712,45.5026872487909,0 -73.5288142643587,45.5026870376841,0 -73.5288844643587,45.5026844376841,0 -73.5288872751498,45.5026844054626,0 -73.5288900839161,45.502684516892,0 -73.5289681839161,45.502689616892,0 -73.5289711622026,45.5026898928805,0 -73.5289741210816,45.5026903303682,0 -73.5290657210816,45.5027064303682,0 -73.5290689470688,45.5027070975492,0 -73.5290721273261,45.5027079566691,0 -73.5291544273261,45.5027328566691,0 -73.529157204193,45.5027337781172,0 -73.5291599281313,45.5027348459262,0 -73.5292398281313,45.5027686459262,0 -73.529242118835,45.5027696772545,0 -73.5292443600548,45.5027708121092,0 -73.5293220600548,45.5028124121092,0 -73.5293256530903,45.5028145144974,0 -73.5293978530903,45.5028605144974,0 -73.5294004642275,45.5028622854007,0 -73.5294029695244,45.5028642031139,0 -73.5295013695244,45.5029441031139,0 -73.5295040763446,45.5029464514082,0 -73.5295066244994,45.5029489709854,0 -73.5295752244994,45.5030213709854,0 -73.5295772070017,45.503023579736,0 -73.5295790674695,45.5030258922139,0 -73.5296239674695,45.5030848922139,0 -73.529625349293,45.5030867907443,0 -73.5296266488201,45.5030887465263,0 -73.5296649488201,45.5031491465263,0 -73.529666631992,45.5031519858808,0 -73.5296681418092,45.5031549210901,0 -73.5297189418092,45.5032614210901,0 -73.5297202439489,45.5032643704542,0 -73.5297213710381,45.5032673910478,0 -73.5297951710382,45.5034843910478,0 -73.5297959603455,45.5034869084276,0 -73.5297966280268,45.5034894607616,0 -73.5298485280268,45.5037092607616,0 -73.529848992781,45.503711422424,0 -73.5298493702761,45.5037136010194,0 -73.5298736702761,45.5038728010194,0 -73.5298738567751,45.5038741316217,0 -73.5299060567751,45.5041262316217,0 -73.5299063189026,45.5041287404133,0 -73.5299299164986,45.5044188108616,0 -73.5299866140622,45.5051065813066,0 -73.5299867397091,45.5051085254393,0 -73.5299976397091,45.5053411254393,0 -73.5299976999634,45.5053436365263,0 -73.5299978999634,45.5055169365263,0 -73.5299978199484,45.5055199663552,0 -73.5299908199484,45.5056495663552,0 -73.529988219825,45.5056976686392,0 -73.5299881862824,45.5056982349688,0 -73.5299731862824,45.5059311349688,0 -73.5299730596009,45.5059327367413,0 -73.5299412596009,45.5062717367413,0 -73.5299408604434,45.5062749631451,0 -73.5299058604434,45.5065024631451,0 -73.5299056257539,45.5065038674338,0 -73.5298670257539,45.5067177674339,0 -73.5298667628085,45.5067191264488,0 -73.5298296628085,45.5068987264487,0 -73.5298292299438,45.5069006476474,0 -73.5297913299438,45.5070558476474,0 -73.5297907851333,45.5070579050546,0 -73.5297474851333,45.5072095050546,0 -73.5297466604743,45.5072121399835,0 -73.5297007604743,45.5073468399835,0 -73.5297002389174,45.5073483026039,0 -73.5296385389174,45.5075139026039,0 -73.5296380697266,45.5075151177136,0 -73.5293172119654,45.5083176619392,0 -73.5292140492332,45.5085865042191,0 -73.5292129249114,45.5085892155811,0 -73.5291809249114,45.5086609155811,0 -73.5291798056497,45.5086632716606,0 -73.5291785759391,45.5086655720235,0 -73.5291772385455,45.5086678114958,0 -73.529175796477,45.5086699850403,0 -73.529152896477,45.5087027850403,0 -73.5291512556053,45.5087050136525,0 -73.5291495047059,45.5087071569032,0 -73.529147648212,45.5087092093657,0 -73.529145690824,45.5087111658432,0 -73.5291436374981,45.5087130213822,0 -73.5291414934331,45.5087147712844,0 -73.5291392640578,45.5087164111191,0 -73.5291035640578,45.5087413111191,0 -73.52910118822,45.508742878426,0 -73.5290987344829,45.5087443207265,0 -73.5290962094177,45.508745634158,0 -73.5290936197866,45.5087468152031,0 -73.5290909725248,45.5087478606989,0 -73.5290882747217,45.5087487678455,0 -73.5290440747217,45.5087623678455,0 -73.5290408768095,45.5087632471928,0 -73.5290376317093,45.5087639321885,0 -73.5290343512215,45.5087644203418,0 -73.5289708512215,45.5087719203418,0 -73.5289678105997,45.508772194151,0 -73.5289647594694,45.5087722988253,0 -73.5288272897643,45.5087731973201,0 -73.5287235688744,45.5087747439503,0 -73.5286647866324,45.5087828208996,0 -73.5285840089027,45.5088044112605,0 -73.5285052598512,45.5088343207561,0 -73.5284447385591,45.5088623847033,0 -73.5284190518185,45.5088815865947,0 -73.5283700973215,45.5089189542285,0 -73.5283248293898,45.5089587974906,0 -73.5282846195002,45.5090005000908,0 -73.5282457408468,45.5090468734244,0 -73.5282147077172,45.5090904461035,0 -73.528164107731,45.5091860238552,0 -73.5280776218764,45.5093772239691,0 -73.5280141596791,45.5095212305199,0 -73.527895761736,45.5098131461208,0 -73.5278348520545,45.5099765308855,0 -73.5277475725427,45.5102278322588,0 -73.5276688647427,45.5104830363375,0 -73.5276020738835,45.5107210781648,0 -73.5275300539838,45.5110102535021,0 -73.5274678339585,45.5112743140908,0 -73.5274672750484,45.5112764866241,0 -73.527432350465,45.5114016085908,0 -73.5274099334127,45.5115342590613,0 -73.5273965222094,45.5116260512968,0 -73.5273964601725,45.5116264649058,0 -73.5273611367102,45.5118560179378,0 -73.5273375800673,45.5122311426297,0 -73.527336108327,45.5123584972183,0 -73.5273429114054,45.5126180987431,0 -73.5273538784715,45.512706884296,0 -73.5273688789514,45.5127874030007,0 -73.5273949516682,45.5129028817874,0 -73.5274250744608,45.512998824838,0 -73.5274252437778,45.5129993741513,0 -73.5274288427459,45.5130112707402,0 -73.5277403417165,45.514040467339,0 -73.5277410637016,45.5140430840187,0 -73.5277416557037,45.5140457331334,0 -73.5277519557037,45.5140978331334,0 -73.5277524299167,45.5141006016353,0 -73.5277527621715,45.5141033907369,0 -73.5277529516015,45.5141061931639,0 -73.5277529977126,45.5141090016073,0 -73.5277529003845,45.5141118087425,0 -73.5277526598712,45.5141146072482,0 -73.5277466598712,45.5141683072482,0 -73.5277462648874,45.5141711622542,0 -73.5277457208846,45.5141739926487,0 -73.5277450293567,45.5141767906588,0 -73.5277441922029,45.514179548601,0 -73.527743211722,45.5141822589016,0 -73.5277420906066,45.5141849141175,0 -73.5277230906065,45.5142268141175,0 -73.5277217290044,45.5142296045904,0 -73.5277202121025,45.5142323137799,0 -73.5277185447353,45.5142349330519,0 -73.5277167322166,45.5142374540586,0 -73.5277147803231,45.5142398687658,0 -73.5276790803231,45.5142815687658,0 -73.527677244597,45.5142836077924,0 -73.5276753094715,45.5142855527367,0 -73.5276732797617,45.5142873987589,0 -73.5276711605187,45.5142891412653,0 -73.5276689570158,45.5142907759196,0 -73.5276666747366,45.5142922986543,0 -73.5276643193601,45.51429370568,0 -73.5276618967478,45.5142949934955,0 -73.5276110967478,45.5143203934955,0 -73.5276084550391,45.5143216279313,0 -73.5276057516208,45.5143227206279,0 -73.5276029940914,45.5143236685139,0 -73.5276001902015,45.5143244689251,0 -73.5275394902015,45.5143400689251,0 -73.5275362418463,45.5143407997023,0 -73.5275329552244,45.5143413325844,0 -73.5275296423805,45.5143416656187,0 -73.5274682423805,45.5143459656187,0 -73.5274656595118,45.5143460855766,0 -73.5274630738595,45.51434608401,0 -73.5274604911381,45.5143459609223,0 -73.5274579170557,45.5143457165857,0 -73.5273964170557,45.5143384165857,0 -73.5273937568231,45.5143380346966,0 -73.5273911184214,45.5143375233134,0 -73.5273885081501,45.5143368836571,0 -73.5273859322416,45.514336117255,0 -73.5273452322416,45.514322917255,0 -73.5273423082822,45.5143218768911,0 -73.5273394476599,45.5143206732565,0 -73.5273366594833,45.5143193101838,0 -73.5272914594833,45.5142956101838,0 -73.5272889510525,45.5142942102161,0 -73.5272865191386,45.5142926811871,0 -73.5272841703759,45.514291027268,0 -73.5272509703759,45.514266327268,0 -73.527248440928,45.514264327616,0 -73.5272460330069,45.5142621831743,0 -73.5272437548882,45.5142599013133,0 -73.5272416144018,45.5142574898754,0 -73.5272155144018,45.5142262898754,0 -73.5272136865127,45.5142239820093,0 -73.5272119847339,45.5142215796411,0 -73.5272104139414,45.5142190896541,0 -73.5271845139414,45.5141754896541,0 -73.5271831354526,45.5141730273647,0 -73.5271818850697,45.5141704976132,0 -73.5271807660844,45.5141679070588,0 -73.5271797814423,45.514165262521,0 -73.5271353814423,45.514035962521,0 -73.5271346698958,45.5140337376505,0 -73.5271340534613,45.5140314845737,0 -73.5270991534613,45.5138923845737,0 -73.527098530271,45.5138895956762,0 -73.5270980527778,45.5138867781746,0 -73.5270795527778,45.5137572781746,0 -73.5270792875141,45.5137551163947,0 -73.5270791080478,45.5137529458074,0 -73.5270648514733,45.5135258375772,0 -73.5270604591136,45.5134759938432,0 -73.5270504477596,45.5134091587859,0 -73.5270365475553,45.5133610496372,0 -73.5270190357947,45.5133123132029,0 -73.526981463632,45.5132304936203,0 -73.5269312172332,45.5131394160178,0 -73.5269273458234,45.5131335709481,0 -73.5269268557342,45.5131328177147,0 -73.5268720198765,45.5130470134051,0 -73.5267543446591,45.5128822681006,0 -73.5267537359746,45.5128813983151,0 -73.5265538359746,45.5125897983151,0 -73.5265534723515,45.5125892611217,0 -73.5264730723515,45.5124689611217,0 -73.5264718421343,45.5124670349236,0 -73.5264046421343,45.5123568349236,0 -73.5264034298461,45.5123547449857,0 -73.5261142298461,45.5118299449857,0 -73.5261141760385,45.5118298471083,0 -73.5256152760385,45.5109201471083,0 -73.5256147395586,45.5109191444367,0 -73.5252993130549,45.5103146769162,0 -73.5252500910694,45.5102234069997,0 -73.5252489662602,45.5102212041549,0 -73.5252479416274,45.5102189529666,0 -73.5252064416274,45.5101220529666,0 -73.5252054453698,45.5101195603786,0 -73.5252045719149,45.5101170221508,0 -73.5251753719149,45.5100249221508,0 -73.5251750906287,45.5100240073926,0 -73.5251452906288,45.5099240073926,0 -73.5251450850075,45.509923300119,0 -73.5251251907471,45.509853120366,0 -73.5250532964933,45.5096002405778,0 -73.5248394276019,45.5088471022857,0 -73.5244968722011,45.5077187785725,0 -73.5240411725431,45.5062179796989,0 -73.5240411050961,45.5062177558593,0 -73.5238704072389,45.5056468630258,0 -73.5237851093884,45.5053618702076,0 -73.5235508051397,45.5045782560053,0 -73.5235506729461,45.5045778069389,0 -73.5234154729461,45.5041112069389,0 -73.5234147189291,45.5041083124471,0 -73.5234141233814,45.5041053812447,0 -73.5234136880645,45.5041024220009,0 -73.5234053880645,45.5040329220009,0 -73.5234051139236,45.504029938166,0 -73.5234050026887,45.5040269438296,0 -73.5234050546899,45.504023947879,0 -73.5234052697728,45.5040209592065,0 -73.5234056472991,45.5040179866827,0 -73.5234119472991,45.5039772866827,0 -73.5234125065587,45.5039742428769,0 -73.5234132361349,45.5039712353459,0 -73.5234141337179,45.5039682736117,0 -73.5234151964658,45.5039653670516,0 -73.5234164210138,45.5039625248682,0 -73.5234178034848,45.5039597560601,0 -73.5234331034848,45.5039311560601,0 -73.5234345445266,45.5039286257585,0 -73.5234361174642,45.5039261752699,0 -73.5234378178885,45.5039238114627,0 -73.5234396410334,45.5039215409628,0 -73.5234415817887,45.5039193701343,0 -73.5234436347144,45.503917305062,0 -73.5234697347144,45.503892405062,0 -73.5234720914053,45.5038902830824,0 -73.523474566479,45.503888300458,0 -73.5234771517071,45.5038864637802,0 -73.5234798384947,45.5038847791552,0 -73.5235135384947,45.5038649791552,0 -73.5235162766102,45.5038634733684,0 -73.5235190958236,45.5038621255162,0 -73.5235219870348,45.5038609399497,0 -73.5235249409108,45.5038599204956,0 -73.5235851773312,45.5038410286133,0 -73.5236515931792,45.5038183388285,0 -73.5236954454278,45.5037926832139,0 -73.5237243333145,45.5037666080951,0 -73.5237383418101,45.5037459972347,0 -73.5237415362569,45.5037276049651,0 -73.5237378155012,45.5036962647531,0 -73.5237124506785,45.5036086753654,0 -73.5226603336725,45.5001129511183,0 -73.5226601960851,45.5001124865712,0</coordinates></LineString>
  </Placemark>
</Folder>
</Document></kml>
