<?xml version="1.0" encoding="utf-8" ?>
<kml xmlns="http://www.opengis.net/kml/2.2">
<Document id="root_doc">
<Schema name="monza_boundary" id="monza_boundary">
	<SimpleField name="access" type="string"></SimpleField>
	<SimpleField name="highway" type="string"></SimpleField>
	<SimpleField name="importance" type="string"></SimpleField>
	<SimpleField name="lanes" type="string"></SimpleField>
	<SimpleField name="lit" type="string"></SimpleField>
	<SimpleField name="note" type="string"></SimpleField>
	<SimpleField name="old_name" type="string"></SimpleField>
	<SimpleField name="oneway" type="string"></SimpleField>
	<SimpleField name="sport" type="string"></SimpleField>
	<SimpleField name="surface" type="string"></SimpleField>
	<SimpleField name="traffic_si" type="string"></SimpleField>
	<SimpleField name="traffic__1" type="string"></SimpleField>
	<SimpleField name="wikidata" type="string"></SimpleField>
</Schema>
<Folder><name>monza_boundary</name>
  <Placemark id="monza_boundary.1">
	<name>Rettifilo di partenza</name>
	<Style><LineStyle><color>ff0000ff</color></LineStyle><PolyStyle><fill>0</fill></PolyStyle></Style>
	<ExtendedData><SchemaData schemaUrl="#monza_boundary">
		<SimpleData name="access">no</SimpleData>
		<SimpleData name="highway">raceway</SimpleData>
		<SimpleData name="importance">international</SimpleData>
		<SimpleData name="lanes">1</SimpleData>
		<SimpleData name="lit">no</SimpleData>
		<SimpleData name="oneway">yes</SimpleData>
		<SimpleData name="sport">motor</SimpleData>
		<SimpleData name="surface">asphalt</SimpleData>
	</SchemaData></ExtendedData>
      <LineString><coordinates>9.28071486025285,45.6162001004211,0 9.28071497431917,45.6162009275006,0 9.28111847431917,45.6189711275006,0 9.28111870891775,45.6189725982235,0 9.28122408842224,45.6195802268247,0 9.28135422779412,45.6206175464841,0 9.28135423495925,45.6206176033563,0 9.28141473174031,45.6210957779134,0 9.28142852854499,45.6212056524666,0 9.28183933406513,45.6244560962854,0 9.28183966039795,45.6244583140315,0 9.28184376039795,45.6244827140315,0 9.28184432318173,45.6244855916296,0 9.28184852318173,45.6245043916296,0 9.28184928010316,45.6245073828074,0 9.28185020357049,45.6245103268324,0 9.28185129067746,45.6245132144392,0 9.28185253800279,45.6245160365402,0 9.281853941621,45.6245187842539,0 9.281865641621,45.6245401842539,0 9.28186714525086,45.6245427653834,0 9.28186878679768,45.6245452610708,0 9.28187056141922,45.6245476639545,0 9.28187246388072,45.6245499669465,0 9.28187448857031,45.6245521632534,0 9.28189278857031,45.6245709632534,0 9.281894740889,45.6245728717643,0 9.28189678551144,45.6245746810409,0 9.28189891739941,45.6245763866246,0 9.2819011312997,45.6245779843129,0 9.28190342175699,45.6245794701689,0 9.28190578312732,45.6245808405311,0 9.28190820959199,45.6245820920228,0 9.28193440959199,45.6245947920228,0 9.28193753897944,45.6245961902527,0 9.28194074938429,45.6245973908415,0 9.28197704938429,45.6246096908415,0 9.28198000181235,45.6246105996536,0 9.28198300060783,45.6246113412711,0 9.28198603631061,45.6246119133546,0 9.28198909934418,45.6246123140992,0 9.28202719934418,45.6246162140992,0 9.28202999602582,45.6246164284783,0 9.2820328,45.6246165,0 9.282077,45.6246165,0 9.28207920729447,45.6246164556899,0 9.28208141103237,45.6246163228309,0 9.28223695722584,45.62460380762,0 9.28227388065268,45.6246022615652,0 9.28231438967281,45.6246044287144,0 9.2823482535691,45.6246131500427,0 9.28236245509765,45.6246191433483,0 9.28237956806262,45.624629668579,0 9.28239132810392,45.6246383016729,0 9.2823996352771,45.6246468700779,0 9.28241053271737,45.6246649564055,0 9.28241225866694,45.6246736293021,0 9.28241393635652,45.6246872993653,0 9.28241236070231,45.6247018741669,0 9.28241153765149,45.624707115701,0 9.28238221694349,45.6247851481284,0 9.28235932036687,45.6248460390242,0 9.2821391214364,45.6254314361809,0 9.28213789430708,45.6254350802693,0 9.28208149430708,45.6256241802693,0 9.28208044568369,45.6256282606926,0 9.28204664568369,45.6257843606926,0 9.28204614597873,45.6257869721998,0 9.28204577306991,45.6257896048058,0 9.28202547306991,45.6259630048058,0 9.28202523821184,45.6259655033092,0 9.28202511756925,45.625968009925,0 9.28201951756925,45.626189509925,0 9.28201951165111,45.6261920320275,0 9.28201962136367,45.6261945517495,0 9.28201984647623,45.6261970637926,0 9.28215354647623,45.6273825637926,0 9.28215391126329,45.6273852166358,0 9.28216851126329,45.6274751166358,0 9.28216899520769,45.6274777036978,0 9.28216960236225,45.627480264646,0 9.28223520236225,45.627730164646,0 9.28223606466262,45.627733111903,0 9.28223709010886,45.6277360064401,0 9.28229009010886,45.6278733064401,0 9.28229097080264,45.627875452131,0 9.28229194117889,45.6278775587825,0 9.28237804117889,45.6280545587825,0 9.28237929996305,45.6280569906859,0 9.28238067823058,45.6280593569213,0 9.28252347823058,45.6282910569213,0 9.28252494561114,45.6282933123675,0 9.28252652154601,45.6282954933472,0 9.28268592154601,45.6285050933472,0 9.28268786820956,45.6285075085607,0 9.28268994794323,45.6285098101826,0 9.28287324794323,45.6287015101826,0 9.28287504729038,45.628703306932,0 9.28287692776172,45.6287050185937,0 9.28303472776172,45.6288421185937,0 9.28303695290027,45.6288439517455,0 9.28320115290027,45.6289721517455,0 9.28320407800928,45.6289742843983,0 9.28337617800928,45.6290912843983,0 9.28337867257073,45.6290928837686,0 9.28355407257073,45.6291987837686,0 9.28355654829116,45.6292001923582,0 9.28376694829116,45.6293127923582,0 9.28376887380491,45.6293137746597,0 9.28396367380491,45.6294083746597,0 9.28396564951433,45.6294092862688,0 9.28415964951433,45.6294941862688,0 9.28416227706329,45.6294952562876,0 9.28444627706329,45.6296024562876,0 9.2844491693204,45.6296034569979,0 9.2848391693204,45.6297263569979,0 9.28484312369454,45.6297274428477,0 9.28517222369454,45.6298047428477,0 9.28517422645098,45.6298051740684,0 9.28547182645098,45.6298634740684,0 9.28547340436855,45.6298637593643,0 9.28573940436855,45.6299078593643,0 9.28574155342722,45.6299081721948,0 9.28606835342722,45.6299491721948,0 9.28607058968341,45.6299494064319,0 9.2865472896834,45.6299895064319,0 9.28654881775814,45.6299896135665,0 9.28858341775814,45.6301038135665,0 9.28858368952655,45.6301038281461,0 9.28962538952655,45.6301571281462,0 9.28962633276864,45.6301571682949,0 9.29065372973305,45.6301920681918,0 9.29121678090168,45.6302112563041,0 9.29125610795733,45.6302130922108,0 9.29129086064207,45.6302160197468,0 9.2913206543464,45.6302196531253,0 9.29134717533925,45.6302248674222,0 9.29136893728467,45.6302300022633,0 9.29137690000272,45.6302331675674,0 9.29138854847154,45.6302403006185,0 9.29139802571221,45.6302473595288,0 9.29140517553143,45.630254389183,0 9.29141435732094,45.630265543919,0 9.2914233004409,45.6302778869028,0 9.29143033351292,45.6302909699292,0 9.29143842315323,45.6303075841367,0 9.29150228742746,45.6304617495243,0 9.29150368292588,45.6304648444152,0 9.29151438292588,45.6304867444152,0 9.29151553622593,45.6304889743836,0 9.2915167900879,45.6304911493987,0 9.2915300900879,45.6305130493987,0 9.29153133723382,45.6305150085108,0 9.29154253723382,45.6305318085108,0 9.29154400418331,45.63053390185,0 9.29154556681191,45.6305359247691,0 9.29154722174433,45.6305378728986,0 9.29156102174433,45.6305533728986,0 9.29156294526163,45.630555425205,0 9.29156497118806,45.6305573764873,0 9.29158027118806,45.6305713764873,0 9.29158268140565,45.6305734569948,0 9.2915852079754,45.6305753945462,0 9.29158784243005,45.6305771826483,0 9.29160824243005,45.6305901826482,0 9.29161057795354,45.630591590796,0 9.29161298040772,45.6305928814409,0 9.29163058040772,45.6306017814409,0 9.29163340508595,45.630603110552,0 9.29163630062302,45.6306042772605,0 9.29163925769067,45.6306052778076,0 9.29166205769067,45.6306122778076,0 9.29166415224087,45.6306128757507,0 9.29166626882482,45.6306133902883,0 9.29169596882482,45.6306199902883,0 9.29169999610232,45.6306207291135,0 9.29173029610232,45.6306251291135,0 9.29173112642416,45.6306252432354,0 9.29179512642416,45.6306335432354,0 9.29179558280943,45.6306336004834,0 9.29195305311235,45.6306526847651,0 9.29205122440766,45.6306650559445,0 9.29214636256479,45.6306773960402,0 9.29221701104277,45.6306875170301,0 9.2922850680493,45.6306977504194,0 9.29238844633509,45.6307142829776,0 9.29247493519887,45.6307286647267,0 9.29256084829126,45.6307447241695,0 9.29263387981531,45.630760472207,0 9.29407895451408,45.6310961734065,0 9.29407918366365,45.6310962261235,0 9.29533288366365,45.6313818261235,0 9.29533493419141,45.6313822523481,0 9.29540033419141,45.6313945523481,0 9.29540169162546,45.6313947900777,0 9.29546579162546,45.6314051900777,0 9.29546885430064,45.6314055990579,0 9.29554025430063,45.6314130990579,0 9.29554325343107,45.6314133313786,0 9.29559725343107,45.6314160313786,0 9.29559904195723,45.6314160916553,0 9.29565644195723,45.6314170916553,0 9.295659794821,45.6314170478374,0 9.295701094821,45.6314152478374,0 9.29570234957411,45.631415178781,0 9.2957429495741,45.631412478781,0 9.29574448730012,45.6314123548347,0 9.29578248730012,45.6314087548347,0 9.29578389459149,45.6314086032175,0 9.29582529459149,45.6314036032175,0 9.29582714777552,45.6314033473559,0 9.29586574777552,45.6313973473559,0 9.29586843781119,45.6313968604601,0 9.29590083781119,45.6313901604601,0 9.29590199086478,45.631389909091,0 9.29594299086478,45.631380509091,0 9.29594439058619,45.6313801688262,0 9.29598719058619,45.6313691688262,0 9.29598855992916,45.6313687980012,0 9.29601665992916,45.6313607980012,0 9.29601891611387,45.6313601029903,0 9.29608041611387,45.6313397029903,0 9.29608275092968,45.6313388696502,0 9.29614575092968,45.6313147696502,0 9.29614861068566,45.6313135823578,0 9.29619431068566,45.6312930823578,0 9.29619634249524,45.6312921205844,0 9.29623264249524,45.6312740205844,0 9.29623624191893,45.6312720549722,0 9.29627654191893,45.6312480549722,0 9.29627801141024,45.6312471482943,0 9.29631761141024,45.6312218482943,0 9.29632055791313,45.6312198281208,0 9.29636725791313,45.6311855281208,0 9.29636933572559,45.6311839243082,0 9.29641053572559,45.6311505243082,0 9.29641238145194,45.6311489594906,0 9.29641415656274,45.6311473150023,0 9.29644555656274,45.6311169150023,0 9.29644799028813,45.6311144040599,0 9.29647409028813,45.6310857040599,0 9.2964753862457,45.6310842268233,0 9.2965017862457,45.6310530268233,0 9.29650324513488,45.6310512271442,0 9.29652684513488,45.6310208271442,0 9.29652814733181,45.6310190793104,0 9.29652937925487,45.6310172812545,0 9.29654217925487,45.6309977812545,0 9.29654345383509,45.6309957438283,0 9.29655965383509,45.6309685438283,0 9.2965604414544,45.6309671772041,0 9.2965740414544,45.6309427772041,0 9.29657532385773,45.6309403342774,0 9.29657648213698,45.6309378301133,0 9.29659088213698,45.6309045301133,0 9.29659167290747,45.6309026019838,0 9.29660347290747,45.6308722019838,0 9.29660435470721,45.6308697609999,0 9.29660512037051,45.6308672811343,0 9.29662052037051,45.6308128811343,0 9.29662115026236,45.6308104446961,0 9.29662166804395,45.630807981995,0 9.29663296804395,45.630747381995,0 9.29663328021186,45.6307455336236,0 9.29664188021186,45.6306887336236,0 9.29664202877151,45.6306876842242,0 9.29678302856164,45.6296174858171,0 9.29690712834867,45.6286759874329,0 9.29690738052093,45.6286737086175,0 9.29690753750023,45.6286714212724,0 9.29690993750023,45.6286211212724,0 9.29690999747386,45.6286190271323,0 9.29691029747386,45.6285877271323,0 9.29691024300768,45.6285846968206,0 9.29691002170082,45.6285816741101,0 9.2969096342253,45.6285786681795,0 9.2969039342253,45.6285423681795,0 9.29690345867974,45.6285397535828,0 9.29690285739403,45.6285371650089,0 9.29690213177195,45.6285346085011,0 9.29689233177195,45.6285030085011,0 9.29689137849738,45.6285002039636,0 9.29689027561682,45.628497454815,0 9.29687707561682,45.628466954815,0 9.29687590106428,45.6284644195763,0 9.2968745992741,45.6284619472592,0 9.2968585992741,45.6284333472592,0 9.29685704549725,45.6284307412868,0 9.29685535038306,45.6284282249595,0 9.29685351908991,45.6284258059348,0 9.29684181908991,45.6284112059348,0 9.29684063919927,45.6284097832547,0 9.29682793919926,45.6283949832547,0 9.29682631658564,45.6283931747484,0 9.29682461568075,45.6283914396713,0 9.29681211568075,45.6283792396713,0 9.29680909799648,45.6283765050853,0 9.29678269799648,45.6283543050853,0 9.296780616053,45.628352638823,0 9.29677845579292,45.6283510754309,0 9.29677622229438,45.6283496185839,0 9.29674662229438,45.6283313185839,0 9.29674481195329,45.6283302466617,0 9.29671251195329,45.6283119466617,0 9.29671104874204,45.6283111467161,0 9.29669264874204,45.6283014467161,0 9.29669006327654,45.6283001691951,0 9.29666906327654,45.6282904691951,0 9.29666762412861,45.6282898292865,0 9.29662342412861,45.6282709292865,0 9.29662290113055,45.6282707088365,0 9.29657500113055,45.6282508088365,0 9.29657387828225,45.6282503567737,0 9.2929508266726,45.6268378315884,0 9.29282996241317,45.6267882564205,0 9.29270370073069,45.6267330107354,0 9.29250608214318,45.6266422695392,0 9.29242356674128,45.6266030474168,0 9.29234513968616,45.6265647758071,0 9.29223658283969,45.6265095032735,0 9.29213206039664,45.6264550562214,0 9.29201969787864,45.6263938578915,0 9.29193493605008,45.6263463594694,0 9.29187144964911,45.6263099117385,0 9.29181199552521,45.6262745552993,0 9.29144437502224,45.6260477893913,0 9.29144420488722,45.6260476848697,0 9.2860627510548,45.6227550578561,0 9.28604071479823,45.6227409921604,0 9.28600281529136,45.6227143778665,0 9.28597578350043,45.6226927524337,0 9.28595409181142,45.6226734519545,0 9.28594247478146,45.6226600923701,0 9.28593440071239,45.622648317686,0 9.28592749411472,45.6226345044907,0 9.28592236789477,45.6226088021935,0 9.28591975572569,45.6225761500799,0 9.2859220976349,45.622543112432,0 9.28592851648633,45.6225021450567,0 9.28596709526072,45.6222634763696,0 9.28596751330338,45.6222603084252,0 9.28597201330338,45.6222164084252,0 9.2859722593646,45.6222129138217,0 9.2859743593646,45.6221583138217,0 9.28597439587412,45.6221555263312,0 9.28597329587412,45.6220657263312,0 9.28597321284608,45.6220633049498,0 9.28597302326023,45.6220608895744,0 9.28597272748446,45.622058484892,0 9.28596382748446,45.621997284892,0 9.2859634474569,45.6219950082189,0 9.28596297224041,45.6219927494957,0 9.28594877224041,45.6219316494957,0 9.28594818083809,45.6219293341341,0 9.28594748941748,45.6219270466479,0 9.28593238941748,45.6218807466479,0 9.28593152486395,45.6218782940171,0 9.28591502486395,45.6218347940171,0 9.28591403219026,45.6218323547457,0 9.28591292389021,45.6218299657884,0 9.28588322389021,45.6217697657884,0 9.28588177587936,45.6217670278709,0 9.28585197587936,45.6217143278709,0 9.28585029029923,45.6217115427353,0 9.28584844289026,45.6217088622053,0 9.28580434289026,45.6216487622053,0 9.28580352413042,45.6216476748595,0 9.28576072413042,45.6215922748595,0 9.28575896475875,45.6215901130621,0 9.28575709812749,45.621588043172,0 9.28571629812749,45.621545043172,0 9.28571341143109,45.6215422164165,0 9.28567131143109,45.6215039164165,0 9.28566960390689,45.6215024261437,0 9.28562540390689,45.6214654261437,0 9.28562296147274,45.6214634964445,0 9.28559746147274,45.6214444964445,0 9.28559631131919,45.6214436623517,0 9.28556811131919,45.6214237623517,0 9.28556717100702,45.6214231133229,0 9.28553117100702,45.6213988133229,0 9.28553046656146,45.6213983456638,0 9.28549186656146,45.6213731456638,0 9.28548957191925,45.6213717266338,0 9.28540957191925,45.6213249266338,0 9.28540773326908,45.6213238977778,0 9.28533853326908,45.6212868977778,0 9.28533692442184,45.6212860712812,0 9.28527238587781,45.6212542467617,0 9.28522599294469,45.6212295614951,0 9.28519316124677,45.6212100298901,0 9.28516745459513,45.6211926908398,0 9.28514555670978,45.6211736379553,0 9.2851258853356,45.6211548644447,0 9.28510546937566,45.6211270167336,0 9.28509241460844,45.6211077256126,0 9.28507977886799,45.6210822981349,0 9.28507098266571,45.6210542806017,0 9.28504575801598,45.6209405756422,0 9.28473609269094,45.6191797786472,0 9.28425540422481,45.615956826467,0 9.28374871009142,45.6125251661995,0 9.28374863242074,45.6125246566952,0 9.28373723242074,45.6124521566952,0 9.28373684713976,45.6124499899061,0 9.28372874713976,45.6124091899061,0 9.28372806687355,45.6124062018183,0 9.28372722123474,45.612403256258,0 9.28371452123474,45.612363256258,0 9.28371373131601,45.6123609472375,0 9.2837128397468,45.6123586755307,0 9.2837000397468,45.6123280755307,0 9.28369889212257,45.6123255172041,0 9.28369761560675,45.6123230206898,0 9.28367841560675,45.6122877206898,0 9.28367669424591,45.612284777128,0 9.28365869424591,45.612256077128,0 9.28365717791834,45.6122537883946,0 9.28365554926779,45.6122515781802,0 9.28362954926779,45.6122180781802,0 9.28362817596578,45.6122163794819,0 9.28359677596578,45.6121790794819,0 9.2835940543615,45.6121760782063,0 9.2835528543615,45.6121338782063,0 9.28355068320245,45.6121317733488,0 9.28351068320245,45.6120950733488,0 9.28350988545259,45.6120943556205,0 9.28347338545259,45.6120621556205,0 9.28347020341502,45.6120595532985,0 9.28342200341502,45.6120230532985,0 9.28341969250061,45.6120213955672,0 9.28341729898426,45.6120198595079,0 9.28337619898426,45.6119949595079,0 9.28337412848693,45.6119937658308,0 9.28331882848693,45.6119634658308,0 9.28331655111995,45.6119622862023,0 9.28326765111994,45.6119383862023,0 9.28326470063625,45.6119370502904,0 9.28321850063625,45.6119177502904,0 9.28321726665841,45.6119172522434,0 9.28317876665841,45.6119022522434,0 9.28317765363518,45.6119018324043,0 9.28314175363518,45.6118887324043,0 9.28314037073475,45.611888248553,0 9.28310037073475,45.611874848553,0 9.28309901511059,45.6118744138496,0 9.28306181511059,45.6118630138496,0 9.28305896220484,45.6118622229083,0 9.28297766220484,45.6118420229083,0 9.28297543153002,45.6118415176713,0 9.28289093153002,45.6118242176713,0 9.2828874271858,45.6118236175122,0 9.2828418271858,45.6118173175122,0 9.28284151834248,45.6118172757345,0 9.28279921834248,45.6118116757345,0 9.2827963286367,45.6118113706018,0 9.2827355286367,45.6118065706018,0 9.28273505221841,45.6118065350712,0 9.28268805221841,45.6118032350712,0 9.28268435492896,45.6118031002182,0 9.28264885492896,45.6118030002182,0 9.28264751929056,45.6118030126749,0 9.28261491929056,45.6118037126749,0 9.28261334092114,45.6118037692483,0 9.28256954092114,45.6118059692483,0 9.28256796782274,45.6118060708815,0 9.28252746782274,45.6118092708815,0 9.28252729266599,45.6118092850026,0 9.28248959266599,45.6118123850026,0 9.28248650940391,45.6118127263105,0 9.28244990940391,45.6118178263105,0 9.28244916095697,45.6118179358541,0 9.28241526095697,45.6118231358541,0 9.28241325765793,45.6118234811518,0 9.28234535765793,45.6118364811518,0 9.2823447398357,45.6118366031096,0 9.2822970398357,45.6118463031096,0 9.28229558623829,45.6118466192337,0 9.28224508623829,45.6118583192337,0 9.28224434737362,45.6118584958015,0 9.28215014737362,45.6118816958015,0 9.28214815859771,45.6118822252618,0 9.28206015859771,45.6119074252618,0 9.28205898121515,45.6119077766979,0 9.28200008121514,45.6119260766979,0 9.28199698737915,45.6119271398197,0 9.28193548737915,45.6119503398197,0 9.2819345612101,45.6119506987904,0 9.2818742612101,45.6119746987904,0 9.28187289952344,45.6119752620013,0 9.28182049952344,45.6119977620013,0 9.28181905399144,45.6119984074927,0 9.28177055399144,45.6120209074927,0 9.28176917047936,45.6120215729483,0 9.28171057047937,45.6120507729483,0 9.28170945685078,45.6120513437681,0 9.28167245685078,45.6120708437681,0 9.28167091772409,45.6120716865722,0 9.28162201772409,45.6120994865722,0 9.28162085643408,45.6121001656996,0 9.28157595643408,45.6121271656996,0 9.28157485148196,45.6121278480379,0 9.28151065148196,45.6121685480379,0 9.28150802936321,45.6121703180769,0 9.28144212936321,45.6122176180769,0 9.2814411883671,45.6122183087271,0 9.2813806883671,45.6122637087271,0 9.28137844060115,45.6122654889257,0 9.28131104060115,45.6123217889257,0 9.28130900542769,45.6123235758132,0 9.28124700542769,45.6123807758132,0 9.28124460910867,45.6123831259518,0 9.28117160910867,45.6124592259518,0 9.28117090717726,45.6124599714604,0 9.28114410717726,45.6124889714604,0 9.28114338763073,45.6124897654534,0 9.28110188763073,45.6125364654534,0 9.28110084671533,45.6125376715328,0 9.28107444671533,45.6125691715329,0 9.2810737332043,45.6125700407802,0 9.2810446332043,45.6126062407802,0 9.28104255618456,45.612608997422,0 9.28101765618456,45.612644297422,0 9.28101729418331,45.6126448169441,0 9.28098969418331,45.6126849169441,0 9.28098901250648,45.6126859313003,0 9.28096231250649,45.6127266313003,0 9.28096055202947,45.6127295029066,0 9.28092947525615,45.6127838622785,0 9.28090349855395,45.6128291216866,0 9.28090218851933,45.6128315425409,0 9.28088008851933,45.6128749425409,0 9.28087962582502,45.6128758728069,0 9.28085762582502,45.6129211728068,0 9.28085712277358,45.6129222374906,0 9.28083502277358,45.6129703374906,0 9.28083404916752,45.612972587379,0 9.28081534916752,45.613018587379,0 9.28081494161896,45.6130196196368,0 9.28079624161896,45.6130684196368,0 9.28079600850634,45.6130690391033,0 9.28075850850634,45.6131705391033,0 9.28075775347159,45.6131727227679,0 9.28075709081709,45.6131749362171,0 9.28073839081709,45.6132425362172,0 9.28073793547853,45.6132442947707,0 9.28072183547853,45.6133109947707,0 9.2807213983176,45.6133129634268,0 9.2807045983176,45.6133957634268,0 9.28070429366185,45.6133973901716,0 9.28068739366186,45.6134957901716,0 9.28068701567969,45.6134983507796,0 9.28067101567969,45.6136277507796,0 9.28067069285523,45.6136313054025,0 9.28066109285523,45.6137963054025,0 9.28066100258568,45.6138000333083,0 9.28066259249714,45.6139639929286,0 9.28063802176324,45.6148371529117,0 9.28063800117643,45.6148383402693,0 9.28063530117643,45.6152511402693,0 9.28063532932426,45.6152532957752,0 9.28064792932426,45.6156389957752,0 9.28064822266087,45.6156431488306,0 9.28067802266087,45.6159170488306,0 9.28067816025285,45.6159182004211,0</coordinates></LineString>
  </Placemark>
</Folder>
</Document></kml>
