<?xml version="1.0" encoding="utf-8" ?>
<kml xmlns="http://www.opengis.net/kml/2.2">
<Document id="root_doc">
<Schema name="monza_boundary" id="monza_boundary">
	<SimpleField name="access" type="string"></SimpleField>
	<SimpleField name="highway" type="string"></SimpleField>
	<SimpleField name="importance" type="string"></SimpleField>
	<SimpleField name="lanes" type="string"></SimpleField>
	<SimpleField name="lit" type="string"></SimpleField>
	<SimpleField name="note" type="string"></SimpleField>
	<SimpleField name="old_name" type="string"></SimpleField>
	<SimpleField name="oneway" type="string"></SimpleField>
	<SimpleField name="sport" type="string"></SimpleField>
	<SimpleField name="surface" type="string"></SimpleField>
	<SimpleField name="traffic_si" type="string"></SimpleField>
	<SimpleField name="traffic__1" type="string"></SimpleField>
	<SimpleField name="wikidata" type="string"></SimpleField>
</Schema>
<Folder><name>monza_boundary</name>
  <Placemark id="monza_boundary.1">
	<name>Rettifilo di partenza</name>
	<Style><LineStyle><color>ff0000ff</color></LineStyle><PolyStyle><fill>0</fill></PolyStyle></Style>
	<ExtendedData><SchemaData schemaUrl="#monza_boundary">
		<SimpleData name="access">no</SimpleData>
		<SimpleData name="highway">raceway</SimpleData>
		<SimpleData name="importance">international</SimpleData>
		<SimpleData name="lanes">1</SimpleData>
		<SimpleData name="lit">no</SimpleData>
		<SimpleData name="oneway">yes</SimpleData>
		<SimpleData name="sport">motor</SimpleData>
		<SimpleData name="surface">asphalt</SimpleData>
	</SchemaData></ExtendedData>
      <LineString><coordinates>9.28082388585288,45.6161854856062,0 9.28122721833868,45.6189545355497,0 9.28133269108225,45.6195627017765,0 9.28133307220588,45.6195652535159,0 9.28146336863813,45.6206038250779,0 9.28152386504075,45.6210819966437,0 9.28153766870377,45.6211919256232,0 9.28194832537023,45.6244411915158,0 9.28195199657583,45.6244630396661,0 9.28195418367375,45.624472829533,0 9.28195855329571,45.624480821833,0 9.28196487762169,45.6244873189548,0 9.28197930160805,45.6244943107344,0 9.28200647361652,45.6245035177786,0 9.28203560762517,45.6245065,0 9.2820747909259,45.6245065,0 9.28222918896762,45.6244940771691,0 9.28223129906052,45.6244939481513,0 9.28227189906052,45.6244922481513,0 9.2822745189849,45.624492200925,0 9.28227713818524,45.6244922785373,0 9.28232573818524,45.6244948785373,0 9.28232846051404,45.6244950920611,0 9.28233116888959,45.6244954404407,0 9.28233385663572,45.6244959228174,0 9.28233651712708,45.6244965380021,0 9.28237961712708,45.6245076380021,0 9.2823822143492,45.62450837532,0 9.28238477225939,45.6245092392042,0 9.28238728469399,45.6245102275729,0 9.28240908469399,45.6245194275729,0 9.28241162463924,45.6245205761508,0 9.2824141031274,45.6245218519445,0 9.2824165137918,45.6245232516766,0 9.2824391137918,45.6245371516766,0 9.28244100621037,45.6245383696522,0 9.28244284721799,45.6245396640259,0 9.28246014721799,45.6245523640259,0 9.28246257243631,45.6245542508693,0 9.28246488849598,45.6245562702082,0 9.28246708816794,45.6245584157396,0 9.28248298816794,45.6245748157396,0 9.28248510187853,45.6245771238454,0 9.28248708087984,45.624579548444,0 9.28248891876375,45.6245820816844,0 9.28249060957907,45.624584715364,0 9.28250970957908,45.624616415364,0 9.28251105386742,45.6246187764965,0 9.28251227991139,45.6246212011355,0 9.28251338471899,45.624623683364,0 9.28251436559412,45.6246262171244,0 9.2825152201431,45.6246287962336,0 9.28251594628053,45.6246314143975,0 9.28251654223437,45.624634065227,0 9.28252054223437,45.624654165227,0 9.28252119041654,45.6246582002671,0 9.28252389041655,45.6246802002671,0 9.28252418504714,45.6246833459037,0 9.28252429856911,45.6246865032681,0 9.28252423060785,45.6246896619416,0 9.28252398138762,45.6246928115014,0 9.28252158138761,45.6247150115014,0 9.2825212342253,45.6247176318205,0 9.2825193342253,45.6247297318205,0 9.28251882956098,45.6247324862024,0 9.28251818536143,45.6247352113286,0 9.28251740329653,45.6247379001351,0 9.28251648539352,45.6247405456521,0 9.28248518539352,45.6248238456521,0 9.2824622807141,45.624884758101,0 9.28224275585851,45.6254683632358,0 9.28218750820231,45.625653599615,0 9.2821547174935,45.6258050383619,0 9.28213501895542,45.6259733007513,0 9.28212957820629,45.6261885018104,0 9.28226270342981,45.6273689053444,0 9.28227666646802,45.6274548832303,0 9.28234081703765,45.627699261696,0 9.2823918740785,45.627831528332,0 9.28247575985278,45.6280039764394,0 9.28261570873105,45.6282310503547,0 9.28277159843149,45.628436034553,0 9.28295099331512,45.6286236504787,0 9.28310578369985,45.6287581356609,0 9.2832674196562,45.6288843337706,0 9.28343679626023,45.6289994823044,0 9.2836097078125,45.6291038798721,0 9.28381789860534,45.6292152975683,0 9.2840107473583,45.6293089499915,0 9.28420245051452,45.6293928448263,0 9.28448369073474,45.6294990031066,0 9.28487027374658,45.6296208263173,0 9.28519637894345,45.6296974228889,0 9.28549218666994,45.6297553717815,0 9.28575632419075,45.6297991630021,0 9.28608093083914,45.6298398878264,0 9.28655574702538,45.62987982936,0 9.28858944637505,45.6299939788074,0 9.2896305390249,45.6300472477315,0 9.29065746723135,45.6300821317051,0 9.29122087324695,45.6301013319097,0 9.29122156477436,45.6301013598332,0 9.29126226477436,45.6301032598332,0 9.29126431680019,45.6301033941139,0 9.29130111680019,45.6301064941139,0 9.29130315799065,45.6301067044767,0 9.29133595799065,45.6301107044767,0 9.29133991042774,45.6301113331692,0 9.29136941042774,45.6301171331692,0 9.29137143068496,45.6301175699543,0 9.29139813068496,45.6301238699543,0 9.29140073121005,45.6301245510621,0 9.29140329534822,45.6301253584245,0 9.29140581697381,45.6301262901127,0 9.29142191697381,45.6301326901127,0 9.29142479724523,45.6301339312942,0 9.29142760208539,45.6301353346355,0 9.29143032237369,45.6301368955732,0 9.29144812237369,45.6301477955732,0 9.29145021979169,45.6301491462906,0 9.2914522538014,45.6301505907296,0 9.2914667538014,45.6301613907296,0 9.29146872950207,45.6301629335134,0 9.29147063285437,45.6301645647168,0 9.29147245990465,45.6301662809517,0 9.29148435990465,45.6301779809517,0 9.29148636829671,45.6301800622389,0 9.29148826450039,45.6301822462276,0 9.29150036450039,45.6301969462276,0 9.29150243807777,45.6301996298957,0 9.29151453807777,45.6302163298958,0 9.29151593217522,45.6302183471443,0 9.29151723497317,45.6302204245265,0 9.29151844388207,45.6302225579131,0 9.29152774388207,45.6302398579131,0 9.29152874966912,45.6302418224124,0 9.29153804966912,45.6302609224124,0 9.29153941257254,45.6302639504757,0 9.29160326260536,45.6304180814852,0 9.29161211410746,45.630436198111,0 9.29162350702478,45.6304549578771,0 9.29163193225878,45.6304675957281,0 9.29164130600998,45.6304781242168,0 9.29165099595247,45.6304869908308,0 9.291665055553,45.6304959503802,0 9.29167603016973,45.6305015000443,0 9.29169225878461,45.6305064825138,0 9.29171783129647,45.6305121652942,0 9.29174568917161,45.6305162106622,0 9.2918090455025,45.6305244271864,0 9.29196641719057,45.6305434995166,0 9.29196667650955,45.6305435315694,0 9.29206507650955,45.6305559315694,0 9.29206527462789,45.6305559569011,0 9.29216087462789,45.6305683569011,0 9.29216159958461,45.6305684558407,0 9.29223279958462,45.6305786558407,0 9.29223317813745,45.630578711416,0 9.29230167813745,45.630589011416,0 9.29230218539628,45.6305890901124,0 9.29240598539628,45.6306056901124,0 9.29240632176452,45.6306057449748,0 9.29249352176452,45.6306202449748,0 9.29249460592094,45.630620436423,0 9.29258180592094,45.630636736423,0 9.29258329336776,45.630637035757,0 9.29265749336776,45.630653035757,0 9.29265834548592,45.6306532265935,0 9.29410373096743,45.6309889999901,0 9.29535629513088,45.63127434124,0 9.29541998858073,45.6312863202834,0 9.29548188278331,45.6312963624005,0 9.29555024931198,45.6313035437585,0 9.29560185279617,45.6313061239327,0 9.29565668094269,45.6313070791269,0 9.29569567740802,45.6313053795231,0 9.29573488069357,45.6313027724081,0 9.29577140807878,45.6312993119189,0 9.29581117664045,45.6312945089525,0 9.29584750115448,45.631288862655,0 9.29587798431364,45.6312825590388,0 9.29591770704633,45.6312734518757,0 9.29595912235102,45.6312628077553,0 9.29598540451858,45.6312553252877,0 9.29604460708535,45.6312356873631,0 9.29610500247495,45.6312125837299,0 9.29614826358011,45.6311931777637,0 9.29618172112521,45.6311764950759,0 9.2962195162184,45.6311539868319,0 9.29625688251585,45.6311301139196,0 9.29630108404039,45.6310976489883,0 9.29633938320606,45.6310666006355,0 9.29636778664373,45.6310391017659,0 9.29639204853571,45.6310124229805,0 9.29641706535385,45.63098285765,0 9.29643861750363,45.6309550955587,0 9.29644956119309,45.6309384235318,0 9.2964647425559,45.6309129338362,0 9.29647661400203,45.6308916350652,0 9.29648950420998,45.6308618264594,0 9.29649998715985,45.6308348195377,0 9.29651399362377,45.6307853421586,0 9.29652466012045,45.6307281395304,0 9.29653304045254,45.6306727903603,0 9.29667397122849,45.6296031157758,0 9.29679777184118,45.6286638871139,0 9.29680001256743,45.6286169252264,0 9.29680025884926,45.6285912298217,0 9.29679588528123,45.6285633770989,0 9.29678814659097,45.6285384237712,0 9.29677723523471,45.6285132119252,0 9.29676482805624,45.6284910340937,0 9.29675655890133,45.6284807153192,0 9.29674604423051,45.6284684620021,0 9.29673674250704,45.62845938352,0 9.2967149691208,45.6284410740815,0 9.29668967262328,45.6284254346929,0 9.2966590135881,45.6284080644036,0 9.2966426272385,45.6283994259475,0 9.29662365171583,45.6283906610632,0 9.29658043680171,45.6283721822878,0 9.29653335780628,45.6283526233732,0 9.29291042171775,45.6269401432263,0 9.29290952806509,45.6269397857773,0 9.29278762806509,45.6268897857773,0 9.29278645288772,45.6268892877449,0 9.29265915288772,45.6268335877449,0 9.29265824929751,45.6268331826495,0 9.29245984929751,45.6267420826495,0 9.29245918846379,45.6267417738901,0 9.29237608846379,45.6267022738901,0 9.29237557931355,45.6267020286606,0 9.29229647931355,45.6266634286606,0 9.29229564484043,45.6266630126515,0 9.29218644484043,45.6266074126515,0 9.29218599056755,45.6266071786915,0 9.29208079056755,45.6265523786915,0 9.29207989305932,45.626551900568,0 9.29196679305932,45.626490300568,0 9.29196621311332,45.6264899801555,0 9.29188091311332,45.6264421801555,0 9.29188041625005,45.6264418983253,0 9.29181631625005,45.6264050983253,0 9.2918155877175,45.6264046726091,0 9.2917553877175,45.6263688726091,0 9.29175462497776,45.6263684106087,0 9.29138670994929,45.6261414630233,0 9.28600489511278,45.6228486151303,0 9.28600400805009,45.6228480607215,0 9.28598050805009,45.6228330607215,0 9.28597849214354,45.6228317104811,0 9.28593819214354,45.6228034104811,0 9.28593544177239,45.6228013477845,0 9.28590594177239,45.6227777477845,0 9.28590373991139,45.6227758896571,0 9.28587833991139,45.6227532896571,0 9.28587578832815,45.6227508688133,0 9.28587339669628,45.6227482898293,0 9.28585739669628,45.6227298898293,0 9.28585539682046,45.6227274522417,0 9.28585353991315,45.6227249040596,0 9.28584153991315,45.6227074040596,0 9.28584016315877,45.6227052942696,0 9.28583888446161,45.6227031236477,0 9.28583770650449,45.6227008967478,0 9.28582580650449,45.6226770967478,0 9.28582456472886,45.6226744381728,0 9.28582346650664,45.6226717171554,0 9.28582251496369,45.6226689414404,0 9.28582171280838,45.6226661189284,0 9.28582106232388,45.6226632576529,0 9.28581386232388,45.6226271576529,0 9.28581332550343,45.6226239848022,0 9.28581297515968,45.6226207859872,0 9.28580977515968,45.6225807859872,0 9.28580962414273,45.6225780294531,0 9.2858096116338,45.6225752688137,0 9.28580973766439,45.6225725110243,0 9.28581253766439,45.6225330110243,0 9.28581275135147,45.6225306931317,0 9.28581306292355,45.6225283863567,0 9.28581986292355,45.6224849863567,0 9.28581990473928,45.6224847236304,0 9.28585824968546,45.6222475015282,0 9.28586240799009,45.6222069349563,0 9.28586438704761,45.6221554794608,0 9.28586334870806,45.6220707131959,0 9.28585530490668,45.622015400764,0 9.28584216910551,45.6219588798167,0 9.28582821385944,45.62191608989,0 9.28581310993022,45.6218762704402,0 9.28578526155445,45.6218198235641,0 9.28575782864437,45.6217713096593,0 9.28571605976176,45.6217143865336,0 9.2856753815425,45.6216617329507,0 9.28563789327304,45.621622223255,0 9.28559812697518,45.6215860463142,0 9.2855559899962,45.6215507732775,0 9.285532308217,45.6215331280302,0 9.28550515546606,45.6215139670464,0 9.28546997941837,45.6214902232142,0 9.2854328633521,45.621465992,0 9.2853549375507,45.6214204054061,0 9.2852874643587,45.6213843286994,0 9.28522297557815,45.6213525287188,0 9.28522146461805,45.6213517544338,0 9.28517316461805,45.6213260544338,0 9.28517088015914,45.6213247681135,0 9.28513558015914,45.6213037681135,0 9.28513294476239,45.6213020973175,0 9.28510314476239,45.6212819973175,0 9.28510040846206,45.6212800270201,0 9.28509779803912,45.6212778927514,0 9.28507239803912,45.6212557927514,0 9.28507052776074,45.6212540883029,0 9.28504642776074,45.6212310883029,0 9.28504415852194,45.621228791645,0 9.28504202795436,45.6212263657917,0 9.28504004339991,45.6212238191025,0 9.28501614339991,45.6211912191025,0 9.28501494977291,45.6211895249382,0 9.28499924977291,45.6211663249382,0 9.28499792128284,45.621164264316,0 9.28499668594658,45.6211621465357,0 9.28499554621889,45.6211599758053,0 9.28497934621889,45.6211273758053,0 9.28497813346555,45.6211247661588,0 9.28497705886581,45.621122096653,0 9.28497612536144,45.6211193745958,0 9.28496532536144,45.6210849745958,0 9.28496466638093,45.6210827062847,0 9.28496410540324,45.6210804117706,0 9.28493810540324,45.6209632117706,0 9.284937631314,45.6209608264609,0 9.284627631314,45.6191981264609,0 9.28462740169966,45.6191967132558,0 9.28414660169966,45.6159730132558,0 9.28414658990858,45.6159729338005,0 9.28363992755032,45.6125414887347,0 9.28362873853987,45.6124703305543,0 9.28362145031159,45.6124336194785,0 9.28361041780867,45.6123988714378,0 9.28359964334777,45.6123731137422,0 9.28358259942744,45.6123417777845,0 9.2835669658501,45.612316850914,0 9.28354332051341,45.6122863848071,0 9.28351392952743,45.612251471311,0 9.28347520227516,45.6122118040769,0 9.28343671217136,45.6121764894067,0 9.28340215690843,45.6121460050377,0 9.28335786614314,45.6121124653503,0 9.28332022329391,45.6120896598285,0 9.2832670964409,45.6120605505401,0 9.28322080444609,45.6120379252093,0 9.2831767133401,45.6120195061975,0 9.28313938758294,45.6120049636947,0 9.28310473459245,45.6119923187316,0 9.28306610426407,45.6119793775716,0 9.28303100069488,45.6119686200262,0 9.28295224787877,45.6119490529059,0 9.28287061093796,45.6119323390707,0 9.28282692717675,45.6119263038142,0 9.2827862224788,45.6119209150126,0 9.28272710949595,45.6119162481981,0 9.28268219415712,45.6119130945679,0 9.2826492129661,45.6119130016632,0 9.28261807030029,45.6119136703707,0 9.28257584635618,45.6119157912081,0 9.28253621976892,45.6119189221977,0 9.2825001537795,45.6119218878361,0 9.28246546519613,45.6119267214912,0 9.28243294388373,45.6119317100111,0 9.28236635160236,45.6119444596378,0 9.28231968910066,45.6119539486581,0 9.2822702838039,45.6119653950338,0 9.28217745196808,45.6119882580761,0 9.28209103205658,45.6120130055963,0 9.28203428151843,45.6120306377669,0 9.28197477732634,45.6120530848767,0 9.28191562340603,45.6120766287256,0 9.28186462788796,45.6120985256561,0 9.28181754240874,45.6121203694351,0 9.28176018958213,45.6121489479767,0 9.28172451943571,45.6121677471079,0 9.28167696707426,45.6121947809657,0 9.28163320006994,45.6122210996543,0 9.28157088504136,45.6122606046646,0 9.28150674479942,45.6123066415909,0 9.2814478587256,45.6123508304794,0 9.28138259898971,45.612405342692,0 9.28132282860318,45.6124604856938,0 9.28125134532704,45.6125350045611,0 9.28122525646343,45.6125632350478,0 9.28118464156184,45.6126089390455,0 9.28115911448383,45.6126393974909,0 9.28113144857524,45.6126738135009,0 9.28110772631146,45.6127074438588,0 9.28108065229024,45.612746779665,0 9.2810552117182,45.6127855598628,0 9.28102494797053,45.6128384970934,0 9.28102490144605,45.6128385783134,0 9.28099958676201,45.6128826842821,0 9.28097834722131,45.6129243945114,0 9.28095683139968,45.6129686975441,0 9.28093548910672,45.613015148417,0 9.28091745981424,45.6130594985482,0 9.2808990768011,45.6131074713312,0 9.28086249275934,45.6132064921376,0 9.2808446513746,45.6132709882664,0 9.28082900115048,45.6133358249092,0 9.28081256624942,45.6134168254929,0 9.28079602546377,45.6135131339727,0 9.28078040343267,45.6136394771492,0 9.28077101550386,45.6138008321756,0 9.28077259741432,45.6139639666917,0 9.28077257823676,45.6139660470883,0 9.28074799493977,45.6148396535206,0 9.28074530587463,45.6152507817019,0 9.28075780265851,45.6156333221418,0 9.28078731461435,45.6159045746487,0</coordinates></LineString>
  </Placemark>
</Folder>
</Document></kml>
