<?xml version="1.0" encoding="utf-8" ?>
<kml xmlns="http://www.opengis.net/kml/2.2">
<Document id="root_doc">
<Schema name="simplified_best_left" id="simplified_best_left">
	<SimpleField name="id" type="string"></SimpleField>
	<SimpleField name="timestamp" type="string"></SimpleField>
	<SimpleField name="begin" type="string"></SimpleField>
	<SimpleField name="end" type="string"></SimpleField>
	<SimpleField name="altitudeMode" type="string"></SimpleField>
	<SimpleField name="tessellate" type="int"></SimpleField>
	<SimpleField name="extrude" type="int"></SimpleField>
	<SimpleField name="visibility" type="int"></SimpleField>
	<SimpleField name="drawOrder" type="int"></SimpleField>
	<SimpleField name="icon" type="string"></SimpleField>
	<SimpleField name="highway" type="string"></SimpleField>
	<SimpleField name="name_en" type="string"></SimpleField>
	<SimpleField name="oneway" type="string"></SimpleField>
	<SimpleField name="sport" type="string"></SimpleField>
	<SimpleField name="surface" type="string"></SimpleField>
</Schema>
<Folder><name>simplified_best_left</name>
  <Placemark id="simplified_best_left.1">
	<name>Grand Prix Circuit</name>
	<Style><LineStyle><color>ff0000ff</color></LineStyle><PolyStyle><fill>0</fill></PolyStyle></Style>
	<ExtendedData><SchemaData schemaUrl="#simplified_best_left">
		<SimpleData name="id">bahrain_bound.1</SimpleData>
		<SimpleData name="tessellate">-1</SimpleData>
		<SimpleData name="extrude">0</SimpleData>
		<SimpleData name="visibility">-1</SimpleData>
		<SimpleData name="highway">raceway</SimpleData>
		<SimpleData name="name_en">Grand Prix Circuit</SimpleData>
		<SimpleData name="oneway">yes</SimpleData>
		<SimpleData name="sport">motor</SimpleData>
		<SimpleData name="surface">asphalt</SimpleData>
	</SchemaData></ExtendedData>
      <LineString><coordinates>50.5102845241113,26.0286532283908,0 50.5103017704757,26.029105083409,0 50.5103586606375,26.0302277892551,0 50.5105669224735,26.0350058136814,0 50.5105757515583,26.0354754809154,0 50.510632351248,26.0367841737427,0 50.5106371979679,26.0368239167134,0 50.5106477805312,26.0368629896056,0 50.5106596679428,26.0368893530349,0 50.5106838666262,26.0369180327997,0 50.510707537263,26.0369355828114,0 50.5107339219373,26.0369481239724,0 50.5107736324986,26.0369587100167,0 50.5107965075503,26.0369603991401,0 50.5108329231738,26.0369580445414,0 50.5108592903878,26.0369511307766,0 50.5108880607954,26.0369380687035,0 50.5109298884749,26.0369113319297,0 50.5109736055059,26.0368788885988,0 50.5115092354735,26.0364283093316,0 50.5115394120776,26.0364065465796,0 50.5115523605247,26.0364013560383,0 50.5115760289595,26.0363959461103,0 50.5116232304287,26.0363938342574,0 50.5116485397908,26.0363972751072,0 50.5125037759001,26.0366395791328,0 50.5125575978783,26.0366509999598,0 50.5126375885026,26.0366614940952,0 50.5127088210177,26.0366644789642,0 50.5127715072628,26.0366596016857,0 50.5128322656767,26.0366522346501,0 50.5130434714108,26.0366216700165,0 50.513159577264,26.0366000434327,0 50.5182017820885,26.0357367110951,0 50.5182319220774,26.0357297651397,0 50.5182610316982,26.0357201770029,0 50.5182880990448,26.0357083422258,0 50.5183142163123,26.0356937636543,0 50.5183482566808,26.03567092873,0 50.5183763342884,26.0356490835312,0 50.5184055068657,26.0356190377389,0 50.5184220392944,26.0355955284668,0 50.5184354987146,26.0355677829456,0 50.5184459196543,26.0355269530883,0 50.5184484939779,26.0354932138773,0 50.5184473388099,26.0354665063223,0 50.5184444570283,26.0354376907803,0 50.518436749486,26.0353958271787,0 50.518410936131,26.0353222095747,0 50.518384148414,26.0352712140957,0 50.5182866842793,26.0351305530205,0 50.5182211469242,26.0350735385635,0 50.5178225810514,26.0348172536381,0 50.5172831110293,26.0344102134573,0 50.517198562461,26.0343396090199,0 50.5171190167117,26.0342698595451,0 50.5168615797419,26.034018586927,0 50.5167582412835,26.0339112133478,0 50.5166649969096,26.0338034181002,0 50.5166249854756,26.033759380645,0 50.5165983485366,26.0337232889563,0 50.5165854598398,26.0337033936526,0 50.5165620666249,26.0336607080254,0 50.5165294551075,26.0335924581731,0 50.5164826804329,26.0334917585552,0 50.5163988825268,26.0333035173453,0 50.516360226525,26.0332427943186,0 50.5163126679231,26.0331901907277,0 50.5162700663966,26.033152658752,0 50.5162037577695,26.0330996807456,0 50.5161053238685,26.0330375633006,0 50.5160563241286,26.0330163292865,0 50.5160056584071,26.032997219401,0 50.5159498847955,26.0329836395197,0 50.5158904430303,26.0329781457571,0 50.5158294982141,26.0329757000877,0 50.5157678628007,26.0329758794424,0 50.5157150113851,26.032981283256,0 50.5152527361001,26.0330495678956,0 50.5151610086842,26.0330577924002,0 50.5150991865559,26.0330601165404,0 50.5150529159684,26.0330563766245,0 50.5149821872216,26.0330409397948,0 50.5149364026799,26.0330286744064,0 50.5148973079706,26.0330151903516,0 50.5147933722346,26.0329673977352,0 50.5147603469912,26.0329459144774,0 50.5147247365891,26.0329148231618,0 50.5146879959132,26.0328799427733,0 50.5134754299763,26.0314828625515,0 50.5134329814074,26.0314456760371,0 50.5134035415835,26.0314258289479,0 50.5133718434476,26.031412312919,0 50.5133367415682,26.0314044153183,0 50.5133102678094,26.0314016913032,0 50.5132913682646,26.0314007001578,0 50.5132667783329,26.031402263023,0 50.5132346412555,26.0314065463238,0 50.5132035363854,26.031414573598,0 50.5131815440984,26.0314232868166,0 50.5131413815617,26.0314448561966,0 50.5131238336647,26.0314585947853,0 50.5131075802391,26.0314766692044,0 50.5130787893518,26.0315236695033,0 50.5130621654951,26.0315630102175,0 50.5130491509658,26.031608130777,0 50.513034447749,26.0316863854999,0 50.5130312460865,26.0317208489137,0 50.5130318911938,26.0317721659131,0 50.5130352741432,26.0318299845777,0 50.5130500785849,26.0319336216127,0 50.5134260421206,26.0341442192277,0 50.5134662620217,26.0344319842201,0 50.5134677,26.0345015539082,0 50.5134617749197,26.034572771827,0 50.5134380284777,26.0346716493924,0 50.5134245612155,26.03471584732,0 50.513407781278,26.0347524892242,0 50.5133483892816,26.0348493479281,0 50.5133168830241,26.0348896827626,0 50.5132873969539,26.0349216802646,0 50.5132506779736,26.0349565494223,0 50.5131942080599,26.0350019167767,0 50.5129182378802,26.0352080751405,0 50.5128459739778,26.035256378863,0 50.5128354715211,26.0352621777655,0 50.5128165011335,26.0352685588007,0 50.5128073182614,26.0352691675101,0 50.5127977451794,26.035266926957,0 50.5127898499632,26.0352505881887,0 50.5127811152808,26.0352221563902,0 50.5126350141916,26.0343189588595,0 50.5126111235903,26.0341404703999,0 50.512600107181,26.0339949947805,0 50.5123806401786,26.0290846704513,0 50.5123823931953,26.029031065046,0 50.5123864616465,26.0289969714253,0 50.5123950716286,26.0289708025031,0 50.5124135148288,26.0289433908448,0 50.5124420197832,26.0289143041567,0 50.5124729669081,26.0288893745283,0 50.5125248300944,26.02885687123,0 50.5125982681431,26.0288259877475,0 50.5126935792693,26.0288035998513,0 50.5128009922463,26.0287899601082,0 50.5130020191143,26.0287887,0 50.5131080587862,26.0288002281225,0 50.5131949366481,26.0288171398308,0 50.5132748508431,26.0288350267626,0 50.5133753251137,26.0288673118599,0 50.5134869902523,26.0289161115349,0 50.5135877636642,26.0289725522727,0 50.5136483171957,26.0290155227135,0 50.5138123027146,26.029148656553,0 50.5139293422091,26.0292584832603,0 50.5140233632547,26.0293804228,0 50.5140684474947,26.0294491452885,0 50.5141020467113,26.0295092109271,0 50.5142309000036,26.0298002689398,0 50.5143821113869,26.03016906502,0 50.5144170004753,26.0302471846857,0 50.5144636826291,26.030323398043,0 50.5145210410878,26.0303951073573,0 50.5145859685868,26.0304566823615,0 50.5146704151791,26.0305280362564,0 50.5147633214786,26.0305979399613,0 50.5148658434427,26.0306625111399,0 50.5149632235511,26.0307100179724,0 50.5151112426772,26.0307623731958,0 50.5152030462903,26.030786418429,0 50.5152829631209,26.030802424314,0 50.5153765786109,26.0308160221551,0 50.515492709944,26.0308224966178,0 50.515600909944,26.0308212966178,0 50.5156799723828,26.0308177525543,0 50.5157766630251,26.0308065491753,0 50.5158849630251,26.0307830491753,0 50.5159666345575,26.0307603281516,0 50.5160523173528,26.0307307241207,0 50.5170513173528,26.0302848241207,0 50.5171049780627,26.0302600239724,0 50.5171388699156,26.0302414010977,0 50.5171816819884,26.0302122837857,0 50.517246051603,26.0301644101689,0 50.5172783932272,26.0301362329463,0 50.517349567978,26.0300679703812,0 50.5173938223549,26.0300165657621,0 50.5174238532063,26.0299754286516,0 50.5174721152146,26.0298955391954,0 50.5175076284512,26.0298267111531,0 50.5175222373363,26.0297911817999,0 50.5175343877054,26.0297499052356,0 50.5175407599672,26.0297181884313,0 50.5175444943886,26.0296693143659,0 50.5175419626624,26.0296131778712,0 50.517539144021,26.0295937101338,0 50.5175322216923,26.0295694345173,0 50.5175199063818,26.029545613893,0 50.5174943646494,26.0295048492416,0 50.5174648521704,26.029466689858,0 50.5174398521704,26.029436689858,0 50.5174117381113,26.02940698002,0 50.5173677604247,26.0293671125374,0 50.5173349767091,26.0293391076277,0 50.5172693546837,26.0292882921695,0 50.517222160254,26.0292569174076,0 50.5170575545133,26.0291639091427,0 50.5168508103019,26.0290532645347,0 50.5123421452303,26.026767431037,0 50.5108712452303,26.026037631037,0 50.5108345022152,26.0260241699076,0 50.5108016804118,26.0260146364483,0 50.5107660892903,26.0260084607757,0 50.5107316750235,26.0260062041425,0 50.5106981328439,26.0260076582325,0 50.5106667891182,26.0260113640713,0 50.5106323407986,26.0260197967487,0 50.510609529967,26.0260282723165,0 50.5105740838625,26.0260465643784,0 50.5105536869927,26.0260611720057,0 50.5105315472676,26.0260839045506,0 50.5104936108222,26.0261414155975,0 50.5104382376171,26.0262380068727,0 50.5103347376171,26.0264291068727,0 50.5102763058573,26.0265508214169,0 50.5102490519644,26.0266214169382,0 50.5102273519644,26.0266986169382,0 50.5102114123943,26.0267700817526,0 50.5102072670822,26.0268200161783,0 50.5102063147809,26.0268575249804,0 50.510208052991,26.0269163137534,0 50.510269952991,26.0283254137534,0 50.5102799469331,26.0284986988749,0</coordinates></LineString>
  </Placemark>
</Folder>
</Document></kml>
