<?xml version="1.0" encoding="utf-8" ?>
<kml xmlns="http://www.opengis.net/kml/2.2">
<Document id="root_doc">
<Schema name="simplified_best_right" id="simplified_best_right">
	<SimpleField name="id" type="string"></SimpleField>
	<SimpleField name="timestamp" type="string"></SimpleField>
	<SimpleField name="begin" type="string"></SimpleField>
	<SimpleField name="end" type="string"></SimpleField>
	<SimpleField name="altitudeMode" type="string"></SimpleField>
	<SimpleField name="tessellate" type="int"></SimpleField>
	<SimpleField name="extrude" type="int"></SimpleField>
	<SimpleField name="visibility" type="int"></SimpleField>
	<SimpleField name="drawOrder" type="int"></SimpleField>
	<SimpleField name="icon" type="string"></SimpleField>
	<SimpleField name="highway" type="string"></SimpleField>
	<SimpleField name="name_en" type="string"></SimpleField>
	<SimpleField name="oneway" type="string"></SimpleField>
	<SimpleField name="sport" type="string"></SimpleField>
	<SimpleField name="surface" type="string"></SimpleField>
</Schema>
<Folder><name>simplified_best_right</name>
  <Placemark id="simplified_best_right.1">
	<name>Grand Prix Circuit</name>
	<Style><LineStyle><color>ff0000ff</color></LineStyle><PolyStyle><fill>0</fill></PolyStyle></Style>
	<ExtendedData><SchemaData schemaUrl="#simplified_best_right">
		<SimpleData name="id">bahrain_bound.1</SimpleData>
		<SimpleData name="tessellate">-1</SimpleData>
		<SimpleData name="extrude">0</SimpleData>
		<SimpleData name="visibility">-1</SimpleData>
		<SimpleData name="highway">raceway</SimpleData>
		<SimpleData name="name_en">Grand Prix Circuit</SimpleData>
		<SimpleData name="oneway">yes</SimpleData>
		<SimpleData name="sport">motor</SimpleData>
		<SimpleData name="surface">asphalt</SimpleData>
	</SchemaData></ExtendedData>
      <LineString><coordinates>50.5103944689412,26.0286497370549,0 50.5104116468995,26.0290998594854,0 50.510468547828,26.030222804965,0 50.510676847828,26.035001704965,0 50.5106856776591,26.0354713933848,0 50.5107421575907,26.0367773160047,0 50.5107451641494,26.0368022623155,0 50.5107510139719,26.0368248259165,0 50.5107576224906,26.0368359663861,0 50.510764224332,26.0368409474162,0 50.5107758154883,26.0368463055923,0 50.5107877003697,26.0368495010557,0 50.5108140800237,26.0368494372917,0 50.5108346439094,26.0368417493757,0 50.5108660381254,26.0368217398754,0 50.5109041192777,26.036793596975,0 50.5114432285933,26.0363402905773,0 50.5114897741378,26.0363080059519,0 50.5115208648719,26.0362957949443,0 50.5115575701655,26.0362873855439,0 50.5115913827616,26.0362841671627,0 50.5116288393058,26.0362838416215,0 50.5116722950563,26.0362897381333,0 50.5125285757918,26.0365323962298,0 50.5125755229299,26.0365424563308,0 50.5126456068837,26.0365517801944,0 50.5127057770555,26.0365544513887,0 50.512759452003,26.0365502580334,0 50.5128171625664,26.0365432745703,0 50.51302442775,26.0365133252471,0 50.5131406179115,26.0364916889049,0 50.5181816422967,26.0356285586835,0 50.5182217466469,26.0356173663253,0 50.5182390706364,26.0356097968344,0 50.5182583621918,26.0355989707717,0 50.5183052594788,26.0355650301553,0 50.5183208765652,26.0355485332331,0 50.5183326494844,26.0355280918811,0 50.5183369139125,26.0355109068723,0 50.5183384002445,26.0354915845573,0 50.5183355000096,26.0354531153016,0 50.5183299366928,26.0354226013522,0 50.5183234043635,26.0354022694772,0 50.5183103586963,26.0353670373012,0 50.5182899653584,26.0353282381116,0 50.5182034981884,26.0352031745451,0 50.5181583183109,26.0351639171234,0 50.5177579731687,26.0349063045903,0 50.5172136464718,26.0344955159774,0 50.5171265389998,26.0344227538373,0 50.5170430859783,26.0343494641075,0 50.5167842914227,26.0340968645779,0 50.5166779716351,26.0339864391229,0 50.5165822469325,26.0338758950039,0 50.5165398699116,26.0338291739384,0 50.5165088471576,26.0337872601583,0 50.5164920398017,26.0337615037806,0 50.5164634742107,26.0337095124658,0 50.5164298185338,26.0336390697935,0 50.5163823279859,26.0335368097423,0 50.5163021868854,26.0333562225133,0 50.5162747414416,26.0333121721458,0 50.5162356787314,26.0332688637844,0 50.5162003239465,26.0332377332075,0 50.5161394012837,26.0331889760686,0 50.5160535874069,26.0331347935194,0 50.5159701320096,26.0331013803011,0 50.515933191285,26.0330925011247,0 50.5158845406048,26.0330879964321,0 50.5158282289323,26.0330856979965,0 50.5157761266666,26.0330856049567,0 50.5157297663192,26.0330902961824,0 50.5152675041387,26.0331585846679,0 50.5151694117305,26.0331674802419,0 50.5150968155167,26.033170187244,0 50.5150354873768,26.0331651058581,0 50.5149574721101,26.0331481350593,0 50.5149060677051,26.0331344266579,0 50.514854694468,26.0331166293952,0 50.5147392818517,26.0330633063635,0 50.5146929136555,26.0330329847287,0 50.5146498320512,26.0329953875727,0 50.5146066616368,26.0329540494714,0 50.5133961175406,26.031559187955,0 50.5133650204665,26.0315322019976,0 50.513351914086,26.0315231913611,0 50.5133396904127,26.0315177523872,0 50.5133190420453,26.0315130852904,0 50.5132916319731,26.0315107990689,0 50.5132549746496,26.0315147383057,0 50.5132398292166,26.0315184718311,0 50.51321527338,26.0315293130874,0 50.5131986958421,26.0315394649291,0 50.5131785403626,26.0315701866226,0 50.5131659320334,26.0315998243835,0 50.5131560952804,26.0316340804444,0 50.5131437417478,26.0316990247838,0 50.5131412341678,26.0317253543738,0 50.5131417792954,26.031767056634,0 50.5131447748344,26.0318190105138,0 50.5131586426127,26.031915891007,0 50.5135348705412,26.034128186844,0 50.513575874221,26.0344220215748,0 50.513577613145,26.0345061897422,0 50.5135751652825,26.0345482586207,0 50.5135703396382,26.0345910138163,0 50.5135436118486,26.0347025310132,0 50.5135279455548,26.0347537586069,0 50.5135065059383,26.0348010999157,0 50.5134405061632,26.0349095038619,0 50.5134006320116,26.034961014111,0 50.513364473299,26.0350001824926,0 50.5133213467795,26.0350408767931,0 50.5132608162227,26.0350894627085,0 50.5129829162227,26.0352970627085,0 50.5129051644669,26.0353491254127,0 50.5128797523212,26.0353630438339,0 50.5128527632613,26.0353727183525,0 50.5128249601764,26.0353785061904,0 50.5128002617666,26.0353791317948,0 50.5127819307872,26.0353764637376,0 50.512760289738,26.0353705364734,0 50.5127432685021,26.035363213198,0 50.5127250093803,26.0353507513629,0 50.5127103824564,26.0353341315457,0 50.5126977389641,26.0353134562759,0 50.512687617209,26.0352913850058,0 50.5126730057514,26.035242682629,0 50.5125260861591,26.0343342966535,0 50.5125018861591,26.0341534966535,0 50.512490254853,26.034000755774,0 50.512270654853,26.029087455774,0 50.5122726576395,26.0290227388112,0 50.512279464636,26.028970431192,0 50.5122964788101,26.0289208804849,0 50.5123270243893,26.0288750718528,0 50.5123680439556,26.0288327660979,0 50.5124117926951,26.0287978959944,0 50.5124753778945,26.0287584233545,0 50.5125656570825,26.0287207418943,0 50.5126740340517,26.028695273978,0 50.512793414003,26.0286801304618,0 50.513005,26.0286787,0 50.5131245339519,26.0286914198378,0 50.513218213225,26.0287096280108,0 50.513306125685,26.0287295368801,0 50.5134142500097,26.0287643539397,0 50.5135335246448,26.0288164024304,0 50.5136465945235,26.0288795138517,0 50.5137162662181,26.0289290004295,0 50.5138831662181,26.0290645004295,0 50.5140078353941,26.0291812929294,0 50.514114187206,26.0293183308621,0 50.514161487206,26.0293904308621,0 50.5142015920199,26.0294623353928,0 50.5143317920199,26.0297564353928,0 50.5144835692383,26.0301265560428,0 50.5145149554969,26.0301968915139,0 50.5145538019116,26.0302601426173,0 50.5146013238351,26.0303197277984,0 50.5146582256618,26.0303737283806,0 50.5147378359364,26.0304411058569,0 50.5148259041979,26.0305074229013,0 50.5149168694913,26.0305650151835,0 50.5150058116848,26.0306084980336,0 50.5151435712646,26.03065718144,0 50.5152263176945,26.0306788963991,0 50.5153003021042,26.0306937893647,0 50.5153876268002,26.0307065242162,0 50.5154933439838,26.0307124828211,0 50.5155987984878,26.0307113132702,0 50.5156695125688,26.0307082345619,0 50.5157560594176,26.0306984600823,0 50.5158600882727,26.0306758868774,0 50.5159324993104,26.0306557460589,0 50.5160097336178,26.0306292711668,0 50.5170061513021,26.030184523774,0 50.5170569926138,26.0301610216582,0 50.5170832353344,26.0301464712389,0 50.5171521307015,26.0300975996647,0 50.5171780122176,26.0300779557802,0 50.5172041767721,26.0300550385995,0 50.5172692009797,26.0299928005839,0 50.5173064650862,26.0299496820166,0 50.5173316472914,26.0299154087627,0 50.5173751328252,26.0298436123751,0 50.5174068904496,26.029782465918,0 50.5174184946175,26.0297543940705,0 50.5174270974235,26.0297255193059,0 50.5174317378648,26.029702797145,0 50.5174344689241,26.0296683175217,0 50.5174341303021,26.0296446139816,0 50.5174303084513,26.0296116771807,0 50.5174034927973,26.0295668782917,0 50.5173565101327,26.0295085049056,0 50.5173335035643,26.0294843345809,0 50.5172956915841,26.0294502185086,0 50.5172380805081,26.0294026549929,0 50.5172042007793,26.0293769367674,0 50.5171662900875,26.0293516937946,0 50.5170050891268,26.0292605930681,0 50.516800464677,26.0291510687515,0 50.512293042591,26.0268658636887,0 50.5108252997338,26.0261376301329,0 50.5107743973828,26.0261212473778,0 50.5107535032367,26.0261178041478,0 50.5107303240056,26.0261162749624,0 50.5107086754977,26.0261171702014,0 50.5106862303668,26.0261197445534,0 50.5106644839794,26.0261250844136,0 50.5106430678131,26.0261339507782,0 50.5106242316147,26.026145731186,0 50.5106185847251,26.0261513682937,0 50.5106048047828,26.026171411846,0 50.5105614084531,26.0262426784169,0 50.510432108021,26.0264803010361,0 50.5103764162969,26.026596455279,0 50.5103542365037,26.0266537144103,0 50.5103336564341,26.0267269301416,0 50.5103201300119,26.0267876610169,0 50.5103163196706,26.0268585893023,0 50.5103179627678,26.0269118449819,0 50.5103798304275,26.0283202087833,0 50.5103898758887,26.0284946716092,0</coordinates></LineString>
  </Placemark>
</Folder>
</Document></kml>
