<?xml version="1.0" encoding="utf-8" ?>
<kml xmlns="http://www.opengis.net/kml/2.2">
<Document id="root_doc">
<Schema name="marina_bay_circuit_fixed" id="marina_bay_circuit_fixed">
	<SimpleField name="access" type="string"></SimpleField>
	<SimpleField name="barrier" type="string"></SimpleField>
	<SimpleField name="bridge" type="string"></SimpleField>
	<SimpleField name="bridge_nam" type="string"></SimpleField>
	<SimpleField name="bus" type="string"></SimpleField>
	<SimpleField name="busway_lef" type="string"></SimpleField>
	<SimpleField name="button_ope" type="string"></SimpleField>
	<SimpleField name="crossing" type="string"></SimpleField>
	<SimpleField name="foot" type="string"></SimpleField>
	<SimpleField name="highway" type="string"></SimpleField>
	<SimpleField name="image" type="string"></SimpleField>
	<SimpleField name="junction" type="string"></SimpleField>
	<SimpleField name="kerb" type="string"></SimpleField>
	<SimpleField name="lanes" type="string"></SimpleField>
	<SimpleField name="lanes_back" type="string"></SimpleField>
	<SimpleField name="lanes_bus" type="string"></SimpleField>
	<SimpleField name="lanes_bus_" type="string"></SimpleField>
	<SimpleField name="lanes_forw" type="string"></SimpleField>
	<SimpleField name="layer" type="string"></SimpleField>
	<SimpleField name="lit" type="string"></SimpleField>
	<SimpleField name="mapillary" type="string"></SimpleField>
	<SimpleField name="maxheight" type="string"></SimpleField>
	<SimpleField name="maxspeed" type="string"></SimpleField>
	<SimpleField name="motor_vehi" type="string"></SimpleField>
	<SimpleField name="name_ms" type="string"></SimpleField>
	<SimpleField name="name_ta" type="string"></SimpleField>
	<SimpleField name="name_zh" type="string"></SimpleField>
	<SimpleField name="note" type="string"></SimpleField>
	<SimpleField name="oneway" type="string"></SimpleField>
	<SimpleField name="public_tra" type="string"></SimpleField>
	<SimpleField name="race cours" type="string"></SimpleField>
	<SimpleField name="raceway" type="string"></SimpleField>
	<SimpleField name="sidewalk" type="string"></SimpleField>
	<SimpleField name="sidewalk_b" type="string"></SimpleField>
	<SimpleField name="sidewalk_l" type="string"></SimpleField>
	<SimpleField name="sidewalk_r" type="string"></SimpleField>
	<SimpleField name="smoothness" type="string"></SimpleField>
	<SimpleField name="source" type="string"></SimpleField>
	<SimpleField name="sport" type="string"></SimpleField>
	<SimpleField name="start_date" type="string"></SimpleField>
	<SimpleField name="surface" type="string"></SimpleField>
	<SimpleField name="tactile_pa" type="string"></SimpleField>
	<SimpleField name="traffic_ca" type="string"></SimpleField>
	<SimpleField name="traffic_si" type="string"></SimpleField>
	<SimpleField name="traffic__1" type="string"></SimpleField>
	<SimpleField name="traffic__2" type="string"></SimpleField>
	<SimpleField name="tunnel" type="string"></SimpleField>
	<SimpleField name="turn_lanes" type="string"></SimpleField>
	<SimpleField name="turn_lan_1" type="string"></SimpleField>
	<SimpleField name="turn_lan_2" type="string"></SimpleField>
</Schema>
<Folder><name>marina_bay_circuit_fixed</name>
  <Placemark id="marina_bay_circuit_fixed.1">
	<name>Nicoll Highway</name>
	<Style><LineStyle><color>ff0000ff</color></LineStyle><PolyStyle><fill>0</fill></PolyStyle></Style>
	<ExtendedData><SchemaData schemaUrl="#marina_bay_circuit_fixed">
		<SimpleData name="highway">trunk</SimpleData>
		<SimpleData name="lanes">4</SimpleData>
		<SimpleData name="maxspeed">70</SimpleData>
		<SimpleData name="name_ms">Lebuhraya Nicoll</SimpleData>
		<SimpleData name="name_ta">?????? ??????????</SimpleData>
		<SimpleData name="name_zh">????</SimpleData>
		<SimpleData name="oneway">yes</SimpleData>
		<SimpleData name="surface">asphalt</SimpleData>
	</SchemaData></ExtendedData>
      <LineString><coordinates>103.864502833904,1.28965973533631,0 103.864266333904,1.29169923533631,0 103.864266094748,1.29170103704099,0 103.863910433915,1.29407856976182,0 103.863904983225,1.29416208212193,0 103.863904753579,1.29416466330661,0 103.863904402606,1.29416723080926,0 103.863887102606,1.29427483080926,0 103.863886559585,1.29427771494785,0 103.863885863494,1.29428056601503,0 103.863885016315,1.29428337589292,0 103.863884020459,1.29428613658091,0 103.863882878763,1.29428884021844,0 103.863881594476,1.29429147910742,0 103.863880171257,1.2942940457341,0 103.863878613156,1.29429653279048,0 103.863876924611,1.29429893319513,0 103.863835924611,1.29435403319513,0 103.863834208591,1.2943562215855,0 103.863832384147,1.29435832043895,0 103.863830455946,1.2943603243895,0 103.863828428916,1.29436222831381,0 103.863826308239,1.29436402734427,0 103.863824099339,1.29436571688143,0 103.86382180786,1.2943672926058,0 103.863819439664,1.29436875048884,0 103.863817000803,1.2943700868033,0 103.863746000803,1.2944066868033,0 103.863743438066,1.2944079250232,0 103.863740814706,1.29440902901066,0 103.863738137748,1.29440999580926,0 103.86373541436,1.29441082282995,0 103.863732651835,1.29441150785802,0 103.863729857571,1.294412049059,0 103.863727039052,1.29441244498356,0 103.863724203825,1.29441269457145,0 103.863721359483,1.29441279715428,0 103.863623059483,1.29441379715428,0 103.863620551067,1.29441376545881,0 103.863618046707,1.29441361941424,0 103.863534962955,1.29440687004773,0 103.863422062486,1.29441547722057,0 103.863303182387,1.29445185783834,0 103.863083619015,1.29456470968993,0 103.863073258685,1.29457947181867,0 103.863029018982,1.29465329979605,0 103.862987673585,1.29473842840785,0 103.86298643815,1.29474082122,0 103.862985087074,1.29474315069241,0 103.862983623595,1.29474541124063,0 103.862982051221,1.29474759744544,0 103.862980373723,1.29474970406582,0 103.862921273723,1.29482030406582,0 103.862919270746,1.29482256742183,0 103.862917146463,1.29482471733417,0 103.86291490729,1.29482674731068,0 103.862912559989,1.29482865122136,0 103.862910111648,1.2948304233169,0 103.862907569659,1.29483205824605,0 103.862904941699,1.29483355107175,0 103.862836741699,1.29486985107175,0 103.862834177041,1.29487113150983,0 103.862831549153,1.29487227658748,0 103.862828865175,1.29487328319425,0 103.862826132397,1.29487414859584,0 103.862823358242,1.29487487044149,0 103.862745958242,1.29489287044149,0 103.86274320963,1.2948934361532,0 103.862740435741,1.29489386093378,0 103.862737643797,1.29489414367739,0 103.862734841065,1.29489428364799,0 103.862652841065,1.29489628364799,0 103.86265000427,1.29489627965798,0 103.862647171454,1.29489612940534,0 103.862644350154,1.2948958332898,0 103.862641547874,1.29489539209911,0 103.86263877207,1.29489480700697,0 103.862636030126,1.29489407956991,0 103.862595430126,1.29488217956991,0 103.862592882638,1.29488136512918,0 103.862590377754,1.29488042781006,0 103.862587921397,1.29487936982895,0 103.862585519376,1.29487819368759,0 103.862583177372,1.29487690216712,0 103.862580900921,1.29487549832152,0 103.862578695407,1.29487398547036,0 103.862516395407,1.29482898547036,0 103.862514137604,1.29482726424245,0 103.862511971629,1.29482542880014,0 103.862509903252,1.2948234840341,0 103.862507937985,1.29482143512627,0 103.862435437985,1.29474183512627,0 103.862433676995,1.29473980412345,0 103.862432017344,1.29473768950349,0 103.862430462997,1.29473549631774,0 103.862385262997,1.29466829631774,0 103.862383783169,1.29466597259639,0 103.862382421555,1.29466357768964,0 103.862381181571,1.29466111760618,0 103.862336481571,1.29456661760618,0 103.862335322066,1.29456399104699,0 103.862334301206,1.29456130755872,0 103.862333421773,1.29455857445402,0 103.862332686162,1.29455579918072,0 103.86233209638,1.29455298930157,0 103.862331654032,1.29455015247361,0 103.862331360325,1.29454729642734,0 103.862326960325,1.29448979642734,0 103.86231595911,1.29434548052522,0 103.862291157978,1.29401896564213,0 103.862291003358,1.29401540773261,0 103.862291079317,1.29401184727511,0 103.862299079317,1.29386304727511,0 103.862299346276,1.29385983798102,0 103.862299800609,1.29385664981264,0 103.862311600609,1.29378824981264,0 103.86232530683,1.2937091138251,0 103.862325902003,1.29370616084714,0 103.862326657958,1.29370324488383,0 103.862327572427,1.29370037468239,0 103.862377172427,1.29355827468239,0 103.862378035257,1.2935559698262,0 103.862379000332,1.29355370587653,0 103.862475473796,1.29334073054192,0 103.862666385675,1.29282178830407,0 103.862740952081,1.29258961786756,0 103.862766655973,1.29247346720121,0 103.862835728503,1.29204555445342,0 103.862843453264,1.29194229688246,0 103.862853735359,1.2918054960214,0 103.86285056167,1.29170412469213,0 103.862837169089,1.29163355609195,0 103.862801132907,1.29156078399515,0 103.86276467775,1.2915084825349,0 103.862729750973,1.29147574394179,0 103.862644418757,1.29141282406199,0 103.862512929377,1.29135532657996,0 103.862344919291,1.29131149786188,0 103.862058516863,1.29136399857502,0 103.862055514316,1.29136446365305,0 103.862052490668,1.29136476221564,0 103.861619590668,1.29139546221564,0 103.861615590981,1.29139559989195,0 103.861514924526,1.29139540035488,0 103.861207958065,1.29139739883444,0 103.861206191569,1.2913973819636,0 103.860999291569,1.2913920819636,0 103.860996637057,1.2913919497265,0 103.860930623801,1.29138705985568,0 103.860833550089,1.2913851432967,0 103.860758644223,1.29139112437346,0 103.860386904723,1.29143816486779,0 103.860383330802,1.29143849905063,0 103.860058696202,1.29145819508272,0 103.860025480784,1.2914602897487,0 103.859926699977,1.29146658852487,0 103.859926555535,1.29146659754442,0 103.859704055535,1.29148019754442,0 103.859703667071,1.29148021990975,0 103.859609467017,1.29148530910759,0 103.859380042826,1.29149937992578,0 103.859306139324,1.29150465874732,0 103.859175251879,1.29151410730908,0 103.859024271111,1.29152884193185,0 103.858822942315,1.29156368730039,0 103.858790998502,1.29157509580514,0 103.858790586025,1.29157524127148,0 103.858721711473,1.29159922348973,0 103.858554267415,1.29166208811,0 103.858339964718,1.29178028047351,0 103.85829071111,1.29181454800267,0 103.858289469706,1.29181538683336,0 103.858273769706,1.29182568683336,0 103.858270972749,1.29182740463938,0 103.858144361531,1.29190005369634,0 103.858117150121,1.29191580242455,0 103.858116800079,1.29191600330223,0 103.857917554721,1.29202937391074,0 103.857906195434,1.29203632091274,0 103.857905070579,1.29203699057871,0 103.857753170579,1.29212499057871,0 103.857752959474,1.29212511225387,0 103.857710059474,1.29214971225387,0 103.857709674464,1.29214993097444,0 103.857259497023,1.29240328061217,0 103.857204300607,1.29243626022367,0 103.857100690733,1.29249870590474,0 103.857100226699,1.29249898248094,0 103.857013647017,1.29255001156648,0 103.856896366975,1.29261994004134,0 103.856896070895,1.29262011532673,0 103.856541870895,1.29282831532673,0 103.85654090791,1.29282886836881,0 103.856242377646,1.29299632925031,0 103.856004152686,1.29313087391315,0 103.855850057101,1.29321965613896,0 103.855847555495,1.29322101248058,0 103.855844987085,1.29322223761951,0 103.855842358747,1.29322332827613,0 103.855839677515,1.29322428153086,0 103.855836950569,1.29322509483188,0 103.855834185207,1.29322576600207,0 103.855831388832,1.29322629324474,0 103.855828568931,1.29322667514852,0 103.855825733051,1.29322691069106,0 103.855822888784,1.29322699924185,0 103.855820043744,1.29322694056383,0 103.855817205547,1.29322673481409,0 103.85581438179,1.29322638254341,0 103.855811580033,1.29322588469477,0 103.855808807776,1.29322524260089,0 103.855806072439,1.29322445798061,0 103.855803381345,1.29322353293428,0 103.855800741699,1.2932224699382,0 103.855798160565,1.29322127183792,0 103.855795644854,1.29321994184066,0 103.855793201299,1.29321848350673,0 103.855790836443,1.29321690073998,0 103.855788556615,1.29321519777735,0 103.855786367919,1.29321337917754,0 103.855784276214,1.29321144980881,0 103.855782287098,1.29320941483593,0 103.855780405897,1.29320727970637,0 103.855778637646,1.29320505013572,0 103.85577698708,1.29320273209235,0 103.855775458615,1.2932003317815,0 103.855582542209,1.29287933726401,0 103.855365229746,1.29252814034181,0 103.855364101195,1.29252623154659,0 103.855245701195,1.29231643154659,0 103.8552449041,1.29231496773938,0 103.8550311041,1.29190776773938,0 103.854875903793,1.29161216715586,0 103.854874150123,1.29160850456353,0 103.854852050984,1.2915576065456,0 103.854847415015,1.29154693128793,0 103.854793381809,1.29160149899505,0 103.854694065923,1.29170171503146,0 103.85469365078,1.29170212949233,0 103.854506486708,1.2918870037918,0 103.854358486609,1.29204624314485,0 103.854357336013,1.29204744417796,0 103.854137336013,1.29227024417796,0 103.854137090873,1.29227049087296,0 103.854127990873,1.29227959087296,0 103.853971672195,1.29243560955125,0 103.853963690873,1.29244359087295,0 103.85396160563,1.29244556986154,0 103.85395941983,1.29244743718918,0 103.853957139445,1.2924491877541,0 103.853954770706,1.29245081677359,0 103.853821674416,1.29253731436243,0 103.853648478102,1.29264991196566,0 103.853645956013,1.29265145676611,0 103.853643354529,1.29265286375826,0 103.853640681174,1.29265412887352,0 103.853637943678,1.29265524845359,0 103.853635149957,1.292656219261,0 103.85363230809,1.29265703848847,0 103.853629426294,1.29265770376706,0 103.853626512902,1.29265821317299,0 103.85362357634,1.29265856523322,0 103.853620625099,1.29265875892971,0 103.853617667712,1.29265879370234,0 103.853614712733,1.29265866945057,0 103.853611768704,1.29265838653369,0 103.853608844141,1.29265794576981,0 103.853605947499,1.29265734843348,0 103.853485647499,1.29262914843348,0 103.85348262611,1.29262834897107,0 103.85347965501,1.29262737917859,0 103.853476743793,1.29262624218756,0 103.853473901859,1.29262494166941,0 103.853471138386,1.2926234818236,0 103.853368338386,1.2925653818236,0 103.853365822212,1.2925638697582,0 103.853363390299,1.29256222559694,0 103.853361049573,1.29256045402361,0 103.853358806703,1.29255856008498,0 103.853215406703,1.29243076008498,0 103.853213440914,1.29242891985361,0 103.85321156755,1.2924269856142,0 103.853209791101,1.29242496200303,0 103.853208115824,1.29242285387059,0 103.853206545736,1.29242066626998,0 103.853205084599,1.29241840444476,0 103.853203735916,1.29241607381641,0 103.85308374238,1.29219648564495,0 103.853034948858,1.29210729748594,0 103.852944116752,1.2919411046876,0 103.852587500008,1.2913091294433,0 103.852587166053,1.29130852889307,0 103.85247864393,1.29111047102197,0 103.852381382658,1.29093542070416,0 103.852363673733,1.29090388289965,0 103.852281004437,1.29075743729036,0 103.852280833757,1.29075713268254,0 103.851691133757,1.28969683268254,0 103.851604331521,1.28954072866101,0 103.851526431063,1.28940062783836,0 103.851526049919,1.28939993055276,0 103.851425849919,1.28921343055276,0 103.851424696137,1.28921115829837,0 103.851423648848,1.28920883503743,0 103.851422710303,1.28920646575775,0 103.851405710303,1.28916046575775,0 103.85140468732,1.28915742828482,0 103.851403843007,1.2891543363807,0 103.851403180232,1.28915120054535,0 103.851402701244,1.28914803142788,0 103.851396701244,1.28909863142788,0 103.851396429735,1.28909577544486,0 103.851396307515,1.28909290918969,0 103.851396334918,1.28909004046082,0 103.851396511869,1.28908717706342,0 103.851396837886,1.28908432678817,0 103.851397312083,1.28908149739002,0 103.851397933169,1.28907869656716,0 103.851398699454,1.28907593194,0 103.851399608854,1.28907321103048,0 103.851400658893,1.28907054124158,0 103.851401846716,1.28906792983723,0 103.851403169091,1.28906538392247,0 103.851404622419,1.28906291042417,0 103.851406202746,1.28906051607218,0 103.851407905773,1.28905820738099,0 103.851409726867,1.28905599063205,0 103.851411661071,1.28905387185664,0 103.851413703124,1.28905185681948,0 103.85141584747,1.28904995100304,0 103.851418088275,1.28904815959262,0 103.851606588275,1.28890535959262,0 103.851607036915,1.28890502330629,0 103.851834236915,1.28873652330629,0 103.851835849947,1.28873537148576,0 103.852006249947,1.28861827148576,0 103.852007247937,1.28861760159696,0 103.85204635375,1.28859196764272,0 103.852204584158,1.28845943613773,0 103.85220585187,1.28845840596282,0 103.852249443651,1.28842404430745,0 103.852295044416,1.28837137626556,0 103.852303762473,1.28835226918932,0 103.852305066745,1.28834960353337,0 103.852306512896,1.28834701210667,0 103.852308096716,1.28834450245376,0 103.852309813595,1.28834208188112,0 103.852311658534,1.28833975743592,0 103.852313626162,1.28833753588542,0 103.852315710749,1.28833542369735,0 103.852340710749,1.28831142369735,0 103.852342721136,1.28830958716343,0 103.852343371521,1.28830904958715,0 103.852336922,1.2882880416812,0 103.852336871568,1.28828787648819,0 103.852330071568,1.28826547648819,0 103.852329314989,1.28826273028916,0 103.852328701605,1.28825994860225,0 103.852328233062,1.28825713888882,0 103.852327910617,1.28825430868545,0 103.852327735134,1.28825146558363,0 103.852322235134,1.28809766558363,0 103.852322207512,1.28809479101062,0 103.852322330123,1.28809191892085,0 103.852322602631,1.28808905716054,0 103.852323024293,1.28808621354766,0 103.852323593956,1.28808339585061,0 103.852324310065,1.28808061176701,0 103.852398710065,1.28781981176701,0 103.852399556977,1.28781710888628,0 103.852400541916,1.28781445319067,0 103.852401662269,1.28781185172354,0 103.852402915066,1.28780931138443,0 103.852404296985,1.28780683891075,0 103.852405804358,1.28780444085995,0 103.85240743319,1.28780212359205,0 103.85240917916,1.28779989325286,0 103.85250077916,1.28768889325286,0 103.852502675983,1.28768671392691,0 103.85250468463,1.28768463721483,0 103.85250679956,1.28768266884724,0 103.852566117972,1.28763030028205,0 103.852574709127,1.28762170912703,0 103.852574817541,1.28762160101404,0 103.852736917541,1.28746040101404,0 103.852739026168,1.28745841183017,0 103.852741236672,1.2874565365075,0 103.853229915216,1.28706362663919,0 103.853257251703,1.28703390232571,0 103.853297515875,1.28697234905128,0 103.853327918078,1.28692034271105,0 103.853329386401,1.28691797113234,0 103.853330973071,1.28691567704564,0 103.853332674008,1.28691346635138,0 103.853334484837,1.28691134473552,0 103.853396490339,1.28684232155641,0 103.853465193901,1.28674110995386,0 103.85346589385,1.28674010315159,0 103.853579218252,1.28658091406666,0 103.85360314688,1.28654199400792,0 103.853604757339,1.28653952538356,0 103.853606497733,1.2865371465787,0 103.853608363064,1.28653486442517,0 103.853610347974,1.28653268547722,0 103.853612446764,1.28653061599272,0 103.853614653405,1.28652866191513,0 103.85361696156,1.28652682885651,0 103.8536193646,1.28652512208132,0 103.853621855624,1.28652354649135,0 103.853624427477,1.28652210661163,0 103.853627072774,1.28652080657746,0 103.853629783917,1.28651965012247,0 103.853632553119,1.28651864056796,0 103.853635372429,1.28651778081333,0 103.853638233748,1.28651707332776,0 103.853641128859,1.28651652014312,0 103.853644049448,1.28651612284815,0 103.853646987127,1.28651588258385,0 103.853649933459,1.28651580004025,0 103.853652879981,1.28651587545442,0 103.853655818233,1.28651610860978,0 103.853684018233,1.28651910860978,0 103.853687195917,1.28651954068297,0 103.853690343016,1.28652015722636,0 103.853730543016,1.28652925722636,0 103.853733199976,1.28652992868016,0 103.853735820191,1.28653073164792,0 103.853738397156,1.28653166413606,0 103.853740924474,1.28653272382945,0 103.853743395869,1.28653390809717,0 103.853787495869,1.28655640809717,0 103.853789963958,1.286557747812,0 103.853792360447,1.28655921175804,0 103.853794679089,1.28656079611872,0 103.853796913839,1.28656249676356,0 103.85379905887,1.28656430925889,0 103.853801108591,1.28656622887948,0 103.853803057658,1.28656825062078,0 103.853804900989,1.28657036921204,0 103.853806633779,1.28657257913,0 103.853808251511,1.28657487461332,0 103.853809749967,1.28657724967757,0 103.85381112524,1.28657969813087,0 103.853812373745,1.28658221359,0 103.853813492227,1.28658478949705,0 103.85381447777,1.28658741913653,0 103.853815327805,1.28659009565286,0 103.853816040116,1.28659281206825,0 103.853816612845,1.2865955613009,0 103.85382397168,1.28663603489107,0 103.853834328621,1.28669040883407,0 103.854319194722,1.28924661244877,0 103.854735540198,1.29038247145103,0 103.854735850358,1.29038334009199,0 103.854824149902,1.29063733877998,0 103.854934644278,1.29095513499008,0 103.854973935508,1.29106403352568,0 103.854974041821,1.29106433085097,0 103.855032356808,1.29122890870455,0 103.855181223413,1.29110485320063,0 103.855199862319,1.29108876488166,0 103.855199934488,1.29108870269738,0 103.855414428172,1.2909042081298,0 103.855758921844,1.29060771357613,0 103.855828521818,1.2905478135988,0 103.855961309789,1.29043352395201,0 103.856002498325,1.29039803383023,0 103.856139018534,1.29028051642502,0 103.856251236131,1.29018400128407,0 103.856251870717,1.29018346378781,0 103.856315860332,1.29013008996168,0 103.856414000145,1.2900390731996,0 103.856509810734,1.28995026338174,0 103.856512108167,1.28994824951899,0 103.856514513878,1.28994636633151,0 103.856517020444,1.28994461962999,0 103.856546100547,1.28992553268958,0 103.856634280662,1.28986754576588,0 103.856636328449,1.28986626268747,0 103.85663843062,1.28986507080001,0 103.856640583117,1.28986397240443,0 103.856713683117,1.28982867240443,0 103.856713783177,1.28982862421003,0 103.856762283177,1.28980532421003,0 103.85676458064,1.28980428461545,0 103.856766923341,1.28980335142349,0 103.856769306354,1.28980252659589,0 103.856861306354,1.28977302659589,0 103.856862849266,1.2897725566928,0 103.856971649266,1.2897411566928,0 103.856974888786,1.2897403275608,0 103.856978172705,1.28973969682958,0 103.857095772705,1.28972079682958,0 103.857097477656,1.28972055014492,0 103.857248177656,1.28970115014492,0 103.85725119369,1.28970084610787,0 103.857254221894,1.28970070869788,0 103.857303864993,1.28969982571786,0 103.857327589756,1.28969857704611,0 103.857453162146,1.28969187851896,0 103.857479254043,1.28969047895358,0 103.857571993495,1.2896855768515,0 103.857753180501,1.28967597753993,0 103.85807567083,1.28965877805574,0 103.858290079685,1.28964737758417,0 103.858652178918,1.28962817762423,0 103.858747770066,1.28962307809649,0 103.858905776592,1.28961467774859,0 103.859224773119,1.28959767793371,0 103.859225209639,1.28959765640982,0 103.859507244912,1.28958487294137,0 103.859665480436,1.28957559431353,0 103.859665537041,1.28957559102362,0 103.859969337041,1.28955809102362,0 103.859969590807,1.28955807699393,0 103.86031318544,1.28953987727819,0 103.860589676807,1.28952517773718,0 103.860831773544,1.28951227791103,0 103.860873596064,1.28951007671411,0 103.860982782866,1.28950427741511,0 103.861088551938,1.28949866844899,0 103.861172829754,1.28945052145457,0 103.861212173616,1.28940989696083,0 103.861222,1.28936846679979,0 103.861222,1.2892211,0 103.861222010416,1.28922002964313,0 103.861223610416,1.28913782964313,0 103.861223755316,1.28913476954667,0 103.861224070374,1.28913172226511,0 103.861224554612,1.28912869725276,0 103.861225206528,1.28912570389486,0 103.861244706528,1.28904680389486,0 103.861245416681,1.28904420544882,0 103.861246253207,1.28904164489007,0 103.861247214101,1.28903912836075,0 103.861281914101,1.28895452836075,0 103.861282981318,1.28895209551702,0 103.861284164767,1.28894971704539,0 103.861285461689,1.28894739849511,0 103.861286869056,1.28894514527562,0 103.861288383585,1.28894296264395,0 103.861290001743,1.28894085569244,0 103.861346501743,1.28887085569244,0 103.86134831813,1.28886871912883,0 103.861350241058,1.28886667792536,0 103.861352265529,1.2888647373886,0 103.861354386279,1.28886290256341,0 103.861356597796,1.28886117821984,0 103.861358894329,1.28885956884069,0 103.861361269908,1.28885807860991,0 103.861447369908,1.28880707860991,0 103.861449774669,1.28880573438142,0 103.861452243725,1.2888045122566,0 103.861454770881,1.28880341530179,0 103.861457349796,1.2888024462693,0 103.861459973999,1.28880160759045,0 103.861462636907,1.28880090136952,0 103.861563236907,1.28877690136952,0 103.861566537871,1.28877622003958,0 103.86156987437,1.28877574218576,0 103.86182417437,1.28874724218576,0 103.861935193839,1.28873484000738,0 103.861935725897,1.28873478318925,0 103.862769125897,1.28864988318925,0 103.862772036462,1.28864966453271,0 103.862838036462,1.28864646453271,0 103.862838631864,1.28864643889727,0 103.863545207294,1.28861985111053,0 103.863870382892,1.28860376715625,0 103.863873784033,1.28860370425381,0 103.863877182557,1.28860385172997,0 103.863938982557,1.28860845172997,0 103.863942088318,1.28860877176794,0 103.863945170913,1.28860926752509,0 103.86394822041,1.28860993740383,0 103.863951226982,1.28861077924544,0 103.863954180939,1.28861179033706,0 103.863990780939,1.28862549033706,0 103.863993345597,1.2886265245616,0 103.86399585503,1.2886276863862,0 103.863998302894,1.28862897287384,0 103.864000683002,1.2886303807723,0 103.864002989336,1.28863190652247,0 103.864005216066,1.28863354626732,0 103.864007357563,1.28863529586163,0 103.864009408414,1.28863715088248,0 103.864040208414,1.28866645088248,0 103.864042693325,1.28866897200348,0 103.864045010909,1.28867164775287,0 103.864092310909,1.28872994775287,0 103.864094197558,1.28873241214849,0 103.864095942193,1.28873497904184,0 103.864444742193,1.28928067904184,0 103.86444628402,1.28928324227178,0 103.864447684215,1.28928588553336,0 103.864490584215,1.28937248553336,0 103.864491700779,1.28937488270096,0 103.864492700828,1.28937733076766,0 103.86449358205,1.28937982407409,0 103.864494342407,1.28938235685626,0 103.864494980142,1.28938492325896,0 103.864495493781,1.28938751734923,0 103.864513793781,1.28949321734923,0 103.864514190829,1.28949590362843,0 103.864514454807,1.28949860623072,0 103.86451458507,1.28950131856823,0 103.864514581302,1.28950403402935,0 103.864514443511,1.28950674599488,0 103.864503043511,1.28965754599488,0</coordinates></LineString>
  </Placemark>
</Folder>
</Document></kml>
