<?xml version="1.0" encoding="utf-8" ?>
<kml xmlns="http://www.opengis.net/kml/2.2">
<Document id="root_doc">
<Schema name="marina_bay_circuit_fixed" id="marina_bay_circuit_fixed">
	<SimpleField name="access" type="string"></SimpleField>
	<SimpleField name="barrier" type="string"></SimpleField>
	<SimpleField name="bridge" type="string"></SimpleField>
	<SimpleField name="bridge_nam" type="string"></SimpleField>
	<SimpleField name="bus" type="string"></SimpleField>
	<SimpleField name="busway_lef" type="string"></SimpleField>
	<SimpleField name="button_ope" type="string"></SimpleField>
	<SimpleField name="crossing" type="string"></SimpleField>
	<SimpleField name="foot" type="string"></SimpleField>
	<SimpleField name="highway" type="string"></SimpleField>
	<SimpleField name="image" type="string"></SimpleField>
	<SimpleField name="junction" type="string"></SimpleField>
	<SimpleField name="kerb" type="string"></SimpleField>
	<SimpleField name="lanes" type="string"></SimpleField>
	<SimpleField name="lanes_back" type="string"></SimpleField>
	<SimpleField name="lanes_bus" type="string"></SimpleField>
	<SimpleField name="lanes_bus_" type="string"></SimpleField>
	<SimpleField name="lanes_forw" type="string"></SimpleField>
	<SimpleField name="layer" type="string"></SimpleField>
	<SimpleField name="lit" type="string"></SimpleField>
	<SimpleField name="mapillary" type="string"></SimpleField>
	<SimpleField name="maxheight" type="string"></SimpleField>
	<SimpleField name="maxspeed" type="string"></SimpleField>
	<SimpleField name="motor_vehi" type="string"></SimpleField>
	<SimpleField name="name_ms" type="string"></SimpleField>
	<SimpleField name="name_ta" type="string"></SimpleField>
	<SimpleField name="name_zh" type="string"></SimpleField>
	<SimpleField name="note" type="string"></SimpleField>
	<SimpleField name="oneway" type="string"></SimpleField>
	<SimpleField name="public_tra" type="string"></SimpleField>
	<SimpleField name="race cours" type="string"></SimpleField>
	<SimpleField name="raceway" type="string"></SimpleField>
	<SimpleField name="sidewalk" type="string"></SimpleField>
	<SimpleField name="sidewalk_b" type="string"></SimpleField>
	<SimpleField name="sidewalk_l" type="string"></SimpleField>
	<SimpleField name="sidewalk_r" type="string"></SimpleField>
	<SimpleField name="smoothness" type="string"></SimpleField>
	<SimpleField name="source" type="string"></SimpleField>
	<SimpleField name="sport" type="string"></SimpleField>
	<SimpleField name="start_date" type="string"></SimpleField>
	<SimpleField name="surface" type="string"></SimpleField>
	<SimpleField name="tactile_pa" type="string"></SimpleField>
	<SimpleField name="traffic_ca" type="string"></SimpleField>
	<SimpleField name="traffic_si" type="string"></SimpleField>
	<SimpleField name="traffic__1" type="string"></SimpleField>
	<SimpleField name="traffic__2" type="string"></SimpleField>
	<SimpleField name="tunnel" type="string"></SimpleField>
	<SimpleField name="turn_lanes" type="string"></SimpleField>
	<SimpleField name="turn_lan_1" type="string"></SimpleField>
	<SimpleField name="turn_lan_2" type="string"></SimpleField>
</Schema>
<Folder><name>marina_bay_circuit_fixed</name>
  <Placemark id="marina_bay_circuit_fixed.1">
	<name>Nicoll Highway</name>
	<Style><LineStyle><color>ff0000ff</color></LineStyle><PolyStyle><fill>0</fill></PolyStyle></Style>
	<ExtendedData><SchemaData schemaUrl="#marina_bay_circuit_fixed">
		<SimpleData name="highway">trunk</SimpleData>
		<SimpleData name="lanes">4</SimpleData>
		<SimpleData name="maxspeed">70</SimpleData>
		<SimpleData name="name_ms">Lebuhraya Nicoll</SimpleData>
		<SimpleData name="name_ta">?????? ??????????</SimpleData>
		<SimpleData name="name_zh">????</SimpleData>
		<SimpleData name="oneway">yes</SimpleData>
		<SimpleData name="surface">asphalt</SimpleData>
	</SchemaData></ExtendedData>
      <LineString><coordinates>103.864393439401,1.28964815723838,0 103.864157170787,1.29168566183541,0 103.863801305252,1.29406456295901,0 103.86380101357,1.29406683533058,0 103.863800816775,1.29406911787807,0 103.863795385691,1.29415232984481,0 103.863780635353,1.29424407182849,0 103.863755278535,1.29427814891829,0 103.863707195168,1.29430293555527,0 103.863624450962,1.29430377730712,0 103.863539553293,1.29429688058576,0 103.863536676923,1.29429672261089,0 103.863533796227,1.29429671545512,0 103.863530919107,1.2942968591381,0 103.863407619107,1.2943062591381,0 103.863404598596,1.29430657349466,0 103.86340160004,1.29430705408595,0 103.863398632581,1.2943076994468,0 103.863395705265,1.29430850760969,0 103.863266305265,1.29434810760969,0 103.863263218481,1.29434915323158,0 103.863260199048,1.29435037984758,0 103.863257257569,1.29435178315073,0 103.863021257569,1.29447308315073,0 103.863018664124,1.29447450556697,0 103.8630161509,1.29447606535162,0 103.863013725165,1.2944777579933,0 103.863011393936,1.29447957859638,0 103.863009163955,1.29448152189511,0 103.863007041673,1.29448358226889,0 103.863005033226,1.29448575375849,0 103.863003144425,1.29448803008328,0 103.863001380732,1.29449040465945,0 103.862982080732,1.29451790465945,0 103.862979921803,1.29452122956008,0 103.862933421803,1.29459882956008,0 103.862932227586,1.29460092540217,0 103.862931126415,1.29460307159215,0 103.862891682706,1.29468428470063,0 103.862843802264,1.29474148198006,0 103.862791421124,1.29476936226397,0 103.862726527982,1.29478445369233,0 103.862658736322,1.29478610714748,0 103.862635441418,1.29477927933105,0 103.862585424482,1.29474315152815,0 103.862519482307,1.29467075156732,0 103.862478847936,1.29461033940553,0 103.862440264222,1.29452876980849,0 103.862436640282,1.29448141149511,0 103.862425641457,1.29433712690862,0 103.862401112174,1.29401419099081,0 103.862408747571,1.29387217259989,0 103.862419996285,1.29380696819279,0 103.86243292021,1.29373234903323,0 103.862480215917,1.29359685064759,0 103.862576499668,1.29338429412347,0 103.862578017815,1.29338058950093,0 103.862770017815,1.29285868950093,0 103.862770765499,1.29285651827869,0 103.862846465499,1.29262081827869,0 103.862847190498,1.29261836659409,0 103.86284780078,1.29261588386635,0 103.86287440078,1.29249568386635,0 103.862874997177,1.29249256450498,0 103.862944697177,1.29206076450498,0 103.862945021704,1.29205843967631,0 103.862945246736,1.29205610311754,0 103.862953146023,1.29195051265059,0 103.862963645303,1.29181082223104,0 103.862963786858,1.29180790227783,0 103.862963773065,1.29180497892797,0 103.862960373065,1.29169637892797,0 103.862960208917,1.29169351931603,0 103.862959896116,1.29169067212769,0 103.862959435514,1.29168784508503,0 103.862943835514,1.29160564508503,0 103.862943197344,1.2916027195728,0 103.862942400908,1.29159983312641,0 103.862941448568,1.29159699430107,0 103.862940343144,1.29159421151087,0 103.862939087915,1.29159149300378,0 103.862897887915,1.29150829300378,0 103.862896616055,1.29150587727699,0 103.862895225887,1.29150352763929,0 103.862893720837,1.29150124988001,0 103.862851620837,1.29144084988001,0 103.862849916721,1.29143853628632,0 103.862848094098,1.29143631485059,0 103.862846157945,1.29143419163622,0 103.862844113546,1.29143217243853,0 103.862802613546,1.29139327243853,0 103.86280018799,1.29139112937982,0 103.862797640574,1.29138913271046,0 103.862704740574,1.29132063271046,0 103.862702221714,1.29131888171742,0 103.862699609147,1.29131727388507,0 103.862696911,1.29131581421531,0 103.862694135668,1.2913145072491,0 103.862553035668,1.2912528072491,0 103.862550368759,1.29125172329491,0 103.862547648787,1.29125078036746,0 103.862544883204,1.29124998105002,0 103.862360883204,1.29120198105002,0 103.862357960357,1.29120130314865,0 103.86235500489,1.29120078564769,0 103.8623520256,1.29120043008726,0 103.862349031354,1.29120023752553,0 103.862346031063,1.29120020853557,0 103.862343033655,1.29120034320365,0 103.862340048051,1.291200641129,0 103.862337083137,1.29120110142498,0 103.862041675117,1.29125525296199,0 103.861613806669,1.29128559613907,0 103.861514909019,1.29128540010805,0 103.861514441935,1.29128540116556,0 103.861208125318,1.29128739541437,0 103.861003437285,1.29128215207663,0 103.860937262943,1.2912772502735,0 103.860934285672,1.29127711071635,0 103.860832985672,1.29127511071635,0 103.860830251949,1.2912751246971,0 103.860827522298,1.29127527449747,0 103.860748622298,1.29128157449747,0 103.860746095277,1.29128183513221,0 103.860374876782,1.29132880969775,0 103.860051969198,1.29134840094937,0 103.860051838408,1.29134840904099,0 103.860018538408,1.29135050904099,0 103.859919772238,1.29135680687034,0 103.859697538657,1.29137039058585,0 103.859603332929,1.29137548009025,0 103.859602933121,1.29137550315016,0 103.859373033121,1.29138960315016,0 103.859372481412,1.29138963977151,0 103.859298281412,1.29139493977151,0 103.85916663994,1.29140444274956,0 103.859165257781,1.29140456006306,0 103.859011557781,1.29141956006306,0 103.859007520221,1.29142010572218,0 103.858799520221,1.29145610572218,0 103.858796436539,1.29145673077251,0 103.858793393645,1.29145753113651,0 103.858790401498,1.29145850419486,0 103.858754207447,1.29147143064164,0 103.858684913975,1.29149555872852,0 103.858683668505,1.29149600928919,0 103.858511868505,1.29156050928919,0 103.858509405746,1.29156150237153,0 103.85850699379,1.29156261316585,0 103.858504638259,1.29156383908285,0 103.858284338259,1.29168533908285,0 103.858281874455,1.29168678257577,0 103.85827948889,1.29168835199733,0 103.858228503879,1.2917238241271,0 103.858214803132,1.29173281251509,0 103.858089527251,1.29180469536062,0 103.858089349879,1.29180479757545,0 103.858062224532,1.29182049649434,0 103.857862399921,1.29193419669777,0 103.857860904566,1.29193507908726,0 103.857849363009,1.29194213756024,0 103.857698134838,1.29202974835036,0 103.857655532591,1.29205417761095,0 103.857204925536,1.29230776902556,0 103.857203689728,1.29230848580159,0 103.857147789728,1.29234188580159,0 103.857147609267,1.29234199409526,0 103.857044140605,1.29240435466777,0 103.856957673301,1.29245531751906,0 103.856957433025,1.29245545995866,0 103.856840180791,1.29252537185263,0 103.856486607806,1.29273320329114,0 103.85618849209,1.29290043163119,0 103.856188352732,1.29290051007108,0 103.855949852732,1.29303521007108,0 103.855949442899,1.29303544386104,0 103.855841927648,1.29309738881094,0 103.855676641385,1.2928223682185,0 103.855676270254,1.29282175965819,0 103.855459353773,1.29247120267865,0 103.855341908444,1.29226309431706,0 103.8551284959,1.29185663226062,0 103.854974240692,1.2915628317487,0 103.854952949877,1.29151379543647,0 103.854915948262,1.29142859171719,0 103.854914723185,1.29142596272043,0 103.854913361219,1.29142340196115,0 103.854911866153,1.29142091656073,0 103.854910242144,1.29141851343101,0 103.854908493708,1.29141619925503,0 103.854906625707,1.29141398046844,0 103.854904643338,1.29141186324162,0 103.854902552112,1.29140985346252,0 103.854900357845,1.29140795672028,0 103.854898066639,1.29140617828969,0 103.854895684867,1.2914045231165,0 103.854893219151,1.29140299580371,0 103.854890676349,1.29140160059874,0 103.854888063533,1.2914003413816,0 103.854885387967,1.29139922165414,0 103.854882657094,1.2913982445303,0 103.854879878508,1.29139741272742,0 103.854877059935,1.29139672855873,0 103.854874209215,1.29139619392688,0 103.854871334274,1.29139581031867,0 103.854868443109,1.2913955788009,0 103.854865543759,1.29139550001741,0 103.854862644287,1.2913955741873,0 103.854859752756,1.2913958011043,0 103.854856877209,1.29139618013737,0 103.854854025641,1.29139671023243,0 103.854851205984,1.29139738991529,0 103.854848426077,1.29139821729577,0 103.854845693653,1.29139919007296,0 103.854843016309,1.2914003055416,0 103.854840401492,1.29140156059958,0 103.854837856474,1.29140295175664,0 103.854835388331,1.291404475144,0 103.854833003927,1.29140612652518,0 103.854830709895,1.29140790130771,0 103.854828512613,1.29140979455599,0 103.854826418191,1.29141180100495,0 103.854715226146,1.29152409297138,0 103.854616140543,1.2916240766315,0 103.85442834922,1.29180957050767,0 103.854426713391,1.29181125685515,0 103.854278479608,1.29197074763871,0 103.854059186167,1.29219283208701,0 103.854050227805,1.29220179044863,0 103.853893946504,1.29235777178585,0 103.85388999009,1.29236172816364,0 103.853761729294,1.29244508322641,0 103.853608200423,1.29254489472042,0 103.853518412348,1.29252384714176,0 103.85342759299,1.29247251830233,0 103.853295699567,1.29235497311769,0 103.853180264084,1.29214372618359,0 103.853131456607,1.29205451250204,0 103.853040462084,1.29188802252448,0 103.853040099992,1.2918873705567,0 103.852683468845,1.29125536978873,0 103.852575033947,1.29105747110693,0 103.852574877356,1.29105718731021,0 103.852477477356,1.29088188731021,0 103.852477356842,1.29088167155235,0 103.852459556842,1.29084997155235,0 103.852459495563,1.29084986270964,0 103.852376881387,1.29070351474388,0 103.851787267334,1.28964336928059,0 103.851700468833,1.28948727197464,0 103.851622762027,1.28934751942783,0 103.851524562334,1.28916474255425,0 103.851511122237,1.28912837523158,0 103.851509710378,1.28911675092405,0 103.851672788262,1.28899320969389,0 103.851898966948,1.28882546713877,0 103.852068054718,1.28870926891143,0 103.852109352063,1.28868219840304,0 103.852111990053,1.28868035668024,0 103.852114515842,1.28867836386227,0 103.852274589636,1.28854428836347,0 103.85232164813,1.28850719403718,0 103.852323657049,1.2885055317853,0 103.852325584929,1.28850377618865,0 103.852327427435,1.28850193119304,0 103.852329180427,1.28850000094517,0 103.852383380427,1.28843740094517,0 103.852385367501,1.28843496892733,0 103.85238721252,1.28843242745624,0 103.852388909469,1.2884297848185,0 103.852390452815,1.28842704963057,0 103.852391837527,1.28842423081068,0 103.852399473402,1.28840749551713,0 103.852408926829,1.28839842022708,0 103.852429931683,1.2883903001397,0 103.852432557055,1.28838920638107,0 103.852435122375,1.28838797837004,0 103.852437620786,1.28838661939034,0 103.852440045606,1.28838513307588,0 103.852442390351,1.2883835234011,0 103.852444648751,1.28838179467028,0 103.852446814767,1.28837995150606,0 103.852448882608,1.28837799883708,0 103.852450846744,1.2883759418848,0 103.852452701923,1.28837378614953,0 103.852454443183,1.28837153739574,0 103.852456065869,1.2883692016366,0 103.852457565643,1.28836678511798,0 103.852458938492,1.28836429430165,0 103.852460180747,1.2883617358481,0 103.852461289085,1.28835911659865,0 103.852462260544,1.28835644355721,0 103.852463092524,1.28835372387151,0 103.852463782802,1.28835096481402,0 103.852464329531,1.28834817376249,0 103.852464731251,1.28834535818023,0 103.852464986885,1.28834252559613,0 103.852465095752,1.28833968358454,0 103.852465057559,1.28833683974504,0 103.852464872409,1.28833400168209,0 103.852464540797,1.28833117698469,0 103.85246406361,1.28832837320612,0 103.852463442124,1.28832559784371,0 103.852462678,1.2883228583188,0 103.852442103345,1.28825584087451,0 103.852437408906,1.28824037683774,0 103.852432475661,1.28810242536692,0 103.852501336722,1.28786104143153,0 103.852582856406,1.2877622566612,0 103.85264020044,1.28771163115276,0 103.852642690873,1.28770929087297,0 103.85265243674,1.28769954500636,0 103.852812424841,1.28754044517961,0 103.853302063328,1.2871467634925,0 103.853304162955,1.28714498710672,0 103.853306171156,1.28714310798311,0 103.85330808291,1.2871411308204,0 103.85334128291,1.2871050308204,0 103.853343260187,1.28710275901202,0 103.853345110143,1.28710038237586,0 103.853346827231,1.2870979080385,0 103.853390327231,1.2870314080385,0 103.853391781922,1.28702905728895,0 103.853420056496,1.28698069049328,0 103.853480815163,1.28691305526448,0 103.853482433306,1.2869111700138,0 103.85348396466,1.28690921361033,0 103.853485406099,1.28690719004614,0 103.853555861736,1.28680339734861,0 103.85366990615,1.28664319684841,0 103.85367195312,1.28664010599208,0 103.853678067146,1.28663016149183,0 103.853699539345,1.28663502211413,0 103.853713256613,1.28664202072025,0 103.853715787155,1.2866559386991,0 103.853715871379,1.28665639116593,0 103.853726267433,1.28671097045055,0 103.854211963508,1.28927154975566,0 103.854212603761,1.28927448490348,0 103.854213403321,1.28927738071444,0 103.854214359802,1.28928022854897,0 103.85463210108,1.29041989552906,0 103.854720249642,1.29067345990801,0 103.854830850473,1.29099156230005,0 103.854831064493,1.29099216647432,0 103.854870410909,1.2911012179636,0 103.854955858179,1.29134236914903,0 103.854956902373,1.2913450855657,0 103.854958088787,1.29134774294795,0 103.854959414101,1.29135033385575,0 103.854960874603,1.2913528510352,0 103.854962466205,1.29135528743881,0 103.854964184451,1.29135763624526,0 103.854966024529,1.29135989087845,0 103.854967981289,1.29136204502596,0 103.854970049251,1.29136409265672,0 103.854972222626,1.29136602803785,0 103.85497449533,1.29136784575076,0 103.854976860998,1.2913695407063,0 103.854979313007,1.291371108159,0 103.854981844494,1.2913725437204,0 103.854984448369,1.29137384337126,0 103.854987117343,1.29137500347288,0 103.854989843944,1.29137602077725,0 103.854992620537,1.29137689243619,0 103.854995439349,1.29137761600925,0 103.854998292488,1.29137818947061,0 103.855001171966,1.29137861121471,0 103.855004069721,1.29137888006078,0 103.855006977639,1.29137899525611,0 103.85500988758,1.29137895647818,0 103.855012791396,1.29137876383557,0 103.855015680958,1.29137841786762,0 103.855018548174,1.29137791954297,0 103.855021385019,1.29137727025678,0 103.855024183549,1.29137647182692,0 103.855026935929,1.29137552648879,0 103.855029634453,1.2913744368891,0 103.855032271566,1.29137320607847,0 103.855034839884,1.29137183750285,0 103.855037332218,1.29137033499395,0 103.855039741588,1.29136870275839,0 103.85504206125,1.29136694536606,0 103.855044284709,1.29136506773722,0 103.855094907196,1.29131997129227,0 103.855252010142,1.29118905217038,0 103.855252737681,1.29118843511834,0 103.855271701623,1.29117206624189,0 103.855486165512,1.29098759730262,0 103.855830677803,1.29069108672712,0 103.855900277307,1.29063118715454,0 103.856033078758,1.29051688590579,0 103.856074291564,1.29048137488239,0 103.856210772683,1.29036389113526,0 103.856322648607,1.29026766986323,0 103.856387429283,1.29021363621219,0 103.856389599855,1.2902117268004,0 103.85648879458,1.29011973169244,0 103.856581220111,1.2900340595932,0 103.856606479556,1.29001748037001,0 103.856691686043,1.28996144891743,0 103.856761466875,1.28992775174418,0 103.856806501597,1.28990611650682,0 103.856894125635,1.28987801966838,0 103.856998933455,1.28984777182327,0 103.857112376751,1.28982953986498,0 103.857259212404,1.28981063733239,0 103.857306778106,1.28980979130212,0 103.857308690736,1.28980972398061,0 103.857333390736,1.28980842398061,0 103.857459029752,1.28980172191325,0 103.857485124566,1.28980032219379,0 103.857577803175,1.28979542332453,0 103.857759009826,1.28978582297252,0 103.858081524743,1.28976862218041,0 103.858295916273,1.28975722263077,0 103.85865801223,1.2897380228451,0 103.858753624932,1.28973292217035,0 103.858911619927,1.28972452243646,0 103.859230408664,1.28970753369543,0 103.859512590361,1.28969474359018,0 103.859513319564,1.28969470568647,0 103.859671891262,1.28968540734604,0 103.859975536092,1.28966791628439,0 103.860319009193,1.28964972300607,0 103.860595519927,1.28963502243646,0 103.860837608597,1.28962212304057,0 103.860879390736,1.28961992398061,0 103.860988614857,1.28961412270581,0 103.861107412574,1.28960782282687,0 103.861110251548,1.28960759844321,0 103.861113075103,1.28960722741125,0 103.861115875667,1.28960671072573,0 103.861118645732,1.2896060497719,0 103.861121377873,1.28960524632181,0 103.861124064763,1.28960430252952,0 103.8611266992,1.28960322092539,0 103.861129274119,1.28960200440921,0 103.861131782619,1.28960065624252,0 103.861234182619,1.28954215624252,0 103.861236834678,1.28954054016766,0 103.861239391291,1.28953877697639,0 103.861241844306,1.28953687229059,0 103.861244185903,1.28953483218329,0 103.861246408615,1.2895326631593,0 103.861301708615,1.2894755631593,0 103.861303703635,1.28947338944815,0 103.861305579219,1.28947111188138,0 103.86130732997,1.28946873701323,0 103.861308950849,1.2894662716779,0 103.861310437192,1.28946372296998,0 103.861311784721,1.28946109822393,0 103.861312989559,1.28945840499308,0 103.861314048238,1.2894556510278,0 103.861314957712,1.28945284425326,0 103.861315715364,1.28944999274659,0 103.861330515364,1.28938759274659,0 103.861331163238,1.28938445738556,0 103.86133162758,1.28938128963927,0 103.861331906816,1.28937810024165,0 103.861332,1.2893749,0 103.861332,1.28922163522891,0 103.861333469834,1.28914612251641,0 103.861350522166,1.28907712615783,0 103.861380639802,1.28900369814598,0 103.861425866636,1.28894766490069,0 103.861496264297,1.28890596593772,0 103.86158547993,1.28888468188989,0 103.861836415898,1.2888565589049,0 103.86194714027,1.28884418969577,0 103.862778821722,1.28875946476744,0 103.862843065906,1.28875634989791,0 103.863549668136,1.28872976110273,0 103.863550317108,1.28872973284375,0 103.863872414656,1.28871380113707,0 103.863922979711,1.28871756487899,0 103.863941716568,1.288724578402,0 103.863961822839,1.28874370547124,0 103.864004931321,1.28879683918207,0 103.864350445059,1.28933739780333,0 103.864388469198,1.28941415515474,0 103.86440424208,1.28950525863516,0</coordinates></LineString>
  </Placemark>
</Folder>
</Document></kml>
