<?xml version="1.0" encoding="utf-8" ?>
<kml xmlns="http://www.opengis.net/kml/2.2">
<Document id="root_doc">
<Schema name="yas_marina_bound" id="yas_marina_bound">
	<SimpleField name="bridge" type="string"></SimpleField>
	<SimpleField name="covered" type="string"></SimpleField>
	<SimpleField name="highway" type="string"></SimpleField>
	<SimpleField name="layer" type="string"></SimpleField>
	<SimpleField name="name_en" type="string"></SimpleField>
	<SimpleField name="name_fr" type="string"></SimpleField>
	<SimpleField name="oneway" type="string"></SimpleField>
	<SimpleField name="sport" type="string"></SimpleField>
	<SimpleField name="surface" type="string"></SimpleField>
</Schema>
<Folder><name>yas_marina_bound</name>
  <Placemark id="yas_marina_bound.1">
	<name>Yas Marina Circuit</name>
	<Style><LineStyle><color>ff0000ff</color></LineStyle><PolyStyle><fill>0</fill></PolyStyle></Style>
	<ExtendedData><SchemaData schemaUrl="#yas_marina_bound">
		<SimpleData name="highway">raceway</SimpleData>
		<SimpleData name="name_en">Yas Marina Circuit</SimpleData>
		<SimpleData name="name_fr">Circuit Yas Marina</SimpleData>
		<SimpleData name="oneway">yes</SimpleData>
		<SimpleData name="sport">motor</SimpleData>
		<SimpleData name="surface">asphalt</SimpleData>
	</SchemaData></ExtendedData>
      <LineString><coordinates>54.6028470432643,24.4695711746298,0 54.6041569083701,24.4697420612883,0 54.6052396371607,24.4698851650034,0 54.6078426343861,24.4702225417516,0 54.6078926891549,24.4702348754152,0 54.6079423467928,24.4702534667209,0 54.6079904553124,24.470283099196,0 54.6080363211796,24.4703227371004,0 54.6080805959059,24.4703741983862,0 54.608122062868,24.4704343477259,0 54.6081504612925,24.4704994829547,0 54.6081610426196,24.4705497218106,0 54.6081641587478,24.4706036297983,0 54.6081598493197,24.4706528634775,0 54.6081443635347,24.47073059392,0 54.6078377434641,24.4718871924189,0 54.6077515900501,24.4722277177765,0 54.6077345655049,24.4723026207722,0 54.6077113541467,24.4723721626739,0 54.6076927760101,24.4724195498384,0 54.6076618170672,24.4724779739125,0 54.6076358397226,24.4725118817323,0 54.6076016660365,24.4725482024451,0 54.6075334297781,24.4726078295519,0 54.6074541802669,24.4726590849648,0 54.6073702242615,24.4726980488076,0 54.6072780440976,24.4727265162728,0 54.6066696701331,24.4729032600869,0 54.6065678017711,24.4729380562258,0 54.6064862684824,24.4729731900083,0 54.6064207277304,24.4730074935013,0 54.606352710659,24.4730468158707,0 54.6062868017114,24.4730902099369,0 54.6062206474313,24.4731391525656,0 54.6061493049056,24.4731994747012,0 54.6061051695046,24.4732409177466,0 54.6060519483346,24.4732946201207,0 54.6059966963825,24.4733589678408,0 54.6059426807628,24.4734260692116,0 54.6058588476393,24.473534487105,0 54.6058304901033,24.4736070438871,0 54.6058119759848,24.4736776406521,0 54.6057891110763,24.4737975608262,0 54.6057805253313,24.4738885091054,0 54.6057815587929,24.4739937342828,0 54.6057990169771,24.47410745098,0 54.6058203489662,24.4742069041723,0 54.6059747795005,24.4747007293358,0 54.6060461776324,24.4749608859465,0 54.6060801116004,24.4751283124224,0 54.6061044386265,24.4752966618916,0 54.6061191958059,24.4754659650596,0 54.6061245817113,24.4756387182445,0 54.6061201167795,24.4758084856089,0 54.6061061758277,24.475977775236,0 54.606012054288,24.4766833904156,0 54.6059259778316,24.4773741014927,0 54.6058037540094,24.4782610286903,0 54.6057765409926,24.4783758714858,0 54.605748123192,24.4784558804841,0 54.6057237292722,24.4784983045654,0 54.6056940922468,24.478538857386,0 54.6056597611663,24.4785750886774,0 54.6056215057999,24.4786073883515,0 54.6055693804436,24.4786456753082,0 54.6055151156777,24.4786720617231,0 54.6054404158482,24.4786913392967,0 54.6054017948523,24.4786977500119,0 54.6053471892998,24.4787009978235,0 54.6052939494772,24.4786958488971,0 54.6052525932024,24.4786860687334,0 54.6052051192164,24.4786689884961,0 54.6051632627615,24.4786464101571,0 54.6051292134738,24.4786223134963,0 54.6050871941867,24.478582903685,0 54.6050477849341,24.4785352409106,0 54.6050199849434,24.4784891504354,0 54.6049835508142,24.4784167040103,0 54.6048437575856,24.4780345571426,0 54.6048238783605,24.477970218678,0 54.6046664459889,24.4773992147562,0 54.6045309506927,24.477007452292,0 54.6041651617248,24.4759972351095,0 54.6034418461891,24.4740465632353,0 54.6027807106779,24.472279647434,0 54.6026791129898,24.4719853438064,0 54.6025565063712,24.4716426601231,0 54.6024873475991,24.4714114191891,0 54.6023976347568,24.4710998691405,0 54.6023009142322,24.4707926100023,0 54.6014940447089,24.4685858873212,0 54.6014840621451,24.4685471635103,0 54.6014842065077,24.4685149539463,0 54.6014858427154,24.4685024583291,0 54.6014979333571,24.468465951166,0 54.6015172479585,24.4684359746803,0 54.6015250975566,24.4684273591246,0 54.6015520350137,24.46840427951,0 54.6015815746394,24.4683887258639,0 54.6015914381539,24.4683847888867,0 54.6016268326189,24.4683765230806,0 54.6016710641442,24.4683768093138,0 54.6021097771633,24.4684426609623,0 54.6021299347841,24.4684434528689,0 54.6021482476696,24.4684409496687,0 54.60216547951,24.4684354668104,0 54.6021805119867,24.4684275484688,0 54.6021871826571,24.4684220677017,0 54.6021915940178,24.46841459965,0 54.6021971275019,24.4683963973997,0 54.6023230986644,24.4679695789215,0 54.6023603922467,24.4678264029726,0 54.6024596371682,24.4675209802212,0 54.6025598411613,24.4671931625091,0 54.6026211721771,24.4670768893005,0 54.6026934408162,24.4669679946235,0 54.6028311408162,24.4667671946235,0 54.6030020550872,24.466561304974,0 54.6032292519025,24.4663456935906,0 54.6034001472719,24.4661994059522,0 54.6036754463374,24.4659883439298,0 54.6043749339989,24.4654998695241,0 54.6052965595642,24.464833040441,0 54.6056717542982,24.464579099172,0 54.6059407354197,24.4643932504031,0 54.6061102309904,24.4642878835651,0 54.6065102309904,24.4640527835651,0 54.6067462966137,24.4639310369152,0 54.6070873034515,24.4637814021354,0 54.6086518948754,24.4631497036012,0 54.6087094874694,24.4631318105906,0 54.6087688874694,24.4631171105906,0 54.6088540833497,24.4631048113161,0 54.6089053855134,24.4631031757448,0 54.6089633354194,24.4631062894704,0 54.609039297914,24.4631144584071,0 54.6091233637191,24.4631331136004,0 54.6092075703099,24.4631674666882,0 54.6092895433764,24.4632140151037,0 54.6093363546148,24.463248237286,0 54.6094011481196,24.4633034744751,0 54.6094431900665,24.4633513903388,0 54.6094968325261,24.4634313878712,0 54.6095327412263,24.463497575523,0 54.6095630830441,24.463577505889,0 54.6095827447703,24.4636503865836,0 54.6096014113593,24.4637775486387,0 54.6096031428624,24.4638652063652,0 54.6095923337722,24.4639624486588,0 54.6095689308354,24.4640656852837,0 54.6095379981048,24.4641488117893,0 54.6094814716481,24.4642478849474,0 54.6094256345992,24.4643177914443,0 54.6093697345992,24.4643780914443,0 54.609338485985,24.46440807518,0 54.6092856353448,24.464449607233,0 54.6092031719344,24.464503662345,0 54.6091347590371,24.4645426116347,0 54.6090550077816,24.4645762281157,0 54.6089442405391,24.4646085206043,0 54.6088325419546,24.4646271200762,0 54.6087289304966,24.4646375800464,0 54.6084432304966,24.4646564800464,0 54.6071202767464,24.4647399143235,0 54.6069895871344,24.4647539840164,0 54.6069070133078,24.4647603237004,0 54.6068463721913,24.4647683593491,0 54.6067710404828,24.4647861910321,0 54.6067307982786,24.4647972735352,0 54.6066876250336,24.4648147855744,0 54.6057732660519,24.4653485590216,0 54.6057323573591,24.4653789760454,0 54.6057016281785,24.4654091873185,0 54.6056600268514,24.4654602766676,0 54.6056258662371,24.4655142981041,0 54.6055903197597,24.465604538517,0 54.6053639978327,24.4665221403624,0 54.605362481024,24.4665332320262,0 54.6053633226436,24.4665372507601,0 54.6053676401299,24.4665469137057,0 54.6053739697229,24.4665506199753,0 54.6054108935304,24.466559073374,0 54.6062239720577,24.4666615966086,0 54.6062696672457,24.4666739230544,0 54.6063252425735,24.466691438756,0 54.6063778373636,24.4667200921265,0 54.6064283600082,24.4667596854117,0 54.606464787985,24.4668027191891,0 54.6065084128728,24.4668670452751,0 54.6065274323008,24.4669050517115,0 54.6065397652504,24.4669449681608,0 54.606548399977,24.4670054496644,0 54.6065486249837,24.4673361716144,0 54.6065308766637,24.4676573812739,0 54.6065223140868,24.4676978690544,0 54.6065058908346,24.4677454139465,0 54.606488666411,24.4677829238256,0 54.6064593662905,24.4678318486095,0 54.6064373333809,24.4678605522024,0 54.606421270515,24.4678781108596,0 54.6063908384515,24.4679010164373,0 54.6063429333803,24.467923321711,0 54.6062897071359,24.4679433558702,0 54.6062513193741,24.4679543327133,0 54.6062064897627,24.467964701799,0 54.6061303677672,24.4679759471518,0 54.6060404678174,24.4679845352596,0 54.6059372582986,24.4679894988329,0 54.6057628629965,24.4679895989675,0 54.6055934719018,24.4679769229731,0 54.6040758676395,24.4677757345197,0 54.6039894724451,24.4677693918247,0 54.603870254456,24.4677689083778,0 54.6037988725672,24.4677742782216,0 54.6036867850696,24.4677974949868,0 54.6036097794742,24.4678202226657,0 54.6035171905297,24.4678518430209,0 54.6034743339397,24.4678745318039,0 54.603426382242,24.467917663825,0 54.6029882631354,24.4686145724175,0 54.602733120844,24.4690004989143,0 54.6027186337497,24.4690290568071,0 54.6026997580842,24.469080716523,0 54.6026823159036,24.4691475782156,0 54.6026637276297,24.469247668921,0 54.6026581909731,24.4693226047041,0 54.6026560294549,24.4693818264842,0 54.6026578314767,24.4694048432162,0 54.6026618891674,24.4694282594734,0 54.6026683756089,24.4694552161132,0 54.6026792524467,24.4694841103083,0 54.6026872273701,24.4694999925709,0 54.6027033489616,24.4695203753761,0 54.6027212108256,24.46953607428,0 54.6027383702315,24.4695460839335,0 54.6027659462261,24.46955562947,0</coordinates></LineString>
  </Placemark>
</Folder>
</Document></kml>
