<?xml version="1.0" encoding="utf-8" ?>
<kml xmlns="http://www.opengis.net/kml/2.2">
<Document id="root_doc">
<Schema name="yas_marina_bound" id="yas_marina_bound">
	<SimpleField name="bridge" type="string"></SimpleField>
	<SimpleField name="covered" type="string"></SimpleField>
	<SimpleField name="highway" type="string"></SimpleField>
	<SimpleField name="layer" type="string"></SimpleField>
	<SimpleField name="name_en" type="string"></SimpleField>
	<SimpleField name="name_fr" type="string"></SimpleField>
	<SimpleField name="oneway" type="string"></SimpleField>
	<SimpleField name="sport" type="string"></SimpleField>
	<SimpleField name="surface" type="string"></SimpleField>
</Schema>
<Folder><name>yas_marina_bound</name>
  <Placemark id="yas_marina_bound.1">
	<name>Yas Marina Circuit</name>
	<Style><LineStyle><color>ff0000ff</color></LineStyle><PolyStyle><fill>0</fill></PolyStyle></Style>
	<ExtendedData><SchemaData schemaUrl="#yas_marina_bound">
		<SimpleData name="highway">raceway</SimpleData>
		<SimpleData name="name_en">Yas Marina Circuit</SimpleData>
		<SimpleData name="name_fr">Circuit Yas Marina</SimpleData>
		<SimpleData name="oneway">yes</SimpleData>
		<SimpleData name="sport">motor</SimpleData>
		<SimpleData name="surface">asphalt</SimpleData>
	</SchemaData></ExtendedData>
      <LineString><coordinates>54.6028279457838,24.4696795165735,0 54.6052254323558,24.4699942440043,0 54.6078223494387,24.4703307445294,0 54.6078606882014,24.4703401991111,0 54.6078921720073,24.4703516259747,0 54.6079242539435,24.4703711746729,0 54.6079610519302,24.4704030662614,0 54.6079931514154,24.4704410418819,0 54.6080269353501,24.470490046183,0 54.6080452662063,24.4705326028402,0 54.6080520227092,24.4705653757625,0 54.6080540618206,24.470600693172,0 54.6080508691473,24.4706373248974,0 54.6080375935882,24.4707040766525,0 54.6077313364653,24.47185930608,0 54.6076447800311,24.4722014099698,0 54.6076285675431,24.4722729604934,0 54.6076074999809,24.4723358810253,0 54.607591476312,24.4723765775026,0 54.6075714959818,24.4724150077547,0 54.6075519045142,24.4724406709581,0 54.6075252885442,24.4724689504263,0 54.6074661426532,24.4725206339853,0 54.6074000727354,24.4725631659268,0 54.6073276216536,24.4725965627731,0 54.6066377559024,24.4727979837272,0 54.6065302216795,24.472834652605,0 54.6064370955889,24.4728747709018,0 54.6063666723378,24.4729116845843,0 54.6062935550824,24.4729540625974,0 54.6062225886181,24.4730008850083,0 54.6061509884858,24.4730540008053,0 54.6060750512874,24.4731183054313,0 54.6060277344962,24.4731627845455,0 54.6059697719079,24.4732214703149,0 54.6059126719079,24.4732879703149,0 54.6058566566026,24.4733575116933,0 54.6057651402207,24.473475995492,0 54.6057592734461,24.4734870790067,0 54.6057257981477,24.4735729848232,0 54.6057042732819,24.4736551988478,0 54.6056801490822,24.4737820477387,0 54.6056705483639,24.4738838939872,0 54.6056719019286,24.4740039550835,0 54.6056905369231,24.4741257460093,0 54.605713906709,24.4742348811942,0 54.6058690535595,24.4747311066053,0 54.6059395472655,24.4749879645598,0 54.6059719819736,24.4751485702594,0 54.6059953435783,24.4753108254388,0 54.6060094739643,24.4754739278357,0 54.6060145778638,24.4756374489242,0 54.6060103579092,24.4758010457695,0 54.6059970100256,24.4759641647583,0 54.605902970563,24.4766692208286,0 54.6058168819749,24.4773600185973,0 54.6057867014216,24.4775717902127,0 54.6056960524542,24.4782385083871,0 54.6056718405451,24.4783420024296,0 54.6056470864135,24.4784118540883,0 54.6056327816018,24.4784363766227,0 54.6056115439245,24.4784660581959,0 54.6055841765884,24.4784950454054,0 54.6055520890369,24.478522038276,0 54.6055108781945,24.4785522831432,0 54.6054793538048,24.4785677755695,0 54.6054197992112,24.4785832615336,0 54.6053893962257,24.4785883712791,0 54.6053475975299,24.4785908501383,0 54.6053153379805,24.4785878809758,0 54.6052836307951,24.4785804496042,0 54.6052510752043,24.4785688816278,0 54.6052213935779,24.4785528992136,0 54.6051960823597,24.4785348893083,0 54.6051692027701,24.4785095264354,0 54.6051395827366,24.4784744818027,0 54.6051170821835,24.4784374169381,0 54.6050857137113,24.4783757936673,0 54.6049484294204,24.4780007080778,0 54.6049296947423,24.4779401583706,0 54.6047720216395,24.477368281322,0 54.6046345142829,24.4769703748046,0 54.6042683605658,24.4759591555998,0 54.6035448982963,24.4740080887214,0 54.6028844696928,24.4722431163537,0 54.6027827813261,24.4719485610067,0 54.6026614744342,24.4716097383089,0 54.6025929744012,24.4713807099375,0 54.6025031524009,24.4710687808109,0 54.6024046552911,24.4707560126788,0 54.6015981422308,24.4685502648951,0 54.60159391386,24.4685348221496,0 54.6015940712235,24.4685245935262,0 54.6015972183732,24.4685145065079,0 54.6016035938877,24.4685047685645,0 54.6016133483135,24.4684961139024,0 54.6016260888872,24.4684895381224,0 54.6016406942956,24.4684860455247,0 54.6016586033355,24.4684861712022,0 54.6020964358558,24.4685518906862,0 54.6021336507605,24.4685535899618,0 54.6021709627221,24.4685487761883,0 54.6022065336018,24.4685377379486,0 54.6022415306333,24.4685194145889,0 54.6022665926927,24.4684991006227,0 54.6022769553434,24.4684863726912,0 54.6022909349068,24.4684625835714,0 54.6022949221591,24.4684528971364,0 54.6024288394682,24.4679999060402,0 54.6024655181416,24.4678588263256,0 54.6025647091766,24.4675535397799,0 54.6026617872643,24.4672351315288,0 54.6027143608003,24.4671354005581,0 54.6027843961493,24.4670298598233,0 54.6029204233878,24.4668314991153,0 54.6030824154916,24.4666365611219,0 54.6033039246189,24.4664264770986,0 54.6034705282446,24.4662839559875,0 54.6037413863075,24.4660763973547,0 54.6044390404358,24.465589259559,0 54.6053603406794,24.4649226658578,0 54.6057336253702,24.4646700499347,0 54.6060021631309,24.4644845106281,0 54.6061665517813,24.4643823739109,0 54.6065646619465,24.4641483846613,0 54.6067920822178,24.4640310701661,0 54.6071292546858,24.4638830916751,0 54.6086868311812,24.4632540320061,0 54.6087375222903,24.4632381910345,0 54.6087925976099,24.4632245612837,0 54.6088637234997,24.4632144665936,0 54.6089020018454,24.4632131496781,0 54.6089534368532,24.4632158518796,0 54.6090189062515,24.4632225955086,0 54.6090894517285,24.4632379511182,0 54.6091567316467,24.4632650786686,0 54.6092274429138,24.4633048652954,0 54.609266804159,24.4633334834485,0 54.6093230899769,24.4633811738952,0 54.6093552420175,24.4634176474466,0 54.6094027182047,24.4634884419968,0 54.6094322482589,24.4635425955731,0 54.609457641731,24.4636089669586,0 54.6094749598577,24.463672833278,0 54.6094916796934,24.4637866604079,0 54.6094931393034,24.4638601882594,0 54.6094837807873,24.4639441369283,0 54.6094630909412,24.4640352840881,0 54.6094365864763,24.4641059626613,0 54.6093912084586,24.4641847578912,0 54.6093435717213,24.4642445119345,0 54.6092902034327,24.4643020809471,0 54.6092644990201,24.4643266291058,0 54.6092215378261,24.4643601553254,0 54.6091471463975,24.4644089836762,0 54.6090859970567,24.464443899483,0 54.6090181616906,24.4644724859314,0 54.6089197379176,24.4645011850239,0 54.6088197005282,24.4645178579221,0 54.6087207123794,24.4645278832705,0 54.607112138222,24.4646302090527,0 54.6069786587965,24.464644524913,0 54.6068971071399,24.4646507600518,0 54.6068291750212,24.4646596766134,0 54.6067447311016,24.4646793789853,0 54.6066954317955,24.4646930151217,0 54.6066355716932,24.4647178011473,0 54.6057151716932,24.4652551011473,0 54.6056579410368,24.465297880026,0 54.6056202339743,24.4653350692782,0 54.6055726510277,24.4653933715511,0 54.6055301143617,24.4654599046699,0 54.6054850386596,24.4655722680664,0 54.6052565002748,24.4664986292236,0 54.6052517032148,24.4665357946579,0 54.605257546849,24.4665684330299,0 54.6052737827275,24.4666056675845,0 54.6052947925915,24.466630035034,0 54.6053074456858,24.4666400577447,0 54.6053323799339,24.4666528331488,0 54.6053427257718,24.4666563129026,0 54.6053944350173,24.4666678698819,0 54.6062014462828,24.4667693932528,0 54.6062842170894,24.466793777512,0 54.6063202687542,24.4668139311152,0 54.6063514464854,24.4668387134145,0 54.6063771597709,24.4668693205188,0 54.6064120131751,24.4669201483999,0 54.6064251427729,24.4669459358734,0 54.6064317167616,24.4669660819679,0 54.6064384038346,24.4670097151192,0 54.606438698685,24.4673318883638,0 54.6064214147341,24.4676456748652,0 54.6064157830858,24.4676702843966,0 54.6064038558996,24.4677041645198,0 54.6063912605056,24.4677316376946,0 54.606368356482,24.4677698988222,0 54.606345481298,24.4677980772115,0 54.6063346125925,24.4678061321913,0 54.6063013482268,24.4678214721494,0 54.6062573147668,24.4678382132472,0 54.6061880271954,24.4678562376983,0 54.6061184167706,24.4678665890439,0 54.6060338299783,24.4678747279792,0 54.6059353862742,24.4678795086943,0 54.6057654299614,24.4678796126315,0 54.6056063774588,24.467867671459,0 54.6040887280982,24.4676664770269,0 54.6039918230314,24.4676594004522,0 54.6038685230314,24.4676589004522,0 54.603783543426,24.4676652355449,0 54.6036600263863,24.4676907507127,0 54.6035753247631,24.4677157515519,0 54.6034775247631,24.4677491515519,0 54.6034168661754,24.4677804916646,0 54.6034058184874,24.467788208432,0 54.6033471184874,24.467841008432,0 54.6033373368646,24.4678526275825,0 54.6028954728394,24.4685554931532,0 54.602639620992,24.4689424665758,0 54.6026176558964,24.4689851821439,0 54.6025947013613,24.4690479020448,0 54.6025745246195,24.4691255574293,0 54.6025550246195,24.4692305574293,0 54.6025484495119,24.4693150473525,0 54.6025460051597,24.469382846646,0 54.6025483677932,24.469415992913,0 54.6025545262919,24.469452267111,0 54.6025642262505,24.4694907766126,0 54.6025784174894,24.4695282590714,0 54.6025957802388,24.4695615777195,0 54.6026245716982,24.4695974527674,0 54.6026567394444,24.4696255172463,0 54.6026923391467,24.4696462779873,0 54.6027362209073,24.469661676867,0</coordinates></LineString>
  </Placemark>
</Folder>
</Document></kml>
