<?xml version="1.0" encoding="utf-8" ?>
<kml xmlns="http://www.opengis.net/kml/2.2">
<Document id="root_doc">
<Schema name="las_vegas_circuit_boundaries" id="las_vegas_circuit_boundaries">
	<SimpleField name="FID" type="string"></SimpleField>
</Schema>
<Folder><name>las_vegas_circuit_boundaries</name>
  <Placemark id="las_vegas_circuit_boundaries.1">
	<Style><LineStyle><color>ff0000ff</color></LineStyle><PolyStyle><fill>0</fill></PolyStyle></Style>
	<ExtendedData><SchemaData schemaUrl="#las_vegas_circuit_boundaries">
		<SimpleData name="FID">0</SimpleData>
	</SchemaData></ExtendedData>
      <LineString><coordinates>-115.16289039649,36.1082649556981,0 -115.16288783352,36.1082665156591,0 -115.16288535943,36.1082682130631,0 -115.162882981585,36.1082700428588,0 -115.162880707062,36.1082719996007,0 -115.160488607062,36.1104461996007,0 -115.160486618794,36.1104480996704,0 -115.160484727992,36.1104500967533,0 -115.160482939383,36.1104521858562,0 -115.16048125744,36.1104543617556,0 -115.160479686367,36.1104566190111,0 -115.160478230093,36.1104589519788,0 -115.160476892259,36.1104613548255,0 -115.160392192259,36.1106228548255,0 -115.160390892061,36.1106255044539,0 -115.16038973587,36.1106282200142,0 -115.160388727016,36.1106309936866,0 -115.160387868404,36.1106338174836,0 -115.160387162505,36.1106366832737,0 -115.160386611354,36.1106395828042,0 -115.160386216537,36.1106425077255,0 -115.160385979191,36.1106454496147,0 -115.1603859,36.1106484,0 -115.1603859,36.1108127,0 -115.160385980904,36.1108156820873,0 -115.160386223376,36.1108186554015,0 -115.160386626705,36.1108216111952,0 -115.160387189702,36.1108245407726,0 -115.160387910712,36.1108274355151,0 -115.160388787615,36.1108302869065,0 -115.160389817828,36.1108330865582,0 -115.160390998323,36.1108358262336,0 -115.160392325627,36.1108384978729,0 -115.160447825627,36.110942997873,0 -115.160449304941,36.1109456087205,0 -115.160450924449,36.1109481350003,0 -115.16045267933,36.110950569192,0 -115.160454564359,36.1109529040495,0 -115.160456573926,36.1109551326222,0 -115.160458702048,36.1109572482762,0 -115.160460942391,36.1109592447135,0 -115.160602642391,36.1110787447135,0 -115.160605049541,36.1110806621105,0 -115.160607560167,36.1110824418692,0 -115.160610166408,36.1110840784176,0 -115.160612860105,36.1110855666318,0 -115.160615632824,36.1110869018525,0 -115.160618475884,36.1110880798994,0 -115.160621380384,36.1110890970842,0 -115.160855480384,36.1111637970842,0 -115.160858198756,36.111164588017,0 -115.160860954226,36.1111652380215,0 -115.160863739493,36.1111657453753,0 -115.160866547177,36.1111661087341,0 -115.160869369839,36.1111663271353,0 -115.1608722,36.1111664,0 -115.1610263,36.1111664,0 -115.161029883357,36.1111662831445,0 -115.161033451487,36.1111659330747,0 -115.161261451487,36.1111360330747,0 -115.161264412727,36.1111355623043,0 -115.161267343912,36.1111349308558,0 -115.161270236329,36.111134140606,0 -115.16146743633,36.111074440606,0 -115.161470131102,36.1110735482563,0 -115.161472776245,36.1110725180579,0 -115.161475364712,36.1110713527552,0 -115.161477889606,36.1110700554523,0 -115.162278989606,36.1106319554523,0 -115.162282006532,36.1106301785531,0 -115.162284904283,36.1106282132936,0 -115.162648404283,36.1103644132936,0 -115.162649291288,36.1103637558819,0 -115.163032034248,36.110074085914,0 -115.163276474089,36.1099706617929,0 -115.163497343575,36.1099518944881,0 -115.163663588822,36.1099657560112,0 -115.163772834148,36.1100077994212,0 -115.16387739066,36.1101284070618,0 -115.16399097732,36.1103156690758,0 -115.163999503061,36.1110537825984,0 -115.164004002547,36.1115207293467,0 -115.164007502542,36.1118847288217,0 -115.164007515335,36.1118854987021,0 -115.164028215335,36.1127618987021,0 -115.164028217179,36.1127619745706,0 -115.164028717179,36.1127819745706,0 -115.164028765777,36.1127832890878,0 -115.164047665777,36.1131693890878,0 -115.164057963267,36.1133788380487,0 -115.164058560325,36.1133915752972,0 -115.164058624789,36.1133927028627,0 -115.164076924789,36.1136639028627,0 -115.164076930652,36.1136639887589,0 -115.164087981468,36.1138240282532,0 -115.164083002624,36.1143336627064,0 -115.164082020164,36.1144379996676,0 -115.164072166564,36.1145643228209,0 -115.164072109631,36.1145651290643,0 -115.164065109631,36.1146758290643,0 -115.16406510217,36.1146759491456,0 -115.16404840217,36.1149495491456,0 -115.164048300017,36.1149529431305,0 -115.164048800013,36.1155905382289,0 -115.16404890001,36.1157556326362,0 -115.16404920001,36.1162616326087,0 -115.16404920515,36.1162623526281,0 -115.164056305114,36.1167811500378,0 -115.164062005079,36.1172005474274,0 -115.164062006265,36.1172006300941,0 -115.164063605315,36.1173065672071,0 -115.16407090451,36.1178765043282,0 -115.164070906494,36.1178766451871,0 -115.164075406332,36.1181694345899,0 -115.164080706101,36.1185231191832,0 -115.164083301344,36.118698397906,0 -115.1640834003,36.1187283815172,0 -115.164083412349,36.1187293654415,0 -115.164084506987,36.118781012453,0 -115.164087873449,36.119061775388,0 -115.164058507332,36.1191355614651,0 -115.16404095049,36.1191475579106,0 -115.163991254414,36.1191587602032,0 -115.163583113112,36.1191561080215,0 -115.16282716779,36.1191221553914,0 -115.162825367662,36.1191221040526,0 -115.162314669194,36.1191159040712,0 -115.161953770496,36.1191115040871,0 -115.161951000402,36.1191115400902,0 -115.161948235635,36.1191117155318,0 -115.161945483209,36.119112029967,0 -115.161942750108,36.1191124825978,0 -115.161940043265,36.1191130722761,0 -115.161937369549,36.1191137975056,0 -115.161934735742,36.1191146564465,0 -115.16168507271,36.1192030932127,0 -115.161282979908,36.1193042623854,0 -115.161280084056,36.1193050758153,0 -115.161277237005,36.1193060463425,0 -115.160870737005,36.1194571463425,0 -115.160868163548,36.1194581774639,0 -115.160865645319,36.1194593369526,0 -115.160863188716,36.1194606218624,0 -115.160860799981,36.1194620289287,0 -115.160858485183,36.1194635545764,0 -115.160457685183,36.1197424545764,0 -115.160454898486,36.1197445273125,0 -115.160452248164,36.1197467717971,0 -115.160061048164,36.1200998717971,0 -115.160058966946,36.1201018513539,0 -115.160056991911,36.1201039368629,0 -115.160055128445,36.1201061226363,0 -115.16005338163,36.120108402713,0 -115.160051756231,36.1201107708743,0 -115.16005025668,36.1201132206616,0 -115.160048887067,36.1201157453936,0 -115.160047651127,36.1201183381845,0 -115.159953351127,36.1203302381845,0 -115.159952908818,36.1203312598005,0 -115.159887908818,36.1204856598005,0 -115.159886791182,36.1204885379736,0 -115.159885836817,36.1204914743279,0 -115.159808536817,36.1207541743279,0 -115.159807832237,36.120756808207,0 -115.159807259051,36.120759473767,0 -115.159806818667,36.1207621644573,0 -115.159806512168,36.1207648736657,0 -115.159790312168,36.1209487736657,0 -115.159790133274,36.1209516871487,0 -115.159790109201,36.1209546060195,0 -115.159790240019,36.1209575220566,0 -115.159790525359,36.1209604270467,0 -115.159790964417,36.1209633128074,0 -115.159791555956,36.1209661712104,0 -115.159807755956,36.1210351712104,0 -115.159808496401,36.1210379876542,0 -115.159809384881,36.1210407609585,0 -115.159810418906,36.1210434833484,0 -115.159811595576,36.1210461471917,0 -115.159812911593,36.1210487450203,0 -115.159814363268,36.121051269551,0 -115.15981594653,36.1210537137064,0 -115.15981765694,36.1210560706342,0 -115.159819489705,36.1210583337269,0 -115.159821439685,36.1210604966397,0 -115.159823501414,36.1210625533089,0 -115.159825669111,36.1210644979687,0 -115.1598279367,36.1210663251672,0 -115.159830297824,36.1210680297818,0 -115.159883197824,36.1211041297818,0 -115.159885721494,36.1211057528926,0 -115.159888329926,36.1211072359584,0 -115.159891015355,36.1211085745652,0 -115.15989376979,36.1211097647288,0 -115.159896585032,36.1211108029069,0 -115.159899452702,36.1211116860095,0 -115.159902364265,36.1211124114082,0 -115.159991764265,36.1211321114082,0 -115.159994843513,36.1211326984708,0 -115.159997951206,36.1211331091503,0 -115.160001077248,36.1211333421125,0 -115.160004211485,36.1211333966007,0 -115.160289546331,36.1211302240771,0 -115.160353976968,36.1211574599784,0 -115.160393578465,36.1211986622388,0 -115.160411538664,36.1212614493285,0 -115.160404726477,36.1213553902201,0 -115.160155487109,36.1220112624814,0 -115.160154470488,36.1220141823504,0 -115.160153619547,36.1220171547321,0 -115.160152936975,36.1220201702335,0 -115.160152424929,36.1220232193254,0 -115.160152085027,36.1220262923728,0 -115.160143985027,36.1221247923728,0 -115.16014382656,36.1221275909533,0 -115.160143810881,36.122130393973,0 -115.160143938032,36.1221331941512,0 -115.160144207681,36.1221359842147,0 -115.160144619129,36.1221387569165,0 -115.160145171308,36.1221415050549,0 -115.160145862782,36.1221442214917,0 -115.160146691755,36.1221468991713,0 -115.160147656075,36.1221495311386,0 -115.160188756075,36.1222534311386,0 -115.160189888327,36.1222560873887,0 -115.160191158423,36.1222586805554,0 -115.160192562864,36.1222612034914,0 -115.160194097777,36.1222636492426,0 -115.160195758933,36.1222660110682,0 -115.160197541753,36.1222682824582,0 -115.160199441322,36.1222704571521,0 -115.160201452406,36.122272529156,0 -115.160203569461,36.1222744927589,0 -115.160250169461,36.1223154927589,0 -115.160252258953,36.1223172412674,0 -115.160254432471,36.1223188841539,0 -115.160256684683,36.1223204173869,0 -115.160320084683,36.1223613173869,0 -115.160322652237,36.1223628761383,0 -115.160325301057,36.1223642923977,0 -115.160328023243,36.1223655619412,0 -115.160330810677,36.1223666809824,0 -115.160333655044,36.1223676461836,0 -115.160501855044,36.1224196461836,0 -115.160504823435,36.1224204735217,0 -115.160507833502,36.122421133314,0 -115.160510875797,36.1224216234894,0 -115.16051394077,36.1224219425091,0 -115.160517018799,36.1224220893717,0 -115.161132413351,36.1224341892646,0 -115.161620479161,36.1224438826273,0 -115.16228945055,36.1224651721695,0 -115.162984857224,36.1224871723817,0 -115.163611253595,36.1225070722664,0 -115.16403955444,36.1225206722932,0 -115.164039790585,36.122520679284,0 -115.16415962807,36.1225239693314,0 -115.164782492568,36.1225492930634,0 -115.165217211397,36.1226306376585,0 -115.165459625485,36.1227293635222,0 -115.165737486831,36.1229254952062,0 -115.165959352547,36.1231119910254,0 -115.166053703542,36.1232287527348,0 -115.166214237067,36.1235000935477,0 -115.166527662663,36.124179149129,0 -115.166528110224,36.1241800950429,0 -115.166529515146,36.124182992694,0 -115.166612766902,36.1243620587463,0 -115.16666930783,36.1244853299579,0 -115.166670783545,36.1244883066325,0 -115.166672436298,36.1244911887729,0 -115.166826136298,36.1247413887729,0 -115.166827657825,36.1247437301646,0 -115.166829296224,36.124745991316,0 -115.166831047273,36.1247481663989,0 -115.166832906459,36.1247502498067,0 -115.166834868988,36.1247522361695,0 -115.166836929803,36.1247541203671,0 -115.166839083591,36.1247558975429,0 -115.166959083591,36.1248498975429,0 -115.166960363551,36.1248508703311,0 -115.167161663551,36.1249992703311,0 -115.167370770442,36.1251533754099,0 -115.167373499999,36.1251552626464,0 -115.167376338403,36.1251569818334,0 -115.167579638403,36.1252718818334,0 -115.167582359328,36.1252733207024,0 -115.167585156483,36.1252746051074,0 -115.16758802111,36.125275731026,0 -115.167590944235,36.1252766949321,0 -115.167860844235,36.1253573949321,0 -115.167861030113,36.1253574501527,0 -115.167962330113,36.1253873501527,0 -115.167964657348,36.1253879819462,0 -115.167967010041,36.1253885111194,0 -115.168337310041,36.1254633111194,0 -115.168340009401,36.1254637867088,0 -115.168723174464,36.1255214910877,0 -115.169142354176,36.1255946653504,0 -115.169351366472,36.1256318497474,0 -115.169354258106,36.1256322852257,0 -115.169357168797,36.1256325664003,0 -115.169360090319,36.1256326924766,0 -115.169363014412,36.125632663098,0 -115.169365932811,36.1256324783477,0 -115.169368837265,36.1256321387479,0 -115.169371719565,36.1256316452586,0 -115.169374571563,36.1256309992747,0 -115.169377385195,36.1256302026225,0 -115.16938015251,36.1256292575539,0 -115.169382865683,36.1256281667405,0 -115.169385517046,36.1256269332657,0 -115.169388099103,36.1256255606165,0 -115.169390604555,36.1256240526731,0 -115.16939302632,36.1256224136983,0 -115.169395357552,36.125620648325,0 -115.16939759166,36.1256187615438,0 -115.16939972233,36.1256167586883,0 -115.169401743538,36.1256146454202,0 -115.169403649571,36.1256124277134,0 -115.16940543504,36.125610111837,0 -115.169407094899,36.1256077043376,0 -115.169509094899,36.1254510043376,0 -115.169509777695,36.1254499283116,0 -115.169659981835,36.1252070450218,0 -115.169715481705,36.12511995905,0 -115.170221374243,36.1243258846934,0 -115.170472951072,36.1239432241477,0 -115.170803944628,36.1234402339402,0 -115.170804158908,36.1234399057716,0 -115.170872469422,36.1233344699786,0 -115.170999431623,36.1231570012791,0 -115.171316958742,36.122712363339,0 -115.171317126024,36.1227121277854,0 -115.17136588138,36.1226430910011,0 -115.171535136559,36.122404854089,0 -115.171639859833,36.1222572213042,0 -115.171641845809,36.1222542178796,0 -115.171684845809,36.1221843178796,0 -115.171686451006,36.1221815288303,0 -115.172062451006,36.1214816288303,0 -115.172063984517,36.1214785466359,0 -115.172065322194,36.1214753745394,0 -115.172341622194,36.1207582745394,0 -115.172342077828,36.120757048762,0 -115.172379456642,36.1206527079016,0 -115.172573735322,36.1201142669881,0 -115.172574369915,36.1201124045226,0 -115.172641337032,36.1199037070003,0 -115.172653303748,36.1198669093489,0 -115.172653457698,36.1198664284581,0 -115.172686257698,36.1197623284581,0 -115.172686710999,36.1197608141986,0 -115.172724110999,36.1196290141986,0 -115.172724579723,36.1196272516096,0 -115.172752977572,36.119512860273,0 -115.17282377543,36.119228068892,0 -115.172824325581,36.1192256181206,0 -115.172883325581,36.1189315181206,0 -115.172883856735,36.118928411292,0 -115.172962956735,36.118369811292,0 -115.172992357655,36.1181620047886,0 -115.172992771556,36.1181580566385,0 -115.172998871556,36.1180689566385,0 -115.172998877833,36.1180688638033,0 -115.173035851945,36.1175150515611,0 -115.173037820581,36.1174907389134,0 -115.173037903805,36.1174895514944,0 -115.173044903805,36.1173713514944,0 -115.173045,36.1173681,0 -115.173045,36.1172671,0 -115.173044997895,36.1172666188609,0 -115.17304239815,36.1169694479557,0 -115.173034498465,36.1159421889639,0 -115.173026,36.1147712004215,0 -115.173026,36.114606134438,0 -115.173060202944,36.114031165992,0 -115.173060249838,36.1140302484695,0 -115.173103449838,36.1130194484695,0 -115.173121149044,36.1125975677903,0 -115.173139346285,36.112186130188,0 -115.173139349085,36.112186066017,0 -115.173150045517,36.1119376488774,0 -115.1731654417,36.1116035317241,0 -115.1731654605,36.1116030840926,0 -115.1731689605,36.1115107840926,0 -115.173168984716,36.1115099965314,0 -115.173171175943,36.1114170685813,0 -115.173178949577,36.1112076787929,0 -115.17318213203,36.11114333356,0 -115.173185931198,36.1110674501786,0 -115.173185978435,36.1110662400122,0 -115.173188978435,36.1109591400122,0 -115.173188994933,36.1109583465376,0 -115.173190794933,36.1108257465376,0 -115.173190796987,36.110825575734,0 -115.173194796987,36.110443475734,0 -115.17319479895,36.1104432399193,0 -115.17319529445,36.1103630679092,0 -115.173196570684,36.1103239955248,0 -115.173196598149,36.1103226512154,0 -115.173200198149,36.1098838512154,0 -115.173200199766,36.1098832394348,0 -115.173198899766,36.1094379394348,0 -115.173198896798,36.1094375065094,0 -115.173195897853,36.1091596043047,0 -115.173194998561,36.1090353021004,0 -115.173194922504,36.1090327813355,0 -115.173194730972,36.1090302667071,0 -115.173167430972,36.1087552667071,0 -115.173167070165,36.108752400293,0 -115.173166559341,36.1087495567792,0 -115.17316589991,36.1087467440116,0 -115.17316509369,36.108743969751,0 -115.173164142907,36.1087412416521,0 -115.173163050184,36.1087385672423,0 -115.173161818536,36.1087359539007,0 -115.173160451361,36.1087334088379,0 -115.173158952432,36.1087309390763,0 -115.173157325883,36.1087285514304,0 -115.173155576205,36.1087262524881,0 -115.173153708223,36.1087240485926,0 -115.173151727092,36.1087219458248,0 -115.173123361261,36.1086933802348,0 -115.173095095378,36.1086648147133,0 -115.173093119434,36.1086629149334,0 -115.173091051292,36.1086611159591,0 -115.17308889609,36.1086594222586,0 -115.17308665918,36.1086578380387,0 -115.173084346118,36.1086563672344,0 -115.17308196265,36.1086550134988,0 -115.173079514696,36.1086537801944,0 -115.173077008336,36.1086526703844,0 -115.173074449795,36.1086516868254,0 -115.172906002519,36.1085917055997,0 -115.172738355209,36.1085316244825,0 -115.17273740306,36.1085312930689,0 -115.172635117007,36.1084967382116,0 -115.172538479022,36.1084204314059,0 -115.172494070812,36.1083486605603,0 -115.172493554304,36.1083478419863,0 -115.172401554304,36.1082048419863,0 -115.172400021263,36.1082025842442,0 -115.172398378118,36.1082004053256,0 -115.172396628913,36.1081983105949,0 -115.172394777956,36.1081963052096,0 -115.172392829803,36.1081943941067,0 -115.172390789252,36.1081925819917,0 -115.172388661324,36.1081908733258,0 -115.172324961324,36.1081422733258,0 -115.172322681213,36.1081406242552,0 -115.172320319742,36.1081390939616,0 -115.172317883093,36.1081376864509,0 -115.172315377645,36.1081364054074,0 -115.172312809955,36.1081352541844,0 -115.172310186746,36.1081342357954,0 -115.172307514883,36.1081333529062,0 -115.172304801361,36.1081326078277,0 -115.172177401361,36.1081011078277,0 -115.172174412454,36.1081004564454,0 -115.172171391953,36.1080999722474,0 -115.172168349205,36.1080996567315,0 -115.171870949205,36.1080771567315,0 -115.171869116361,36.1080770487992,0 -115.171560716361,36.1080640487992,0 -115.171558334586,36.1080640000389,0 -115.171137934586,36.1080645000389,0 -115.170097738736,36.1080659000326,0 -115.169985987813,36.1080659985784,0 -115.169834221318,36.1080570944164,0 -115.169831370019,36.1080570012447,0 -115.168806354604,36.1080501051776,0 -115.168703338972,36.1080472215355,0 -115.16870154867,36.1080472005742,0 -115.168570268731,36.1080478004826,0 -115.16844017156,36.1080483000877,0 -115.167839956818,36.1080487984394,0 -115.167603654863,36.1080326283224,0 -115.167599853192,36.1080325000199,0 -115.166894876602,36.1080331,0 -115.1668329,36.1080331,0 -115.166832789169,36.1080331001117,0 -115.166237289169,36.1080343001117,0 -115.166041887411,36.1080347001152,0 -115.16590162554,36.1080349991809,0 -115.165766068307,36.1080331053666,0 -115.16576511617,36.1080331003072,0 -115.165286510724,36.1080346999912,0 -115.164244805279,36.1080346000003,0 -115.164026492574,36.1080346,0 -115.16395535912,36.1080341018666,0 -115.163893533093,36.1080335025836,0 -115.16389105336,36.1080335344599,0 -115.163888577585,36.1080336780861,0 -115.163886110801,36.10803393317,0 -115.163137610801,36.10812843317,0 -115.163134933566,36.1081288383591,0 -115.163132279518,36.108129374821,0 -115.163129655089,36.1081300412555,0 -115.16312706664,36.1081308360474,0 -115.163124520444,36.1081317572703,0 -115.163122022673,36.1081328026914,0 -115.163119579382,36.1081339697769,0 -115.16311719649,36.1081352556981,0</coordinates></LineString>
  </Placemark>
</Folder>
</Document></kml>
