<?xml version="1.0" encoding="utf-8" ?>
<kml xmlns="http://www.opengis.net/kml/2.2">
<Document id="root_doc">
<Schema name="las_vegas_circuit_boundaries" id="las_vegas_circuit_boundaries">
	<SimpleField name="FID" type="string"></SimpleField>
</Schema>
<Folder><name>las_vegas_circuit_boundaries</name>
  <Placemark id="las_vegas_circuit_boundaries.1">
	<Style><LineStyle><color>ff0000ff</color></LineStyle><PolyStyle><fill>0</fill></PolyStyle></Style>
	<ExtendedData><SchemaData schemaUrl="#las_vegas_circuit_boundaries">
		<SimpleData name="FID">0</SimpleData>
	</SchemaData></ExtendedData>
      <LineString><coordinates>-115.162950234066,36.1083574531062,0 -115.160569790357,36.1105210586041,0 -115.1604959,36.1106619475383,0 -115.1604959,36.1107990008294,0 -115.160539986583,36.1108820107017,0 -115.160665215609,36.1109876202188,0 -115.16088076242,36.1110564,0 -115.161022709014,36.1110564,0 -115.161242678531,36.1110275531204,0 -115.161430109871,36.1109708104681,0 -115.162223133761,36.1105371270754,0 -115.162583348915,36.1102757109606,0 -115.162971108712,36.1099822441181,0 -115.162973320163,36.1099806549815,0 -115.162975607562,36.1099791772548,0 -115.162977965302,36.1099778145604,0 -115.162980387602,36.1099765702391,0 -115.162982868524,36.1099754473415,0 -115.163241668524,36.1098659473415,0 -115.163244360399,36.1098648909356,0 -115.163247104077,36.1098639774721,0 -115.163249891974,36.1098632094762,0 -115.163252716382,36.1098625890708,0 -115.163255569494,36.109862117971,0 -115.163258443424,36.1098617974791,0 -115.163492643424,36.1098418974791,0 -115.163495717219,36.1098417227792,0 -115.163498795973,36.1098417203486,0 -115.16350187004,36.1098418901949,0 -115.16368057004,36.1098567901949,0 -115.1636836763,36.1098571383215,0 -115.163686757767,36.1098576623466,0 -115.163689804489,36.1098583605778,0 -115.163692806626,36.1098592307598,0 -115.163695754481,36.1098602700822,0 -115.163825154482,36.1099100700822,0 -115.163827913905,36.1099112190864,0 -115.163830606831,36.1099125163046,0 -115.163833225306,36.1099139579056,0 -115.163835761597,36.1099155396313,0 -115.163838208212,36.10991725681,0 -115.163840557925,36.1099191043699,0 -115.163842803795,36.1099210768539,0 -115.16384493919,36.1099231684363,0 -115.163846957802,36.1099253729392,0 -115.163963557802,36.1100598729391,0 -115.163965520321,36.1100622699286,0 -115.163967344768,36.1100647736119,0 -115.163969025355,36.1100673760461,0 -115.164092825355,36.1102714760461,0 -115.164094279955,36.1102740251283,0 -115.164095596508,36.1102766481739,0 -115.164096771266,36.1102793377138,0 -115.164097800883,36.1102820860895,0 -115.164098682427,36.110284885475,0 -115.16409941339,36.1102877278991,0 -115.164099991688,36.110290605268,0 -115.164100415675,36.1102935093883,0 -115.164100684144,36.1102964319907,0 -115.164100796331,36.1102993647529,0 -115.164109496331,36.1110525647529,0 -115.164109497447,36.111052670046,0 -115.164113997447,36.111519670046,0 -115.164117493756,36.1118832861939,0 -115.164138183769,36.1127592633571,0 -115.164138666382,36.1127785678804,0 -115.164157533935,36.1131640050425,0 -115.164167833648,36.1133734992049,0 -115.164167839675,36.1133736247028,0 -115.164168413232,36.1133858605893,0 -115.164186672313,36.1136564541919,0 -115.164197869348,36.1138186112411,0 -115.16419797593,36.1138207730076,0 -115.164197997376,36.1138229372936,0 -115.16419299747,36.1143347275845,0 -115.164191997562,36.1144409178678,0 -115.164191833436,36.1144446771791,0 -115.164181864865,36.1145724742664,0 -115.164174894165,36.1146827109029,0 -115.164158301315,36.1149545554392,0 -115.164158799983,36.1155904568695,0 -115.16415889999,36.1157555666869,0 -115.164159199777,36.1162612073657,0 -115.16416629485,36.1167796473719,0 -115.164171994359,36.1171990112388,0 -115.164173593735,36.1173049699059,0 -115.16417359549,36.1173050956718,0 -115.164180894588,36.1178750252453,0 -115.164185393506,36.1181677548129,0 -115.164190693826,36.1185214759478,0 -115.164193293972,36.1186970857385,0 -115.1641932997,36.1186977184828,0 -115.164193398077,36.1187275264664,0 -115.164194487651,36.1187789345585,0 -115.164194496047,36.118779440575,0 -115.164197996047,36.119071340575,0 -115.164197947171,36.1190744100617,0 -115.164197727112,36.1190774720401,0 -115.164197336555,36.1190805169709,0 -115.164196776717,36.1190835353677,0 -115.164196049342,36.119086517827,0 -115.164195156696,36.1190894550572,0 -115.164194101561,36.1190923379076,0 -115.164154501561,36.1191918379076,0 -115.164153332295,36.1191945600498,0 -115.164152018148,36.1191972152817,0 -115.164150562931,36.1191997958989,0 -115.164148970869,36.1192022944138,0 -115.164147246579,36.1192047035765,0 -115.164145395066,36.1192070163969,0 -115.164143421701,36.1192092261641,0 -115.16414133221,36.1192113264663,0 -115.164139132657,36.1192133112093,0 -115.164136829423,36.1192151746343,0 -115.164134429191,36.1192169113345,0 -115.164094329191,36.1192443113345,0 -115.164091834864,36.1192459187361,0 -115.164089257475,36.1192473892719,0 -115.164086604527,36.1192487186613,0 -115.164083883742,36.1192499030347,0 -115.164081103041,36.1192509389443,0 -115.164078270517,36.1192518233749,0 -115.164075394416,36.119252553752,0 -115.164009294416,36.119267453752,0 -115.164006215338,36.1192680560935,0 -115.164003106923,36.1192684818824,0 -115.163999979287,36.119268729733,0 -115.163996842607,36.1192687988388,0 -115.163581342607,36.1192660988388,0 -115.16357923221,36.1192660446086,0 -115.162823131854,36.1192320850153,0 -115.162313332338,36.1192258959474,0 -115.161962227696,36.1192216153699,0 -115.161719364258,36.1193076435535,0 -115.161716909723,36.1193084486536,0 -115.161714420092,36.1193091376146,0 -115.16131274038,36.119410202851,0 -115.160915594869,36.1195578256965,0 -115.160523369838,36.1198307587333,0 -115.160143407902,36.1201737151748,0 -115.160054075197,36.1203744532456,0 -115.159990490582,36.120525491163,0 -115.159915607701,36.1207799767107,0 -115.159900662916,36.120949627689,0 -115.15990995829,36.1209892190977,0 -115.159936419477,36.1210072767318,0 -115.160009285703,36.1210233333834,0 -115.160299788515,36.1210201033993,0 -115.160302613894,36.1210201445756,0 -115.160305433431,36.1210203308063,0 -115.160308239681,36.1210206615999,0 -115.160311025238,36.1210211360833,0 -115.160313782751,36.121021753004,0 -115.160316504939,36.1210225107337,0 -115.160319184619,36.1210234072724,0 -115.160321814717,36.1210244402537,0 -115.160407214717,36.1210605402537,0 -115.160409752513,36.1210616896261,0 -115.160412228852,36.1210629660309,0 -115.160414637381,36.1210643661932,0 -115.16041697192,36.1210658865204,0 -115.160419226478,36.1210675231117,0 -115.160421395272,36.1210692717681,0 -115.160423472736,36.1210711280027,0 -115.160425453541,36.1210730870531,0 -115.160482353541,36.1211322870531,0 -115.160484356753,36.121134487399,0 -115.160486238034,36.1211367928636,0 -115.160487991875,36.1211391966987,0 -115.160489613145,36.1211416918679,0 -115.160491097096,36.1211442710678,0 -115.160492439386,36.1211469267489,0 -115.160493636085,36.1211496511378,0 -115.16049468369,36.1211524362601,0 -115.160495579136,36.1211552739635,0 -115.160519979136,36.1212405739635,0 -115.160520670815,36.1212432433619,0 -115.160521227829,36.1212459440733,0 -115.16052164878,36.1212486693086,0 -115.160521932608,36.1212514122175,0 -115.160522078601,36.1212541659047,0 -115.160522086391,36.1212569234483,0 -115.160521955958,36.1212596779164,0 -115.160513855958,36.1213713779164,0 -115.160513598856,36.1213740306041,0 -115.160513213553,36.1213766677228,0 -115.160512700953,36.1213792830804,0 -115.160512062261,36.1213818705359,0 -115.160511298977,36.1213844240139,0 -115.160510412891,36.1213869375186,0 -115.160261077201,36.1220430632486,0 -115.160254667392,36.122121009695,0 -115.160286172782,36.1222006547085,0 -115.16031975625,36.1222302023946,0 -115.160373364933,36.1222647859139,0 -115.160526935337,36.1223122630902,0 -115.161134581201,36.1223242106283,0 -115.161622992127,36.1223339108442,0 -115.16162364945,36.1223339278305,0 -115.162292944274,36.1223552276657,0 -115.162988339136,36.1223772275032,0 -115.163614745926,36.1223971277184,0 -115.164042927495,36.1224107239578,0 -115.164163009415,36.122414020716,0 -115.164163734283,36.1224140454007,0 -115.164790934283,36.1224395454007,0 -115.164793574842,36.1224397164631,0 -115.164796204118,36.1224400143302,0 -115.164798816024,36.1224404383125,0 -115.165242916024,36.1225235383125,0 -115.165245629001,36.122524117136,0 -115.165248309342,36.1225248320143,0 -115.165250950229,36.1225256811287,0 -115.165253544943,36.1225266623192,0 -115.165506944943,36.1226298623192,0 -115.165509811872,36.1226311262693,0 -115.165512602174,36.1226325514226,0 -115.165515306794,36.122634133154,0 -115.165517916957,36.1226358663304,0 -115.165802816957,36.1228369663304,0 -115.165804683278,36.1228383435605,0 -115.165806489873,36.1228397982551,0 -115.166034189873,36.1230311982551,0 -115.16603617081,36.1230329462819,0 -115.16603806552,36.1230347874185,0 -115.166039869631,36.1230367174168,0 -115.166041578981,36.1230387318237,0 -115.166141778981,36.1231627318237,0 -115.166143403454,36.1231648449035,0 -115.166144923648,36.123167034202,0 -115.166146335994,36.1231692945778,0 -115.166310335994,36.1234464945778,0 -115.166311699758,36.1234489396099,0 -115.166312937337,36.123451450871,0 -115.166627318056,36.124132575785,0 -115.166628689776,36.1241354049571,0 -115.166629073365,36.1241362127731,0 -115.166712573365,36.1243158127731,0 -115.16671269217,36.1243160700421,0 -115.166767905136,36.1244364460141,0 -115.166914693002,36.1246753941221,0 -115.167026283538,36.1247628067087,0 -115.167226933015,36.1249107271378,0 -115.167433354524,36.1250628531757,0 -115.167628379201,36.1251730761731,0 -115.167892262873,36.1252519772933,0 -115.167991155393,36.1252811666944,0 -115.168357746206,36.1253552174447,0 -115.168740190599,36.1254128132912,0 -115.168741458069,36.1254130193306,0 -115.169161358069,36.1254863193306,0 -115.169161533528,36.1254863502526,0 -115.169334774541,36.1255171707485,0 -115.16941655747,36.1253915297196,0 -115.169566622305,36.1251488716884,0 -115.169567018295,36.12514824095,0 -115.169622716022,36.1250608445163,0 -115.170128813772,36.1242664480487,0 -115.170129242493,36.1242657856393,0 -115.170381042493,36.1238827856393,0 -115.170711947647,36.1233799297628,0 -115.170780841092,36.1232735942284,0 -115.170782268377,36.1232714987209,0 -115.170909954814,36.1230930176782,0 -115.171227357308,36.1226485542181,0 -115.171276073976,36.1225795722146,0 -115.171276163441,36.122579445911,0 -115.171445451795,36.1223411623035,0 -115.171549097997,36.1221950478871,0 -115.171590310779,36.1221280531553,0 -115.171963917375,36.1214326083249,0 -115.172238742702,36.1207193356408,0 -115.172275922172,36.120615551238,0 -115.172275964678,36.1206154330119,0 -115.172469930721,36.1200778585681,0 -115.172536630085,36.1198699954774,0 -115.172536696252,36.1198697906511,0 -115.172548618174,36.119833130742,0 -115.172581104771,36.1197300254146,0 -115.172618040025,36.1195998632095,0 -115.172646220277,36.1194863483904,0 -115.172716721507,36.1192027502108,0 -115.172775164313,36.1189114276808,0 -115.1728540428,36.118354391993,0 -115.172883164105,36.118148561813,0 -115.172889125267,36.1180614897721,0 -115.172926122167,36.1175073361967,0 -115.172926179419,36.1175065610866,0 -115.172928131382,36.1174824543455,0 -115.172935,36.11736647283,0 -115.172935,36.1172673405737,0 -115.172932402105,36.1169703811391,0 -115.172932401626,36.1169703229409,0 -115.172924501626,36.1159430229409,0 -115.172916001448,36.1147717991527,0 -115.172916,36.1147714,0 -115.172916,36.1146045,0 -115.172916097056,36.114601234008,0 -115.172950369777,36.1140250925733,0 -115.172993549241,36.1130147730801,0 -115.173011248338,36.1125928946091,0 -115.173011253715,36.112592769812,0 -115.173029452296,36.1121813018999,0 -115.173040150915,36.111932833983,0 -115.1730401583,36.1119326682759,0 -115.173055547989,36.1115986920529,0 -115.173059024571,36.1115070096011,0 -115.173061215284,36.1114141034686,0 -115.173061237864,36.1114133595209,0 -115.173069037864,36.1112032595209,0 -115.173069067147,36.1112025830737,0 -115.173072267147,36.1111378830737,0 -115.173076038521,36.1110625546446,0 -115.173079010453,36.1109564566657,0 -115.173080803907,36.1108243388644,0 -115.173084801779,36.1104424421699,0 -115.17308530105,36.1103616600807,0 -115.173085329316,36.1103602044752,0 -115.173086607367,36.1103210764617,0 -115.173090199341,36.1098832546708,0 -115.173088900866,36.1094384770333,0 -115.173085903202,36.1091606934906,0 -115.173085901439,36.1091604978996,0 -115.173085019699,36.1090386217359,0 -115.173059899977,36.1087855842521,0 -115.173045272908,36.1087708541752,0 -115.173045204622,36.1087707852867,0 -115.173025729969,36.1087511041884,0 -115.172869050205,36.1086953131746,0 -115.172868944791,36.1086952755175,0 -115.172701719347,36.1086353455879,0 -115.17259089694,36.1085979069311,0 -115.17258836886,36.1085969833686,0 -115.17258588899,36.1085959372341,0 -115.172583463268,36.1085947710329,0 -115.172581097503,36.1085934875578,0 -115.172578797361,36.1085920898823,0 -115.172576568349,36.1085905813537,0 -115.172574415805,36.1085889655844,0 -115.172462715805,36.1085007655844,0 -115.172460610916,36.1084990167865,0 -115.172458595619,36.1084971654551,0 -115.172456674902,36.1084952161733,0 -115.172454853521,36.1084931737668,0 -115.172453135985,36.108491043292,0 -115.172451526546,36.1084888300233,0 -115.172450029188,36.1084865394397,0 -115.172400783841,36.1084069509991,0 -115.172314266776,36.1082724733885,0 -115.172267315473,36.1082366518292,0 -115.172155464036,36.1082089962541,0 -115.171863566316,36.1081869125329,0 -115.171557273999,36.1081740013781,0 -115.171138069723,36.108174499956,0 -115.170097874024,36.1081758999502,0 -115.169984448501,36.1081759999786,0 -115.169981178682,36.1081759055836,0 -115.169829203123,36.1081669891557,0 -115.168805029981,36.1081600987553,0 -115.168803861028,36.1081600784646,0 -115.168701156008,36.1081572035171,0 -115.16857075133,36.1081577994257,0 -115.168440511212,36.1081582995945,0 -115.168440345666,36.108158299981,0 -115.167838145666,36.108158799981,0 -115.167834345137,36.1081586716776,0 -115.167598043753,36.1081425015997,0 -115.166894946808,36.1081430999801,0 -115.166832955415,36.1081431,0 -115.166237511625,36.1081442998867,0 -115.166042114905,36.10814469988,0 -115.165901417271,36.108144999875,0 -115.165900531693,36.1081449946334,0 -115.16576500774,36.1081431012841,0 -115.16528678383,36.1081446996928,0 -115.165286594721,36.1081446999997,0 -115.164244797386,36.1081446,0 -115.1640263,36.1081446,0 -115.164025914855,36.1081445986515,0 -115.163954514855,36.1081440986515,0 -115.163954366907,36.1081440974164,0 -115.163896192638,36.1081435335301,0 -115.163162277009,36.1082361922167,0</coordinates></LineString>
  </Placemark>
</Folder>
</Document></kml>
