<?xml version="1.0" encoding="utf-8" ?>
<kml xmlns="http://www.opengis.net/kml/2.2">
<Document id="root_doc">
<Schema name="silverstone_gp_boundary" id="silverstone_gp_boundary">
	<SimpleField name="highway" type="string"></SimpleField>
	<SimpleField name="note" type="string"></SimpleField>
	<SimpleField name="oneway" type="string"></SimpleField>
	<SimpleField name="sport" type="string"></SimpleField>
	<SimpleField name="surface" type="string"></SimpleField>
</Schema>
<Folder><name>silverstone_gp_boundary</name>
  <Placemark id="silverstone_gp_boundary.1">
	<name>National Pit Straight</name>
	<Style><LineStyle><color>ff0000ff</color></LineStyle><PolyStyle><fill>0</fill></PolyStyle></Style>
	<ExtendedData><SchemaData schemaUrl="#silverstone_gp_boundary">
		<SimpleData name="highway">raceway</SimpleData>
		<SimpleData name="oneway">yes</SimpleData>
		<SimpleData name="sport">motor</SimpleData>
		<SimpleData name="surface">asphalt</SimpleData>
	</SchemaData></ExtendedData>
      <LineString><coordinates>-1.02397056493332,52.0678002956688,0 -1.02397008612098,52.0678006772005,0 -1.02061659094467,52.0705034927158,0 -1.02007679618015,52.0709342087457,0 -1.02007658215621,52.0709343803963,0 -1.01996955980139,52.0710206535191,0 -1.01986472625589,52.0710990567822,0 -1.01981480025523,52.0711340908974,0 -1.01979063711121,52.071148467535,0 -1.01976581022504,52.0711605782112,0 -1.01972680262864,52.0711761628064,0 -1.01968298644588,52.0711909249109,0 -1.01963405473373,52.0712046413551,0 -1.01963369204109,52.0712047443666,0 -1.01958599315394,52.0712184685936,0 -1.01954581776884,52.0712267998947,0 -1.01948831313707,52.0712361064365,0 -1.01948824851833,52.0712361169338,0 -1.01942943032892,52.0712457079198,0 -1.0193729173908,52.0712522025456,0 -1.01929306310053,52.0712599112519,0 -1.01920045564609,52.0712673238016,0 -1.01912007950378,52.0712718603691,0 -1.01905216051394,52.0712745065635,0 -1.01895554508975,52.0712750986907,0 -1.0188152018614,52.0712740084538,0 -1.01873867526971,52.0712709786654,0 -1.01866116911816,52.0712653651322,0 -1.0184865783535,52.0712508242014,0 -1.01829409122607,52.0712318648679,0 -1.01829349709932,52.0712318096009,0 -1.01806078810267,52.0712114350793,0 -1.01744337881918,52.0711507636473,0 -1.01744310523475,52.0711507374528,0 -1.01725860523475,52.0711335374528,0 -1.01725637366087,52.0711333751234,0 -1.01715507366087,52.0711280751234,0 -1.01715369459348,52.0711280203111,0 -1.01705069459348,52.0711252203111,0 -1.01704885190571,52.0711252011016,0 -1.01693825190571,52.0711259011016,0 -1.01693527791532,52.0711260004212,0 -1.01680637791532,52.0711338004212,0 -1.01680605453321,52.071133820946,0 -1.01669465453321,52.071141220946,0 -1.0166922208415,52.0711414369976,0 -1.0165816208415,52.0711537369976,0 -1.01657879168694,52.0711541262314,0 -1.01647339168694,52.0711714262314,0 -1.01647282036638,52.0711715230995,0 -1.01637052036638,52.0711894230995,0 -1.01636954664264,52.0711896025249,0 -1.01629154664264,52.0712047025249,0 -1.01628944657205,52.0712051517839,0 -1.01618024657205,52.0712307517839,0 -1.01617802314176,52.0712313222267,0 -1.01608122314176,52.0712583222267,0 -1.01607949373125,52.0712588353158,0 -1.01596729373125,52.0712941353158,0 -1.0159639921984,52.0712952906344,0 -1.0158564921984,52.0713367906344,0 -1.01585314231888,52.0713382129094,0 -1.01568274231888,52.0714173129094,0 -1.01568158908148,52.0714178646249,0 -1.01363808216032,52.0724248404531,0 -1.01356630193756,52.0724496372573,0 -1.01351867766771,52.0724621651116,0 -1.0134801478827,52.0724691542354,0 -1.01344005045634,52.0724728583857,0 -1.01339391668472,52.0724757477659,0 -1.01335396740154,52.0724768574682,0 -1.01332300909833,52.0724751327717,0 -1.01328843033519,52.0724698330115,0 -1.01324783493446,52.0724595716464,0 -1.01321476898739,52.0724485796966,0 -1.01318265526519,52.0724354996693,0 -1.01315177976183,52.0724202882777,0 -1.01312781360808,52.072406647165,0 -1.01310317538883,52.0723820807773,0 -1.01308349139198,52.072350668399,0 -1.01300505189307,52.072204418593,0 -1.01266681378505,52.0715265438732,0 -1.01266561452412,52.0715242745369,0 -1.01266431069289,52.0715220636233,0 -1.01265281069289,52.0715035636233,0 -1.0126514990825,52.0715015528857,0 -1.01265010097541,52.0714996013006,0 -1.01264861903537,52.0714977125863,0 -1.01263581903537,52.0714821125864,0 -1.0126330329728,52.0714789698689,0 -1.0126196329728,52.0714649698689,0 -1.01261709945411,52.0714624882657,0 -1.01260119945411,52.0714478882657,0 -1.01259932117348,52.0714462406036,0 -1.01259737000013,52.0714446799463,0 -1.01257287000013,52.0714259799463,0 -1.01257107005366,52.0714246629962,0 -1.01256921819491,52.0714234201027,0 -1.01253931819491,52.0714042201027,0 -1.01253719957817,52.0714029262332,0 -1.01253502473461,52.0714017292827,0 -1.01250452473461,52.0713858292827,0 -1.01250193090577,52.0713845625166,0 -1.01249927418708,52.0713834335835,0 -1.01246427418708,52.0713696335835,0 -1.01246192313814,52.0713687679354,0 -1.01242572313814,52.0713563679354,0 -1.01242290951432,52.0713554876718,0 -1.01238800951432,52.0713455876718,0 -1.01238566124122,52.0713449771734,0 -1.01238328832749,52.0713444708383,0 -1.01238089539116,52.0713440696519,0 -1.01233539539116,52.0713374696519,0 -1.01233230864303,52.0713371106128,0 -1.01229470864303,52.0713338106128,0 -1.0122915750606,52.0713336255134,0 -1.01228843602185,52.0713336194874,0 -1.01225463602185,52.0713345194874,0 -1.01225086650222,52.0713347495616,0 -1.01221006650222,52.0713386495616,0 -1.01220694503022,52.0713390382995,0 -1.01220385088713,52.0713396048532,0 -1.01216955088713,52.0713469048532,0 -1.01216567655864,52.0713478777306,0 -1.01212327655864,52.0713601777306,0 -1.01212045279969,52.0713610800701,0 -1.01211768175959,52.0713621332405,0 -1.01207318175959,52.0713804332405,0 -1.01207001016677,52.0713818562953,0 -1.01206693480654,52.0713834768648,0 -1.01202063480654,52.0714097768648,0 -1.01201764653946,52.0714116025129,0 -1.01201478050834,52.0714136146255,0 -1.01197868050834,52.0714407146255,0 -1.01197625548744,52.071442644245,0 -1.01197394300032,52.0714447073885,0 -1.01194174300032,52.0714751073885,0 -1.01193894396148,52.0714779488528,0 -1.01189011823146,52.071531249446,0 -1.01186029689238,52.071562854121,0 -1.01185821145084,52.071565194435,0 -1.01185626272595,52.0715676497573,0 -1.01182446272595,52.0716101497573,0 -1.01182322667494,52.0716118697897,0 -1.01179342667494,52.0716550697897,0 -1.01179308096901,52.0716555769791,0 -1.01175348096901,52.0717143769791,0 -1.01175276529068,52.0717154673371,0 -1.01171988565906,52.0717668791247,0 -1.0116700075526,52.0718434918962,0 -1.01166880611162,52.0718454235308,0 -1.01166768557325,52.071847403194,0 -1.01161658557325,52.071942203194,0 -1.01161513138606,52.0719451025574,0 -1.01157573138606,52.0720298025574,0 -1.0115754147073,52.0720304958582,0 -1.0115328147073,52.0721254958582,0 -1.0115317246337,52.072128104352,0 -1.0114922246337,52.072229904352,0 -1.01149168168795,52.072231364639,0 -1.01145838168795,52.072324964639,0 -1.01145721287244,52.0723286567197,0 -1.01143061287244,52.0724242567197,0 -1.01143006959241,52.0724263708487,0 -1.01142961062843,52.0724285048698,0 -1.01140881062843,52.0725355048698,0 -1.01140836814392,52.0725381150115,0 -1.01139286814392,52.0726451150115,0 -1.01139259881798,52.072647274558,0 -1.01138519881798,52.072717974558,0 -1.01138495275621,52.0727212915981,0 -1.01138225275621,52.0727828915981,0 -1.01138222835479,52.0727835341511,0 -1.01137992835479,52.0728551341511,0 -1.01137990426219,52.0728575847066,0 -1.01137998935756,52.0728600339028,0 -1.01138018347193,52.0728624768769,0 -1.01138548347193,52.0729144768769,0 -1.01138579676234,52.0729169800824,0 -1.01138622450975,52.0729194662885,0 -1.01138676581427,52.0729219302646,0 -1.01139966581427,52.0729748302646,0 -1.01140046262084,52.0729777469845,0 -1.01140141850813,52.0729806155095,0 -1.01140253058724,52.0729834271702,0 -1.01142293058724,52.0730311271702,0 -1.01142433458325,52.0730341528253,0 -1.01142591940711,52.0730370878086,0 -1.01145061940711,52.0730796878086,0 -1.01145207704269,52.0730820611884,0 -1.01145365296091,52.0730843577325,0 -1.01145534312031,52.0730865715515,0 -1.01145714318648,52.073088696968,0 -1.01148504318648,52.073119996968,0 -1.01148740504711,52.073122485811,0 -1.01151740504711,52.073152185811,0 -1.01151971081295,52.0731543410847,0 -1.01152213641363,52.0731563605455,0 -1.01152467386128,52.0731582375432,0 -1.01156977386128,52.0731896375432,0 -1.01157312634005,52.073191795556,0 -1.01171952634005,52.073278695556,0 -1.01172119992975,52.0732796497284,0 -1.01197155292793,52.0734166315718,0 -1.01228532698733,52.0736046766548,0 -1.01228650662112,52.0736053638571,0 -1.01257340662112,52.0737677638571,0 -1.01257371148829,52.0737679351501,0 -1.01286054271872,52.0739278967983,0 -1.01486957405997,52.0750558582501,0 -1.01486975315856,52.0750559583653,0 -1.01585374694113,52.0756035992501,0 -1.01640614098744,52.0759142396667,0 -1.01640637244867,52.0759143690961,0 -1.01652507244867,52.0759803690961,0 -1.01652520586347,52.0759804430359,0 -1.01750710586347,52.0765228430359,0 -1.01750737233865,52.0765229892767,0 -1.01846297233865,52.0770439892767,0 -1.01846636264684,52.077045688777,0 -1.01855506264684,52.077086388777,0 -1.01855804708143,52.0770876531076,0 -1.01862534708143,52.0771138531076,0 -1.01862877667058,52.0771150593136,0 -1.01868687667058,52.0771333593136,0 -1.01868872051664,52.0771339048372,0 -1.01875552051664,52.0771524048372,0 -1.01875705504199,52.0771528060865,0 -1.01882815504199,52.0771703060865,0 -1.01883144047832,52.077171009055,0 -1.01890004047832,52.077183509055,0 -1.01890065724419,52.077183617815,0 -1.01895755724419,52.077193317815,0 -1.01895974759094,52.0771936459763,0 -1.01900924759094,52.0772000459763,0 -1.01900984877852,52.0772001203418,0 -1.01904794877852,52.0772046203418,0 -1.01905116166003,52.0772049045823,0 -1.01912576166003,52.0772093045823,0 -1.01912877970804,52.0772093995588,0 -1.01920367970804,52.0772096995588,0 -1.01920375313804,52.0772096998039,0 -1.01927865313804,52.0772098998039,0 -1.01928117295701,52.0772098487859,0 -1.01935527295701,52.0772066487859,0 -1.01935787946603,52.0772064741264,0 -1.01943267946603,52.0771996741264,0 -1.01943434528666,52.077199497071,0 -1.01950664528666,52.077190697071,0 -1.01951034397489,52.0771901185356,0 -1.01958084397489,52.0771766185356,0 -1.01958231884333,52.0771763151277,0 -1.01965321884333,52.0771607151277,0 -1.01965699362419,52.0771597431406,0 -1.01972599362419,52.0771393431406,0 -1.01972691282499,52.0771390626211,0 -1.01975741282499,52.0771294626211,0 -1.01975975297937,52.077128667835,0 -1.01981785297937,52.0771074678349,0 -1.01982162538259,52.0771059307497,0 -1.01984422538259,52.0770957307497,0 -1.01984675022147,52.0770945128445,0 -1.01987495022148,52.0770800128445,0 -1.01987724788678,52.0770787614468,0 -1.01989964788678,52.0770658614468,0 -1.01990286559009,52.0770638576564,0 -1.01994306559009,52.0770368576564,0 -1.0199451429909,52.0770353915891,0 -1.01996441476545,52.0770211125023,0 -1.01998928651326,52.0770027333794,0 -1.01999156002447,52.0770009593534,0 -1.01999373742713,52.0769990686025,0 -1.02001383742713,52.0769806686025,0 -1.0200154730434,52.0769791083466,0 -1.02001704316669,52.0769774822003,0 -1.02003724316669,52.0769556822003,0 -1.02003884873856,52.0769538711025,0 -1.02004037307638,52.0769519911209,0 -1.02004181322823,52.0769500458963,0 -1.02005941322823,52.0769251458963,0 -1.0200609695952,52.0769228206853,0 -1.0200804695952,52.0768920206853,0 -1.0200820728306,52.0768893208338,0 -1.02008351937937,52.0768865338895,0 -1.0200848045267,52.0768836689361,0 -1.0200989045267,52.0768496689361,0 -1.02009986028331,52.0768471976631,0 -1.02010069591054,52.0768446832271,0 -1.02010140946899,52.0768421314639,0 -1.02010199930258,52.0768395482958,0 -1.02010849930258,52.0768075482958,0 -1.02010895728495,52.0768049836491,0 -1.02019755350769,52.0762305500029,0 -1.02021426660191,52.0761708728811,0 -1.0202407502062,52.0761192551556,0 -1.02026058348705,52.0760938814036,0 -1.02028713083612,52.0760659932793,0 -1.02032001398092,52.0760358968417,0 -1.02035821957635,52.0760046206925,0 -1.02039364071314,52.0759793708645,0 -1.02043634581149,52.0759563119561,0 -1.02049505322133,52.0759264245475,0 -1.02053490802546,52.0759085324857,0 -1.02056932430508,52.0758947296506,0 -1.02059880665051,52.0758860742832,0 -1.02063351536026,52.0758768578461,0 -1.02063377785117,52.0758767874505,0 -1.02068057185294,52.075864114075,0 -1.02073132722805,52.075852814177,0 -1.02077593174131,52.0758461924761,0 -1.02081826217395,52.0758429727116,0 -1.02086950841379,52.0758398431702,0 -1.0209261913035,52.0758379217163,0 -1.02097484296106,52.0758390553472,0 -1.02102927909413,52.0758428554263,0 -1.02107414289059,52.0758486143401,0 -1.02112607583269,52.0758589056387,0 -1.02117537774245,52.0758700756027,0 -1.02123320936091,52.07588585661,0 -1.02129960110754,52.0759069986504,0 -1.0213492640199,52.0759269013676,0 -1.02139096790402,52.0759462835693,0 -1.02142361006055,52.075965377867,0 -1.02145485544825,52.0759855035726,0 -1.02148453055558,52.0760079874729,0 -1.02152535640768,52.076042768495,0 -1.0215386050955,52.0760562786701,0 -1.0215643209984,52.0760831249423,0 -1.0215849417489,52.0761079886456,0 -1.02159954285477,52.0761315615153,0 -1.02159993156578,52.0761321798632,0 -1.02161355499704,52.0761535355122,0 -1.02162400434988,52.0761732048823,0 -1.02163169371167,52.0761889039959,0 -1.02163742827241,52.0762056161444,0 -1.02164345060263,52.0762241714321,0 -1.02164759933996,52.0762485558474,0 -1.0216499318103,52.076263862684,0 -1.02164921146254,52.0762817273084,0 -1.02164730969399,52.0763005721059,0 -1.02164422083481,52.0763212503021,0 -1.02163831369906,52.0763469018368,0 -1.02162708113761,52.0763755492221,0 -1.02161478394282,52.0764052814808,0 -1.02158894225918,52.0764437017323,0 -1.02156204508327,52.0764772761791,0 -1.0213206197157,52.0767691441659,0 -1.02131993013619,52.0767699949297,0 -1.0210417815121,52.0771202302389,0 -1.02083186361163,52.0773829274972,0 -1.02073651433352,52.0775018161284,0 -1.020711961912,52.0775302657597,0 -1.02071191230703,52.0775303233188,0 -1.02068503643305,52.0775615523273,0 -1.02065695197218,52.0775890732204,0 -1.02062835566673,52.0776166800343,0 -1.02057717651586,52.0776653149061,0 -1.02052956731113,52.0777063671545,0 -1.02048573850083,52.0777390239152,0 -1.02041257141538,52.0777910032384,0 -1.02032723991334,52.0778503469667,0 -1.02024018180067,52.0779100809982,0 -1.02016498846379,52.0779611928089,0 -1.02009172069624,52.078005503289,0 -1.01991087452679,52.0781058086781,0 -1.01971342635416,52.078202255278,0 -1.01961998581907,52.0782448182336,0 -1.01953956554971,52.0782803504566,0 -1.01947645844528,52.0783079537186,0 -1.01932890195476,52.0783622907318,0 -1.01919090198004,52.0784082579131,0 -1.01909269069744,52.0784352831514,0 -1.01899829281311,52.0784586616077,0 -1.0188725701242,52.0784847717272,0 -1.01871840025669,52.0785117217298,0 -1.01859647763434,52.0785303954539,0 -1.01848219571569,52.0785440263137,0 -1.01835349523771,52.0785569460528,0 -1.01822270865683,52.078568682035,0 -1.01805458201249,52.0785811469404,0 -1.01781723071469,52.0785983217083,0 -1.01719350994802,52.0786365984353,0 -1.01524973178702,52.0787502796127,0 -1.01271888205276,52.078875832471,0 -1.01243841614885,52.0788825149801,0 -1.01236074778639,52.0788842913848,0 -1.01229682181399,52.0788834156866,0 -1.01222755802924,52.0788805296955,0 -1.01216329390376,52.0788732204819,0 -1.01205579018443,52.0788550604136,0 -1.01196818721915,52.0788344479512,0 -1.01188140551006,52.0788113061621,0 -1.01178172477098,52.0787809346869,0 -1.01167158151656,52.0787389799447,0 -1.0115407084597,52.0786751914473,0 -1.01145528513483,52.0786250495855,0 -1.01140151669105,52.0785875918513,0 -1.011350318339,52.0785478023401,0 -1.01130756466424,52.078507873798,0 -1.01126659472356,52.0784663374527,0 -1.01122786816507,52.0784197744611,0 -1.01115321505067,52.0783017993322,0 -1.01108130917821,52.0781764351628,0 -1.01108106877936,52.0781760202414,0 -1.01102280739969,52.0780764658637,0 -1.01097698280438,52.0779810060991,0 -1.01091039222088,52.0778392518929,0 -1.01075225329915,52.0774941129498,0 -1.01064639882845,52.077223398295,0 -1.01059895640802,52.0770728674486,0 -1.01059893357844,52.0770727951859,0 -1.01053407345189,52.076867984189,0 -1.01047847776548,52.0766535859303,0 -1.0104558221021,52.0765359131959,0 -1.01043782429705,52.076416059681,0 -1.01041313771841,52.0762417604906,0 -1.01039315140779,52.0760755062053,0 -1.01036701912558,52.0758300422872,0 -1.01034060743607,52.0755568557177,0 -1.01031079612412,52.0751474736211,0 -1.01028962572055,52.0747405425147,0 -1.01028958620146,52.0747398637747,0 -1.01028248620146,52.0746296637747,0 -1.01028240302884,52.0746285494055,0 -1.01027360302884,52.0745248494055,0 -1.01027320223671,52.074521413181,0 -1.01026440223671,52.074462213181,0 -1.01026384162486,52.0744590714902,0 -1.01025164162486,52.0744005714902,0 -1.01025107179617,52.0743981209747,0 -1.01025039049769,52.0743956990822,0 -1.01023199049769,52.0743355990822,0 -1.01023109733253,52.0743329280579,0 -1.01020589733253,52.0742635280579,0 -1.01020494677468,52.0742610923396,0 -1.01020388153275,52.0742587045491,0 -1.01016788153275,52.0741829045491,0 -1.0101666106894,52.0741803962617,0 -1.01016521331334,52.0741779562026,0 -1.01013801331334,52.0741331562026,0 -1.01013677582773,52.0741312110906,0 -1.01010087582773,52.0740773110906,0 -1.01010004919736,52.0740761050531,0 -1.01005604919736,52.0740137050531,0 -1.01005527149841,52.0740126299111,0 -1.01000957149841,52.0739510299111,0 -1.01000878828432,52.0739499997517,0 -1.00997388828432,52.0739051997517,0 -1.00997213316621,52.0739030600574,0 -1.00997027264075,52.0739010113563,0 -1.00993425186149,52.0738632989935,0 -1.00988512930421,52.0738108883137,0 -1.00988234416437,52.0738081216223,0 -1.00983073605842,52.0737603915821,0 -1.00969080625303,52.0736271720918,0 -1.00965574491801,52.0735880379754,0 -1.00963123217466,52.0735492041669,0 -1.00960725080553,52.0735053291621,0 -1.0095991300477,52.0734849885972,0 -1.00959250415979,52.0734607786221,0 -1.00958782693319,52.0734396885822,0 -1.00958439648609,52.0734132490387,0 -1.00958377662082,52.0733919965152,0 -1.00958374060473,52.073391044623,0 -1.00958270926892,52.0733688709031,0 -1.00958511863023,52.0733407063002,0 -1.00958868305676,52.0733189802718,0 -1.00959324503384,52.0732993222979,0 -1.00959986197501,52.0732789066135,0 -1.00961402830802,52.0732467185531,0 -1.00963442843396,52.0732056268708,0 -1.00964859507315,52.0731772935925,0 -1.00967622995379,52.0731290754904,0 -1.00977699775875,52.0729695761541,0 -1.00977782981893,52.0729682158569,0 -1.00987021936106,52.0728121335244,0 -1.00993396623393,52.0727046231244,0 -1.00997831727711,52.0726303400991,0 -1.01001210617299,52.072575582212,0 -1.01001309518482,52.0725739143401,0 -1.01006109518482,52.0724896143401,0 -1.01006263786956,52.0724867058558,0 -1.01006400376722,52.072483710279,0 -1.01007560376722,52.072456110279,0 -1.010076382493,52.0724541533696,0 -1.010091682493,52.0724134533696,0 -1.01009216219484,52.0724121258233,0 -1.01011176219484,52.0723556258233,0 -1.01011248050766,52.0723534039271,0 -1.0101131038598,52.0723511535431,0 -1.0101265038598,52.0722984535431,0 -1.01012702972237,52.0722961854326,0 -1.01013962972237,52.0722360854326,0 -1.01014026519589,52.0722324513029,0 -1.01014786519589,52.0721783513029,0 -1.01014828111192,52.072174314354,0 -1.01015208111192,52.072116614354,0 -1.01015219816919,52.0721134487597,0 -1.01015213278364,52.0721102816767,0 -1.01014973278364,52.0720617816767,0 -1.01014950909503,52.0720588506707,0 -1.01014912913134,52.072055935802,0 -1.01013952913134,52.071995035802,0 -1.01013902770369,52.0719923049429,0 -1.01013838909955,52.0719896028685,0 -1.01012638909955,52.0719440028685,0 -1.01012538818119,52.0719406393046,0 -1.01012417479397,52.0719373464197,0 -1.01010067479397,52.0718793464197,0 -1.0100995396422,52.0718767403769,0 -1.01009827136457,52.0718741964626,0 -1.01007107136457,52.0718229964626,0 -1.01007038314714,52.0718217407277,0 -1.01004738314714,52.0717810407277,0 -1.01004564156882,52.0717781674821,0 -1.01004372780032,52.0717754059382,0 -1.01000772780032,52.0717267059382,0 -1.01000551708776,52.0717239096585,0 -1.01000312988357,52.0717212624551,0 -1.00995712988357,52.0716734624551,0 -1.00995444375832,52.0716708549546,0 -1.00992014375832,52.0716397549546,0 -1.00991792776152,52.071637850468,0 -1.00986462776152,52.071594450468,0 -1.00986388778118,52.0715938584606,0 -1.00961248778118,52.0713962584606,0 -1.00961079981548,52.0713949834646,0 -1.00953714748128,52.0713415436184,0 -1.00950597339815,52.0713166043519,0 -1.00946994081685,52.0712854639226,0 -1.00944551246618,52.0712611192307,0 -1.00941839746615,52.0712226194069,0 -1.00939023615088,52.0711745143405,0 -1.00937788040289,52.0711486304013,0 -1.0093619011863,52.0711124806982,0 -1.0093486025542,52.0710574488588,0 -1.00934450591193,52.0710241636403,0 -1.00934363176229,52.0709928690834,0 -1.00934514433141,52.0709563005005,0 -1.0093499443193,52.070921456144,0 -1.00935920771786,52.0708760213796,0 -1.00937242243678,52.0708410849665,0 -1.00939351302876,52.0708012471816,0 -1.00941953404077,52.0707640743073,0 -1.00945199232145,52.0707256121828,0 -1.00950576489112,52.0706656968767,0 -1.00954148161945,52.0706356242733,0 -1.00959468506847,52.0705982585712,0 -1.00965098650815,52.0705620782836,0 -1.00976374772699,52.0705048287949,0 -1.00976935020927,52.0705024166151,0 -1.00976968224795,52.0705022723568,0 -1.00982648224795,52.0704773723568,0 -1.00982669704369,52.0704772776475,0 -1.00988305343346,52.0704522848138,0 -1.00996045227288,52.0704220923822,0 -1.01003531632159,52.0703933445875,0 -1.01003570446778,52.0703931938509,0 -1.0101342859548,52.0703544796637,0 -1.01023221944283,52.0703169817091,0 -1.0103163661507,52.0702849400801,0 -1.01040955823657,52.0702498934837,0 -1.01047980384033,52.0702244122353,0 -1.01052834281261,52.0702085928536,0 -1.01052875510264,52.0702084566812,0 -1.01060375510264,52.0701833566812,0 -1.01060422170828,52.0701831981959,0 -1.01070722170828,52.0701476981959,0 -1.01071012480652,52.0701466050826,0 -1.01080912480652,52.0701061050826,0 -1.01081224983157,52.070104711671,0 -1.01085399639718,52.0700845179835,0 -1.01091351388933,52.0700593600962,0 -1.01091640949197,52.0700580360781,0 -1.01098520949197,52.0700241360781,0 -1.01098720260669,52.0700231029283,0 -1.01103660260669,52.0699962029283,0 -1.01103894390824,52.0699948523857,0 -1.01108664390824,52.0699657523857,0 -1.0110882526195,52.0699647323308,0 -1.0111380526195,52.0699319323308,0 -1.01114074007837,52.0699300448775,0 -1.01117604007837,52.0699036448775,0 -1.01117771819579,52.0699023385133,0 -1.01121771819579,52.0698699385133,0 -1.01121899225253,52.0698688742871,0 -1.01125719225253,52.0698359742871,0 -1.01125908883638,52.0698342625305,0 -1.01130688883638,52.0697890625305,0 -1.01130835878443,52.0697876194476,0 -1.01136045878443,52.0697345194476,0 -1.01136288525732,52.0697318795112,0 -1.0114243845778,52.0696604288443,0 -1.01245997808598,52.0684972730892,0 -1.01246080473303,52.0684963229329,0 -1.01328070795681,52.0675318367748,0 -1.01441757131648,52.0662091284463,0 -1.01481872837566,52.0657548035855,0 -1.01481906676812,52.0657544167154,0 -1.01500303368307,52.0655421011277,0 -1.01519416858099,52.0653295853749,0 -1.01525551241509,52.065266562241,0 -1.01525590447287,52.0652661552887,0 -1.01537690843931,52.065139256001,0 -1.01546285796922,52.0650500274717,0 -1.0155216037145,52.0649918751178,0 -1.01557641266473,52.0649386606097,0 -1.01557683548398,52.0649382456436,0 -1.01568987018934,52.0648261088308,0 -1.01579340228914,52.0647261536558,0 -1.01596726150344,52.0645649478055,0 -1.01610512495794,52.0644400620839,0 -1.01610520862398,52.0644399861371,0 -1.01617490862398,52.0643765861371,0 -1.01623380837162,52.0643229417692,0 -1.01637244052097,52.06420309204,0 -1.01645810651611,52.064131371672,0 -1.01645922087881,52.0641304130997,0 -1.01655753078197,52.0640435345806,0 -1.01666131254732,52.0639569837572,0 -1.01673665754906,52.0638966092656,0 -1.01678586959035,52.0638598694313,0 -1.01684271489582,52.063821067175,0 -1.01688687166981,52.0637931332158,0 -1.01692770726724,52.0637697714554,0 -1.01697921162915,52.0637433888067,0 -1.0170135418176,52.0637266160575,0 -1.01705283894079,52.0637078131302,0 -1.01705342608662,52.0637075278979,0 -1.01709528611193,52.0636868845977,0 -1.01714419672422,52.0636673753086,0 -1.01721015026085,52.0636482305955,0 -1.01728894197648,52.0636265899245,0 -1.01735039232322,52.0636119954672,0 -1.01742062064166,52.0635997395556,0 -1.01748726507094,52.0635889559818,0 -1.0175754577949,52.0635800397943,0 -1.0176379209661,52.063576422991,0 -1.01769906883248,52.0635734594433,0 -1.01775334507906,52.0635718058659,0 -1.01782247419538,52.0635722899634,0 -1.01793086732106,52.0635779435617,0 -1.01800976833578,52.0635865928812,0 -1.01808549740006,52.0635995222336,0 -1.01815959870564,52.0636137160108,0 -1.01823154693495,52.0636304322434,0 -1.01830856590488,52.0636501732168,0 -1.01839650869539,52.0636783575252,0 -1.01846561683896,52.0637043690625,0 -1.01852898517815,52.0637328557471,0 -1.01856971107761,52.0637520768492,0 -1.01860826713759,52.0637734338824,0 -1.01865999554344,52.0638040365653,0 -1.01866043413522,52.0638042933094,0 -1.01869991894809,52.0638271627637,0 -1.01874197541854,52.0638586818036,0 -1.01877631734538,52.0638855084611,0 -1.01881317670005,52.0639181148133,0 -1.01885559305485,52.0639590026508,0 -1.01888499955602,52.0639907984302,0 -1.01892136198069,52.0640371790739,0 -1.01896301659309,52.0641008634929,0 -1.01900067451003,52.0641615125591,0 -1.01900287429549,52.0641647871745,0 -1.01904258076233,52.0642195444717,0 -1.01908200057374,52.0642767923385,0 -1.01908334524845,52.0642786602452,0 -1.01908476689447,52.0642804702586,0 -1.01912526689447,52.0643298702586,0 -1.01912551226385,52.0643301674192,0 -1.01916601226385,52.0643788674192,0 -1.01916652826166,52.0643794787909,0 -1.01920646703632,52.0644261073103,0 -1.01925480605667,52.0644829356214,0 -1.01925620390646,52.0644845164803,0 -1.01930840390646,52.0645413164803,0 -1.01930881959579,52.0645417637916,0 -1.01937271959579,52.0646097637916,0 -1.01937383622962,52.0646109178387,0 -1.01945363622962,52.0646910178387,0 -1.01945484451002,52.0646921940368,0 -1.01965494451002,52.0648810940368,0 -1.01965539196364,52.064881511761,0 -1.01971919196364,52.064940411761,0 -1.01972026737852,52.064941378704,0 -1.01979906737852,52.065010378704,0 -1.01979997174979,52.0650111534665,0 -1.01990867174979,52.0651022534665,0 -1.01991021527729,52.0651035003745,0 -1.01997678985776,52.0651553248983,0 -1.02003566627349,52.0652021470901,0 -1.02003649473677,52.065202793116,0 -1.02010869473677,52.065257993116,0 -1.02011084198908,52.0652595541352,0 -1.02017874198908,52.0653064541352,0 -1.02017898256401,52.0653066193644,0 -1.02034518256401,52.0654201193644,0 -1.02034766135061,52.0654217164385,0 -1.02041840352661,52.0654646564446,0 -1.02088969471887,52.0657719379032,0 -1.02121759223259,52.0659995033609,0 -1.02173385253486,52.0663767090307,0 -1.02173397259821,52.0663767965065,0 -1.02195007259821,52.0665337965065,0 -1.02195359180357,52.0665361517643,0 -1.02199929180357,52.0665642517643,0 -1.02200188887058,52.0665657526286,0 -1.02200456389815,52.0665671096762,0 -1.02200730892988,52.0665683188708,0 -1.02206020892988,52.0665899188708,0 -1.02206267688282,52.0665908581081,0 -1.02206518707255,52.0665916778068,0 -1.02206773371283,52.0665923760773,0 -1.02211923371283,52.0666051760773,0 -1.02212176781708,52.0666057427497,0 -1.02212432584363,52.0666061891825,0 -1.02212690209059,52.0666065143803,0 -1.02212949081543,52.0666067176184,0 -1.02219519081543,52.0666103176184,0 -1.02219780463173,52.0666103985789,0 -1.02220041934184,52.0666103552047,0 -1.0222030290347,52.0666101875937,0 -1.0222654290347,52.0666046875937,0 -1.02226812490037,52.0666043828035,0 -1.02227080245605,52.0666039454428,0 -1.02232960245605,52.0665928454428,0 -1.02233274770731,52.0665921557748,0 -1.02233584720905,52.0665912832289,0 -1.02239264720905,52.0665734832289,0 -1.0223953724679,52.0665725501355,0 -1.02239804513589,52.0665714756381,0 -1.02240065788177,52.0665702626838,0 -1.02245745788177,52.0665420626838,0 -1.02245970647494,52.066540880809,0 -1.02246189809725,52.0665395963671,0 -1.02278227826588,52.0663417524352,0 -1.02280752484009,52.066329693075,0 -1.02285629781961,52.0663091852408,0 -1.02292366009454,52.0662946613641,0 -1.02301812094847,52.0662859202104,0 -1.02305288974844,52.0662861968852,0 -1.02310560267142,52.0662869472471,0 -1.02316873896607,52.066295498849,0 -1.02322547538198,52.0663096137622,0 -1.02327835006196,52.0663267256021,0 -1.02334024282046,52.0663569863157,0 -1.023423326167,52.0664076681243,0 -1.02355244142552,52.066491277164,0 -1.02366990066835,52.0665752610149,0 -1.02377819853325,52.0666587796965,0 -1.02381133632204,52.0666858580039,0 -1.02389448282181,52.0667624453831,0 -1.02395964497582,52.0668345581668,0 -1.02404044075098,52.066930539654,0 -1.02411115286682,52.0670316254022,0 -1.02416861136679,52.0671358168155,0 -1.02420598600954,52.0672196935844,0 -1.02423988309456,52.067307673659,0 -1.02425027054375,52.0673488524754,0 -1.024250445175,52.0673495267328,0 -1.02426172933574,52.0673919857783,0 -1.02427362848214,52.0674549557136,0 -1.02426896810419,52.0675059788171,0 -1.02425788740303,52.0675465560326,0 -1.02423859562881,52.0675802612013,0 -1.02420923668417,52.0676110027002,0 -1.02415939525037,52.067652756656,0 -1.02404563583298,52.067740806048,0 -1.02404477799697,52.0677414837495,0 -1.02402592036692,52.0677566883308,0</coordinates></LineString>
  </Placemark>
</Folder>
</Document></kml>
