<?xml version="1.0" encoding="utf-8" ?>
<kml xmlns="http://www.opengis.net/kml/2.2">
<Document id="root_doc">
<Schema name="silverstone_gp_boundary" id="silverstone_gp_boundary">
	<SimpleField name="highway" type="string"></SimpleField>
	<SimpleField name="note" type="string"></SimpleField>
	<SimpleField name="oneway" type="string"></SimpleField>
	<SimpleField name="sport" type="string"></SimpleField>
	<SimpleField name="surface" type="string"></SimpleField>
</Schema>
<Folder><name>silverstone_gp_boundary</name>
  <Placemark id="silverstone_gp_boundary.1">
	<name>National Pit Straight</name>
	<Style><LineStyle><color>ff0000ff</color></LineStyle><PolyStyle><fill>0</fill></PolyStyle></Style>
	<ExtendedData><SchemaData schemaUrl="#silverstone_gp_boundary">
		<SimpleData name="highway">raceway</SimpleData>
		<SimpleData name="oneway">yes</SimpleData>
		<SimpleData name="sport">motor</SimpleData>
		<SimpleData name="surface">asphalt</SimpleData>
	</SchemaData></ExtendedData>
      <LineString><coordinates>-1.0240388755345,52.0678865148979,0 -1.02068551387902,52.0705892227995,0 -1.02068530381985,52.0705893912543,0 -1.02014551104613,52.0710201056957,0 -1.02003781784379,52.0711069196037,0 -1.0200362403042,52.0711081447086,0 -1.0199299403042,52.0711876447086,0 -1.01992859240429,52.0711886213282,0 -1.01987629240429,52.0712253213282,0 -1.01987282267661,52.0712275664264,0 -1.01984492267661,52.0712441664264,0 -1.01984294042885,52.0712452908874,0 -1.01984091329976,52.0712463322645,0 -1.01981221329976,52.0712603322645,0 -1.01980850566765,52.0712619745409,0 -1.01976620566765,52.0712788745409,0 -1.01976336020993,52.0712799213874,0 -1.01971676020993,52.0712956213874,0 -1.01971404526627,52.0712964586449,0 -1.01966392678894,52.0713105077608,0 -1.01961440795891,52.0713247556334,0 -1.01961036792658,52.0713257542237,0 -1.01956696792658,52.0713347542237,0 -1.01956458686293,52.0713351935635,0 -1.01950591917398,52.0713446883343,0 -1.01944585148167,52.0713544830662,0 -1.01944327942377,52.0713548403591,0 -1.01938497942377,52.0713615403591,0 -1.0193839848385,52.0713616455065,0 -1.0193031848385,52.0713694455065,0 -1.01930228831277,52.0713695246542,0 -1.01920858831277,52.0713770246542,0 -1.01920729936164,52.0713771126029,0 -1.01912579936164,52.0713817126029,0 -1.0191248412326,52.0713817583035,0 -1.0190555412326,52.0713844583035,0 -1.01905373707232,52.0713844989671,0 -1.01895583707232,52.0713850989671,0 -1.018955072753,52.0713850983405,0 -1.018813472753,52.0713839983405,0 -1.01881172418225,52.0713839569451,0 -1.01873342418225,52.0713808569451,0 -1.0187316269255,52.0713807563094,0 -1.0186529269255,52.0713750563094,0 -1.01865233508619,52.0713750102323,0 -1.01847703508619,52.0713604102323,0 -1.01847620877393,52.0713603351321,0 -1.01828360568711,52.071341364377,0 -1.01805090290068,52.0713209903991,0 -1.01805032118082,52.0713209363527,0 -1.01743275794101,52.0712602497918,0 -1.01724950890094,52.0712431664125,0 -1.01715001552888,52.0712379609349,0 -1.01704862658949,52.0712352047308,0 -1.01694043643326,52.0712358894786,0 -1.01681318380593,52.0712435897927,0 -1.01670316471279,52.0712508980628,0 -1.01659519879006,52.0712629051229,0 -1.01649149422864,52.0712799268394,0 -1.01638996730304,52.0712976915703,0 -1.01631350777901,52.0713124933499,0 -1.0162064710962,52.0713375861986,0 -1.01611164577133,52.0713640354111,0 -1.01600197541312,52.0713985395435,0 -1.01589780628197,52.0714387536731,0 -1.01572963750606,52.0715168179347,0 -1.01368361091852,52.0725250353751,0 -1.01368047626223,52.0725264598849,0 -1.0136772586139,52.0725276854613,0 -1.0136002586139,52.0725542854613,0 -1.01359629206722,52.072555490432,0 -1.01354459206722,52.072569090432,0 -1.01354041654812,52.0725700168678,0 -1.01349741654812,52.0725778168678,0 -1.01349504501472,52.0725781937772,0 -1.01349265928971,52.072578466811,0 -1.01344935928971,52.072582466811,0 -1.01344773794022,52.0725825924454,0 -1.01339983794022,52.0725855924454,0 -1.0133979271887,52.0725856787931,0 -1.0133547271887,52.0725868787931,0 -1.01335243326593,52.0725868946554,0 -1.01335014067698,52.0725868148481,0 -1.01331424067698,52.0725848148481,0 -1.0133115975363,52.0725846035822,0 -1.01330896764951,52.0725842651721,0 -1.01326916764951,52.0725781651721,0 -1.01326658212411,52.0725777054727,0 -1.01326402148883,52.0725771228819,0 -1.01321892148883,52.0725657228819,0 -1.01321505014227,52.0725645917851,0 -1.01317835014227,52.0725523917851,0 -1.01317495321622,52.0725511369312,0 -1.01313935321622,52.0725366369312,0 -1.01313579304628,52.0725350373287,0 -1.01310169304628,52.0725182373287,0 -1.01309879333539,52.0725166995544,0 -1.01306699333539,52.0724985995544,0 -1.01306448558101,52.0724970823217,0 -1.01306206221387,52.0724954336499,0 -1.01305973011622,52.0724936582211,0 -1.01305749591106,52.0724917610773,0 -1.01305536594341,52.0724897476065,0 -1.01302106594341,52.0724555476065,0 -1.0130189185804,52.0724532813747,0 -1.01301690326527,52.0724508969503,0 -1.01301502649165,52.0724484020164,0 -1.01301329430677,52.0724458046119,0 -1.01298929430677,52.0724075046119,0 -1.01298743121451,52.072404295708,0 -1.01290773121451,52.072255695708,0 -1.01290698621495,52.0722542561268,0 -1.01256953313374,52.0715779547065,0 -1.01256129330163,52.0715646993244,0 -1.01255211395679,52.0715535119978,0 -1.0125413937621,52.0715423117944,0 -1.01252864234254,52.0715306029438,0 -1.01250790396881,52.0715147740626,0 -1.01248197227975,52.0714981222756,0 -1.01245623760595,52.0714847064949,0 -1.01242509147688,52.0714724260211,0 -1.01239147187359,52.0714609099139,0 -1.01236149724394,52.071452407082,0 -1.01232114290937,52.0714465534862,0 -1.01228822220682,52.0714436641693,0 -1.01225945268977,52.0714444302215,0 -1.01222366865658,52.0714478507541,0 -1.01219440395365,52.0714540791019,0 -1.01215677359805,52.0714649954551,0 -1.01211823804583,52.0714808426597,0 -1.01207801470266,52.0715036909086,0 -1.01204720086893,52.0715268226231,0 -1.01201870806813,52.0715537226587,0 -1.01197095603852,52.0716058511472,0 -1.01197040310762,52.071606445879,0 -1.01194245701868,52.0716360631626,0 -1.01191317186259,52.0716752021291,0 -1.01188414759314,52.0717172775801,0 -1.01184508333475,52.071775282085,0 -1.01181243470932,52.0718263326629,0 -1.0118121924474,52.0718267081038,0 -1.01176343437432,52.071901600504,0 -1.01171418428616,52.0719929685737,0 -1.0116756293553,52.0720758518895,0 -1.01163376386092,52.0721692139075,0 -1.01159505718143,52.0722689693498,0 -1.01156266775202,52.0723600099081,0 -1.01153717259884,52.0724516391053,0 -1.01151704203221,52.0725551953856,0 -1.01150188788582,52.07265980788,0 -1.01149477438579,52.0727277706438,0 -1.01149216132259,52.0727873871968,0 -1.01148998985435,52.072854985947,0 -1.01149453218825,52.0728995522419,0 -1.01150545710805,52.072944352882,0 -1.01152275599725,52.0729848017553,0 -1.0115429765514,52.0730196760713,0 -1.01156601471834,52.0730455217568,0 -1.01159142169022,52.073070674659,0 -1.01163098903403,52.0730982226544,0 -1.01177484522185,52.0731836127003,0 -1.01202530007025,52.0733206502716,0 -1.01202717301267,52.0733217233452,0 -1.01234128746045,52.0735099724233,0 -1.01262744121795,52.073671950012,0 -1.01291418851171,52.07383186485,0 -1.01291432594003,52.0738319417499,0 -1.01492333648465,52.0749598915256,0 -1.01590734684144,52.0755075416347,0 -1.01590755901256,52.0755076603333,0 -1.01645994343805,52.0758182953397,0 -1.01657846089484,52.0758841938413,0 -1.01756016110121,52.0764264834756,0 -1.01851396182114,52.0769465024952,0 -1.01859946377102,52.0769857350697,0 -1.01866355806759,52.0770106870841,0 -1.01871900617519,52.0770281518065,0 -1.01878411511373,52.0770461834736,0 -1.01885281298048,52.0770630922312,0 -1.01891945144857,52.0770752348092,0 -1.01897495088675,52.0770846960491,0 -1.01902305201993,52.0770909151856,0 -1.01905924894977,52.0770951904135,0 -1.01913073062009,52.0770994064905,0 -1.0192040835761,52.0770997002941,0 -1.01927768636779,52.0770998968303,0 -1.01934922171398,52.0770968075846,0 -1.01942188627517,52.0770902017154,0 -1.0194914955188,52.077081729221,0 -1.01955941651422,52.0770687230729,0 -1.01962767653392,52.077053703943,0 -1.01969434554983,52.0770339931036,0 -1.01972320816719,52.0770249084765,0 -1.01977823233872,52.0770048308097,0 -1.01979769667443,52.0769960460211,0 -1.01982348605949,52.0769827855216,0 -1.0198431087155,52.0769714849742,0 -1.01988067876115,52.0769462513615,0 -1.0198989570091,52.0769327084109,0 -1.01989901348674,52.0769326666206,0 -1.0199215918551,52.0769159822039,0 -1.01993789418242,52.0769010586803,0 -1.01995408549438,52.0768835848882,0 -1.0199687790061,52.0768627969086,0 -1.01998500440734,52.0768371690953,0 -1.01999525895636,52.076812441814,0 -1.02000044132742,52.0767869286026,0 -1.02008934271505,52.0762105163509,0 -1.02008994345859,52.0762072709736,0 -1.02009073778552,52.0762040674737,0 -1.02010983778552,52.0761358674737,0 -1.02011064960309,52.0761332261309,0 -1.02011159305929,52.0761306288958,0 -1.02011266577263,52.0761280823245,0 -1.02011386503536,52.0761255928449,0 -1.02014526503536,52.0760643928449,0 -1.02014650824926,52.0760621048013,0 -1.02014785836718,52.0760598781657,0 -1.02014931236273,52.0760577179293,0 -1.02015086697669,52.0760556289343,0 -1.02017556697669,52.0760240289343,0 -1.02017726585627,52.0760219611898,0 -1.02017906330566,52.0760199785314,0 -1.02020876330566,52.0759887785314,0 -1.02021146629577,52.0759861279898,0 -1.02024686629577,52.0759537279898,0 -1.02024916056231,52.075951741645,0 -1.02028996056231,52.075918341645,0 -1.02029287459898,52.0759161141901,0 -1.02033257459898,52.0758878141901,0 -1.02033541545435,52.0758859192845,0 -1.02033836842826,52.0758842043291,0 -1.02038466842826,52.0758592043291,0 -1.02038584743276,52.0758585860286,0 -1.02044634743276,52.0758277860286,0 -1.0204487745521,52.0758266242669,0 -1.0204908745521,52.0758077242669,0 -1.02049292707632,52.0758068523811,0 -1.02053082707632,52.0757916523811,0 -1.02053329639502,52.0757907301029,0 -1.02053580706626,52.0757899271945,0 -1.02056850706626,52.0757803271945,0 -1.02056988463974,52.0757799421539,0 -1.02060515330767,52.0757705770274,0 -1.02065302214883,52.0757576125495,0 -1.02065544773351,52.075757014403,0 -1.02070934773351,52.075745014403,0 -1.02071322356272,52.0757442962211,0 -1.02076172356272,52.0757370962211,0 -1.02076562860426,52.0757366584149,0 -1.02081032860426,52.0757332584149,0 -1.02081114746701,52.0757332022722,0 -1.02086354746701,52.0757300022722,0 -1.02086503666349,52.0757299315729,0 -1.02092403666349,52.0757279315729,0 -1.02092718120564,52.0757279149246,0 -1.02097868120564,52.0757291149246,0 -1.02098123012048,52.0757292335241,0 -1.02103853012048,52.0757332335241,0 -1.02104170258487,52.075733547605,0 -1.02109000258487,52.075739747605,0 -1.02109369118557,52.0757403491098,0 -1.02114819118557,52.0757511491098,0 -1.02114965293212,52.075751459472,0 -1.02120085293212,52.075763059472,0 -1.02120317892754,52.0757636400277,0 -1.02126327892754,52.0757800400277,0 -1.02126548866834,52.0757806930506,0 -1.02133488866834,52.0758027930506,0 -1.02133865976159,52.0758041471043,0 -1.02139155976159,52.0758253471043,0 -1.02139428048685,52.0758265235022,0 -1.02143968048685,52.0758476235022,0 -1.0214420037643,52.0758487705632,0 -1.02144427044138,52.0758500257692,0 -1.02148017044138,52.0758710257692,0 -1.02148218289605,52.0758722617139,0 -1.02151618289605,52.0758941617139,0 -1.02151961476181,52.0758965618933,0 -1.02155221476181,52.0759212618933,0 -1.02155466770187,52.075923233366,0 -1.02159856770187,52.075960633366,0 -1.02160040596256,52.0759622718659,0 -1.02160216903918,52.0759639910067,0 -1.02161736903918,52.0759794910067,0 -1.02161781805246,52.0759799542866,0 -1.02164511805246,52.0760084542866,0 -1.02164773495616,52.0760113894391,0 -1.02167203495616,52.0760406894391,0 -1.02167360269552,52.0760426706576,0 -1.02167507779608,52.0760447217822,0 -1.02167645714523,52.0760468384847,0 -1.02169286484263,52.0760733280202,0 -1.02170746843422,52.0760962201368,0 -1.02170860743634,52.0760980864024,0 -1.02170967136457,52.0760999964626,0 -1.02172157136457,52.0761223964626,0 -1.02172239344894,52.0761240072903,0 -1.02173199344894,52.0761436072903,0 -1.02173340704836,52.0761467371456,0 -1.02173462255476,52.0761499491234,0 -1.02174162255476,52.0761703491234,0 -1.02174191361425,52.0761712210199,0 -1.02174931361425,52.0761940210199,0 -1.02175007434319,52.0761965738399,0 -1.02175071057818,52.0761991604987,0 -1.02175122082682,52.0762017749288,0 -1.02175612082682,52.0762305749288,0 -1.02175627236066,52.0762315146879,0 -1.02175947236066,52.0762525146879,0 -1.02175980659537,52.0762551265158,0 -1.02176001544152,52.0762577513474,0 -1.02176009842043,52.0762603831666,0 -1.02176005534191,52.0762630159412,0 -1.02175905534191,52.0762878159412,0 -1.02175882205222,52.0762911224089,0 -1.02175662205222,52.0763129224089,0 -1.02175629645608,52.0763155256117,0 -1.02175269645608,52.0763396256117,0 -1.02175189720928,52.076343842575,0 -1.02174459720928,52.076375542575,0 -1.02174392665373,52.0763781589212,0 -1.02174312846338,52.0763807391934,0 -1.02174220456308,52.0763832771691,0 -1.02172930456308,52.0764161771691,0 -1.02172892443318,52.0764171208704,0 -1.02171432443318,52.0764524208704,0 -1.02171321072375,52.0764549338893,0 -1.02171197285069,52.076457388127,0 -1.02171061390587,52.0764597774536,0 -1.02170913728356,52.0764620959012,0 -1.02167893728356,52.0765069959012,0 -1.02167761925305,52.0765088699833,0 -1.02167622431379,52.0765106875455,0 -1.02164762431379,52.0765463875455,0 -1.0216470802843,52.0765470558341,0 -1.02140572930916,52.0768388338851,0 -1.02112786986381,52.0771887050703,0 -1.02112776691893,52.0771888342959,0 -1.02091776691893,52.0774516342959,0 -1.02091770578827,52.0774517106573,0 -1.02082170578827,52.0775714106573,0 -1.020820438088,52.0775729342403,0 -1.02079526290933,52.0776021054791,0 -1.02076688769297,52.0776350766812,0 -1.02076532737333,52.0776368137463,0 -1.02076369473166,52.0776384830197,0 -1.02073379473166,52.0776677830197,0 -1.02073350025471,52.0776680694395,0 -1.02070460025471,52.0776959694395,0 -1.02070428723037,52.0776962692585,0 -1.02065198723037,52.0777459692585,0 -1.02065001661294,52.0777477532942,0 -1.02059991661294,52.0777909532942,0 -1.02059686147274,52.0777934035555,0 -1.02055096147274,52.0778276035555,0 -1.02054995320917,52.077828337184,0 -1.02047605320917,52.077880837184,0 -1.02047560237159,52.0778811540813,0 -1.02038990237159,52.0779407540813,0 -1.0203896171824,52.0779409510855,0 -1.0203023171824,52.0780008510855,0 -1.02030211891892,52.0780009864865,0 -1.02022561891892,52.0780529864865,0 -1.02022316231532,52.0780545626881,0 -1.02014776231532,52.0781001626881,0 -1.02014597688157,52.0781011972347,0 -1.01996297688157,52.0782026972347,0 -1.01996043966437,52.078204019395,0 -1.01976103966437,52.078301419395,0 -1.01975969910215,52.0783020519824,0 -1.01966529910215,52.0783450519824,0 -1.01966472780021,52.0783453082985,0 -1.01958392780021,52.0783810082985,0 -1.01958374095012,52.0783810904407,0 -1.01951904095012,52.0784093904407,0 -1.01951600581663,52.07841061181,0 -1.01936610581663,52.07846581181,0 -1.01936448136098,52.0784663813021,0 -1.01922428136098,52.0785130813021,0 -1.01922149220817,52.0785139289304,0 -1.01912119220817,52.0785415289304,0 -1.0191198217838,52.0785418871186,0 -1.0190237217838,52.0785656871186,0 -1.01902168377561,52.0785661509347,0 -1.01889408377561,52.0785926509347,0 -1.01889237078276,52.0785929784484,0 -1.01873677078276,52.0786201784484,0 -1.0187356267264,52.0786203660338,0 -1.0186122267264,52.0786392660338,0 -1.01861041389849,52.0786395129026,0 -1.01849471389849,52.0786533129026,0 -1.01849369362427,52.0786534249495,0 -1.01836419362427,52.0786664249495,0 -1.01836361561025,52.0786664798939,0 -1.01823211561025,52.0786782798939,0 -1.01823126653767,52.0786783494601,0 -1.01806266653767,52.0786908494601,0 -1.01806256942811,52.0786908565734,0 -1.01782486942811,52.0787080565734,0 -1.01782426892253,52.0787080967245,0 -1.01720016892253,52.0787463967245,0 -1.01720001116838,52.0787464061781,0 -1.01525591116838,52.0788601061781,0 -1.01525542514227,52.0788601324458,0 -1.01272362514227,52.0789857324458,0 -1.01272221008338,52.0789857843949,0 -1.01244101008338,52.0789924843949,0 -1.01236225761266,52.07899428562,0 -1.01236024664602,52.0789942948403,0 -1.01229454664602,52.0789933948403,0 -1.01229301032004,52.078993352319,0 -1.01222101032004,52.078990352319,0 -1.01221708453369,52.0789900476713,0 -1.01214938453369,52.0789823476713,0 -1.01214643891321,52.0789819316742,0 -1.01203573891321,52.0789632316742,0 -1.01203230283664,52.0789625379443,0 -1.01194220283664,52.0789413379443,0 -1.01194062855422,52.0789409429217,0 -1.01185212855422,52.0789173429217,0 -1.01185026975597,52.078916812083,0 -1.01174786975597,52.078885612083,0 -1.01174432212856,52.0788843975384,0 -1.01163012212856,52.0788408975384,0 -1.01162784042866,52.0788399693882,0 -1.01162560257522,52.0788389400052,0 -1.01149060257522,52.0787731400052,0 -1.01148685810798,52.0787711323629,0 -1.01139775810798,52.0787188323629,0 -1.01139416114428,52.0787165286866,0 -1.01133746114428,52.0786770286866,0 -1.01133514987925,52.0786753272881,0 -1.01128084987925,52.0786331272881,0 -1.01127891828904,52.0786315546951,0 -1.01127705987983,52.0786298962607,0 -1.01123165987983,52.0785874962607,0 -1.01123004306432,52.0785859229775,0 -1.01118664306432,52.0785419229775,0 -1.01118504190442,52.0785402293602,0 -1.01118351393463,52.0785384694281,0 -1.01114101393463,52.0784873694281,0 -1.01113882536786,52.078484557489,0 -1.01113682347437,52.0784816097359,0 -1.01105962347437,52.0783596097359,0 -1.01105839082179,52.0783575648372,0 -1.0109860101167,52.0782313728217,0 -1.01092673122064,52.0781300797586,0 -1.01092563337837,52.0781281124633,0 -1.01092461702381,52.0781261018586,0 -1.01087771702381,52.0780284018586,0 -1.01087751911531,52.0780279851132,0 -1.01081071911531,52.0778857851132,0 -1.01081049870459,52.0778853100514,0 -1.01065159870459,52.0775385100514,0 -1.01065037668207,52.0775356292711,0 -1.01054327668207,52.0772617292711,0 -1.01054204359198,52.0772582325514,0 -1.01049405498201,52.0771059686911,0 -1.01042876642156,52.0768998048141,0 -1.01042796083137,52.0768970054672,0 -1.01037156083137,52.0766795054672,0 -1.01037079188447,52.076676098243,0 -1.01034759188447,52.076555598243,0 -1.01034720981797,52.0765533675026,0 -1.01032900981797,52.0764321675026,0 -1.01032894348695,52.0764317128585,0 -1.01030414348695,52.0762566128585,0 -1.01030399316598,52.0762554645775,0 -1.01028389316598,52.0760882645775,0 -1.01028380905758,52.0760875224408,0 -1.01025760905758,52.0758414224408,0 -1.01025755525533,52.0758408927243,0 -1.01023105525533,52.0755667927243,0 -1.01023094524933,52.0755654945374,0 -1.01020104524933,52.0751548945374,0 -1.01020097427945,52.0751537574853,0 -1.01017979194137,52.0747465969775,0 -1.01017274972423,52.0746372938324,0 -1.01016414330555,52.0745358750124,0 -1.01015583247669,52.0744799658,0 -1.01014447241056,52.0744254933518,0 -1.0101272218797,52.0743691478678,0 -1.0101033958184,52.0743035316514,0 -1.01006972596146,52.0742326378971,0 -1.01004458504202,52.0741912293239,0 -1.01000972947137,52.0741388974225,0 -1.0099665331669,52.0740776372089,0 -1.00992161404853,52.0740170897758,0 -1.00988881406333,52.0739749854968,0 -1.00985452735925,52.0739390886437,0 -1.00985417069579,52.0739387116863,0 -1.00980621386444,52.0738875447627,0 -1.00975575583563,52.0738408783777,0 -1.00975517598072,52.0738403342662,0 -1.00961337598072,52.0737053342662,0 -1.00961182487486,52.0737037977087,0 -1.00961033597578,52.0737022008,0 -1.00957073597578,52.0736580008,0 -1.00956875174846,52.0736556576438,0 -1.00956690137117,52.0736532074107,0 -1.00956519061067,52.0736506577367,0 -1.00953729061067,52.0736064577367,0 -1.00953553867334,52.0736034788618,0 -1.00950913867334,52.0735551788618,0 -1.00950763944691,52.0735522283451,0 -1.00950632039857,52.0735491929968,0 -1.00949582039856,52.0735228929968,0 -1.00949475286593,52.073519983604,0 -1.00949385089729,52.0735170187018,0 -1.00948605089729,52.0734885187018,0 -1.00948540462215,52.0734859082491,0 -1.00947990462215,52.0734611082491,0 -1.00947942701015,52.0734587019561,0 -1.00947905717749,52.0734562767586,0 -1.00947495717749,52.0734246767586,0 -1.00947467193877,52.0734219455381,0 -1.00947452337918,52.0734192034848,0 -1.00947383726549,52.0733956795868,0 -1.00947265939527,52.073370355377,0 -1.00947260017734,52.0733679396688,0 -1.00947264712549,52.073365523691,0 -1.00947280014908,52.0733631121071,0 -1.00947570014908,52.0733292121071,0 -1.00947622558855,52.0733249956044,0 -1.00948042558855,52.0732993956044,0 -1.00948112376493,52.0732958666965,0 -1.00948662376493,52.0732721666965,0 -1.00948720331273,52.0732698911204,0 -1.00948787946556,52.0732676423564,0 -1.00949607946556,52.0732423423564,0 -1.00949700385626,52.0732397184677,0 -1.00949805974108,52.0732371446771,0 -1.00951385974108,52.0732012446771,0 -1.00951493682617,52.0731989431052,0 -1.00953593682617,52.0731566431052,0 -1.00953600650449,52.0731565032522,0 -1.00955090650449,52.0731267032522,0 -1.0095523814865,52.0731239514448,0 -1.0095813814865,52.0730733514448,0 -1.00958260224125,52.0730713238459,0 -1.00968357635049,52.0729114979629,0 -1.00977557018107,52.0727560841431,0 -1.00983939110909,52.0726484488175,0 -1.00983947664194,52.0726483050633,0 -1.00988407664194,52.0725736050633,0 -1.00988449382701,52.072572917788,0 -1.00991798461837,52.0725186430055,0 -1.00996387357825,52.0724380505197,0 -1.00997378813208,52.0724144607192,0 -1.00998846913763,52.0723754073254,0 -1.01000707196916,52.0723217818161,0 -1.01001960919999,52.0722724749456,0 -1.01003159156433,52.0722153209697,0 -1.01003865232617,52.0721650594939,0 -1.01004211045783,52.0721125504948,0 -1.01004001265567,52.0720701574094,0 -1.01003130362056,52.0720149094679,0 -1.01002090536768,52.071975396107,0 -1.00999979370585,52.0719232907288,0 -1.00997426456998,52.0718752358848,0 -1.00995327217514,52.0718380884731,0 -1.0099213944807,52.0717949650364,0 -1.00987916878349,52.0717510870293,0 -1.00984733893663,52.0717222267309,0 -1.00979553967846,52.0716800487233,0 -1.00954534393984,52.0714833952708,0 -1.00947150018452,52.0714298165354,0 -1.00946944177238,52.0714282477845,0 -1.00943644177238,52.0714018477845,0 -1.00943483676538,52.0714005130479,0 -1.00939653676538,52.0713674130479,0 -1.00939367589234,52.0713647575238,0 -1.00936447589234,52.0713356575238,0 -1.0093622888334,52.0713333481134,0 -1.00936023892941,52.0713309161395,0 -1.00935833303592,52.0713283697354,0 -1.00932713303592,52.0712840697354,0 -1.00932584333713,52.0712821543466,0 -1.00932463517297,52.071280186511,0 -1.00929413517297,52.071228086511,0 -1.00929300700468,52.0712260627795,0 -1.00929196507093,52.0712239933285,0 -1.00927826507093,52.0711952933285,0 -1.00927759537121,52.071193836104,0 -1.00925929537121,52.071152436104,0 -1.00925805829724,52.0711493951264,0 -1.00925700486332,52.0711462857576,0 -1.00925613882278,52.0711431190762,0 -1.00924093882278,52.0710802190762,0 -1.00924028647531,52.0710771349604,0 -1.0092398118944,52.0710740185361,0 -1.0092350118944,52.0710350185361,0 -1.00923475541297,52.0710324317397,0 -1.00923462144434,52.0710298357138,0 -1.00923362144434,52.0709940357138,0 -1.00923364698834,52.0709902270044,0 -1.00923534698834,52.0709491270044,0 -1.00923551825239,52.0709465050916,0 -1.00923581454121,52.0709438943501,0 -1.00924121454121,52.0709046943501,0 -1.00924180868571,52.0709012124505,0 -1.00925230868571,52.0708497124505,0 -1.00925297330249,52.0708468465285,0 -1.00925379021314,52.0708440202446,0 -1.00925475708031,52.0708412416852,0 -1.00927075708031,52.0707989416852,0 -1.00927207606443,52.0707957595256,0 -1.0092735916646,52.0707926661754,0 -1.0092978916646,52.0707467661754,0 -1.00929957704916,52.0707438078986,0 -1.00930144224437,52.0707409595711,0 -1.00933084224437,52.0706989595711,0 -1.00933231034493,52.0706969598454,0 -1.00933386712661,52.0706950283556,0 -1.00936846712661,52.0706540283556,0 -1.00936956749731,52.0706527640473,0 -1.00942646749731,52.0705893640473,0 -1.00942822012631,52.0705875002915,0 -1.00943005753012,52.0705857200552,0 -1.00943197573309,52.0705840271903,0 -1.00947247573309,52.0705499271903,0 -1.00947435054154,52.0705484175054,0 -1.0094762896103,52.0705469912979,0 -1.0095323896103,52.0705075912979,0 -1.00953426618039,52.0705063301397,0 -1.00959386618039,52.0704680301397,0 -1.00959624866528,52.0704665830796,0 -1.00959870140663,52.0704652585884,0 -1.00971550140663,52.0704059585884,0 -1.00971864979073,52.0704044833849,0 -1.00972568353368,52.0704014549678,0 -1.00978221025267,52.0703766747689,0 -1.00983960295631,52.0703512223525,0 -1.00984191205402,52.0703502605424,0 -1.00992061205402,52.0703195605424,0 -1.00992088367841,52.0703194554125,0 -1.00999568932031,52.070290730046,0 -1.01009429553222,52.070252006149,0 -1.01009473328249,52.070251836392,0 -1.01019293328249,52.070214236392,0 -1.01019302786365,52.0702142002774,0 -1.01027732786365,52.0701821002774,0 -1.01027754,52.07018202,0 -1.01037114,52.07014682,0 -1.01037174483706,52.0701465965778,0 -1.01044314483706,52.0701206965778,0 -1.01044485718739,52.0701201071464,0 -1.01049405077355,52.0701040744189,0 -1.01056861123983,52.0700791215162,0 -1.01066991132324,52.0700442074098,0 -1.01076589099902,52.070004942997,0 -1.01080735016843,52.069984888329,0 -1.01080988611067,52.0699837399038,0 -1.01086921913955,52.0699586599887,0 -1.01093558340577,52.069925960154,0 -1.01098281014488,52.0699002435693,0 -1.01102854290263,52.0698723437108,0 -1.01107617546363,52.069840971261,0 -1.01110930823249,52.0698161920798,0 -1.01114783674459,52.069784983985,0 -1.01118443957176,52.0697534595605,0 -1.01123056267534,52.069709845245,0 -1.01128068492924,52.0696587609517,0 -1.01134131474268,52.0695883204888,0 -1.01134192191402,52.0695876269108,0 -1.01237740315083,52.0684245972564,0 -1.01319699526697,52.0674604770671,0 -1.01319718943644,52.0674602499109,0 -1.01433438943644,52.0661371499109,0 -1.01433487162434,52.0661365964145,0 -1.0147361015242,52.065682189059,0 -1.01492023323188,52.0654696832846,0 -1.01492090645461,52.0654689206859,0 -1.01511310645461,52.0652552206859,0 -1.01511458758491,52.065253637759,0 -1.01517649051042,52.0651900402284,0 -1.01529739552713,52.0650632447113,0 -1.01529758810276,52.0650630437738,0 -1.01538408810276,52.0649732437738,0 -1.01538500704113,52.064972312215,0 -1.01544440704113,52.064913512215,0 -1.01544478733527,52.0649131393903,0 -1.01549957480813,52.0648599457348,0 -1.01561266451602,52.0647477543564,0 -1.01561319865713,52.0647472316111,0 -1.01571739865713,52.0646466316111,0 -1.01571820445375,52.0646458692038,0 -1.01589270445375,52.0644840692038,0 -1.01589317504206,52.0644836379161,0 -1.01603123316916,52.0643585758473,0 -1.01610087845352,52.0642952256174,0 -1.01616026553182,52.0642411373861,0 -1.01616132994531,52.0642401928472,0 -1.01630082994531,52.0641195928472,0 -1.01630149348389,52.064119028328,0 -1.01638692989737,52.0640475001679,0 -1.01648527912119,52.0639605869003,0 -1.01648647400305,52.0639595610471,0 -1.01659127400305,52.0638721610471,0 -1.01659210757286,52.0638714795975,0 -1.01666860757286,52.0638101795975,0 -1.01667009705725,52.0638090273741,0 -1.01672099705725,52.0637710273741,0 -1.01672289242516,52.0637696739028,0 -1.01678149242515,52.0637296739028,0 -1.0167830961785,52.0637286197323,0 -1.01682909617851,52.0636995197323,0 -1.01683118844926,52.0636982602975,0 -1.01687418844926,52.0636736602975,0 -1.01687642504599,52.0636724485273,0 -1.01692952504599,52.0636452485273,0 -1.01693045610526,52.0636447826716,0 -1.01696545610526,52.0636276826716,0 -1.01696586105921,52.0636274868698,0 -1.01700506664015,52.0636087277437,0 -1.01704857391338,52.0635872721021,0 -1.01705053118034,52.0635863542449,0 -1.01705252300514,52.0635855140129,0 -1.01710592300514,52.0635642140129,0 -1.01710842433157,52.0635632859588,0 -1.01711096772001,52.0635624802954,0 -1.01717986772001,52.0635424802954,0 -1.01718063332233,52.0635422640509,0 -1.01726073332233,52.0635202640509,0 -1.01726259101631,52.0635197884897,0 -1.01732659101631,52.0635045884897,0 -1.01732984456742,52.0635039188705,0 -1.01740204456742,52.0634913188705,0 -1.01740271484515,52.0634912061601,0 -1.01747131484515,52.0634801061601,0 -1.01747456776104,52.0634796789407,0 -1.01756556776104,52.0634704789407,0 -1.01756792066177,52.0634702919695,0 -1.01763182066177,52.0634665919695,0 -1.01763233753541,52.0634665644807,0 -1.01769423753541,52.0634635644807,0 -1.01769522514986,52.063463525507,0 -1.01775102514986,52.063461825507,0 -1.01775308514462,52.0634618013485,0 -1.01782448514462,52.0634623013485,0 -1.01782696481084,52.0634623746611,0 -1.01793816481084,52.063468174661,0 -1.01794129332905,52.0634684275206,0 -1.01802339332905,52.0634774275206,0 -1.01802665630546,52.0634778844966,0 -1.01810455630546,52.0634911844966,0 -1.01810564690398,52.0634913820254,0 -1.01818134690398,52.0635058820254,0 -1.01818344700046,52.0635063269454,0 -1.01825704700046,52.0635234269454,0 -1.01825825578882,52.0635237222426,0 -1.01833745578882,52.0635440222426,0 -1.01834058568625,52.0635449240443,0 -1.01843138568625,52.0635740240443,0 -1.0184339744533,52.0635749254377,0 -1.0185059744533,52.0636020254377,0 -1.01850915091953,52.0636033357096,0 -1.01857455091953,52.0636327357096,0 -1.01857547478822,52.0636331613398,0 -1.01861827478822,52.0636533613398,0 -1.01862145026713,52.0636549880133,0 -1.01866225026713,52.0636775880133,0 -1.01866360445656,52.0636783634347,0 -1.01871578575385,52.0637092340495,0 -1.01875786586478,52.0637336066906,0 -1.01876062804189,52.0637353174339,0 -1.01876328438401,52.0637371882923,0 -1.01880838438401,52.0637709882923,0 -1.01880925809233,52.0637716568393,0 -1.01884535809233,52.0637998568393,0 -1.01884794156352,52.0638020051891,0 -1.01888694156352,52.0638365051891,0 -1.01888867085398,52.0638381021982,0 -1.01893307085398,52.0638809021982,0 -1.01893527837772,52.0638831558356,0 -1.01896727837772,52.0639177558356,0 -1.01896876568479,52.063919431184,0 -1.01897018353115,52.0639211657116,0 -1.01900938353115,52.0639711657116,0 -1.0190107969808,52.0639730503525,0 -1.01901212842868,52.0639749937921,0 -1.01905542842868,52.0640411937921,0 -1.01905612548997,52.0640422874409,0 -1.01909308435323,52.0641018106628,0 -1.01913202570451,52.0641555128255,0 -1.01913279942626,52.0641566076615,0 -1.01917129327096,52.0642125107827,0 -1.0192102109412,52.0642599807311,0 -1.01925033196062,52.0643082250186,0 -1.01929007173834,52.0643546212091,0 -1.01929019394333,52.0643547643786,0 -1.01933791018479,52.0644108605385,0 -1.01938918949041,52.0644666587101,0 -1.01945233051187,52.0645338510334,0 -1.01953096864649,52.0646127848001,0 -1.01973023292539,52.064800895856,0 -1.01979327668577,52.0648590976975,0 -1.01987108462988,52.0649272290191,0 -1.01997856773466,52.0650173091557,0 -1.02004458472271,52.0650686996254,0 -1.02004503372651,52.0650690529099,0 -1.02010372257997,52.0651157259405,0 -1.02017445047914,52.0651698004562,0 -1.02024113794313,52.0652158629314,0 -1.02040599945648,52.0653284488626,0 -1.02047623864939,52.0653710835615,0 -1.0204777390788,52.0653720277335,0 -1.0209504390788,52.0656802277335,0 -1.020951758646,52.0656811155412,0 -1.021280858646,52.0659095155412,0 -1.02128194746514,52.0659102909693,0 -1.0217986874926,52.0662878471504,0 -1.02201301316742,52.0664435580756,0 -1.02205306638328,52.066468185983,0 -1.02209811732122,52.0664865810729,0 -1.02214071073985,52.0664971673983,0 -1.02219728542993,52.0665002673814,0 -1.02225306593349,52.0664953508306,0 -1.02230602937869,52.0664853526292,0 -1.02235562067437,52.066469811695,0 -1.02240626500923,52.0664446678527,0 -1.02272700190275,52.0662466036329,0 -1.02272955989268,52.066245117511,0 -1.02273219408929,52.066243771079,0 -1.02276129408929,52.066229871079,0 -1.02276368172979,52.0662287995922,0 -1.02281838172979,52.0662057995922,0 -1.02282075728836,52.0662048649956,0 -1.02282317365515,52.0662040416363,0 -1.02282562562461,52.0662033312878,0 -1.02282810791446,52.0662027354805,0 -1.02290370791446,52.0661864354805,0 -1.02290695496992,52.0661858367728,0 -1.02291023210011,52.0661854339851,0 -1.02301073210011,52.0661761339851,0 -1.02301348196563,52.0661759488697,0 -1.02301623765192,52.0661759017413,0 -1.02305393765192,52.0661762017413,0 -1.02305428283884,52.0661762055715,0 -1.02311048283884,52.0661770055715,0 -1.0231137899072,52.0661771522775,0 -1.02311708215965,52.0661774976724,0 -1.02318648215965,52.0661868976724,0 -1.02318944559292,52.0661873817743,0 -1.02319237819019,52.0661880268826,0 -1.02325387819019,52.0662033268826,0 -1.02325753488695,52.0662043720954,0 -1.02331593488695,52.0662232720954,0 -1.02331838761762,52.0662241303946,0 -1.02332079707023,52.066225103587,0 -1.02332315786626,52.0662261895001,0 -1.02339085786626,52.0662592895001,0 -1.0233931285795,52.0662604658815,0 -1.02339534215448,52.0662617465445,0 -1.02348124215448,52.0663141465445,0 -1.02348249491647,52.0663149340605,0 -1.02361329491647,52.0663996340605,0 -1.02361538938208,52.0664010598677,0 -1.02373468938208,52.0664863598677,0 -1.02373628778937,52.0664875470391,0 -1.02384598778937,52.0665721470391,0 -1.02384720156633,52.0665731106706,0 -1.02388220156633,52.0666017106706,0 -1.02388466250283,52.0666038462501,0 -1.02397086250283,52.0666832462501,0 -1.02397267613209,52.0666849952729,0 -1.02397440775532,52.0666868255223,0 -1.02404190775532,52.0667615255223,0 -1.0240431767549,52.0667629804193,0 -1.0241261767549,52.0668615804193,0 -1.02412771573851,52.0668634937714,0 -1.02412916778784,52.0668654739076,0 -1.02420296778784,52.0669709739077,0 -1.0242045809509,52.0669734158321,0 -1.02420606193681,52.0669759401084,0 -1.02426606193681,52.0670847401084,0 -1.02426714434458,52.0670868052143,0 -1.02426813825467,52.0670889143401,0 -1.02430703825467,52.0671762143401,0 -1.02430812254736,52.0671788263779,0 -1.02434372254736,52.0672712263779,0 -1.02434482136672,52.0672743566737,0 -1.02434572945625,52.0672775475245,0 -1.02435684427532,52.067321609843,0 -1.024368554825,52.0673656732672,0 -1.02436944357015,52.0673695876288,0 -1.02438314357015,52.0674420876288,0 -1.0243836273559,52.0674451050394,0 -1.02438394280417,52.0674481446624,0 -1.02438408894109,52.0674511971137,0 -1.0243840653155,52.0674542529699,0 -1.02438387200036,52.0674573027969,0 -1.02437807200036,52.0675208027969,0 -1.02437768583152,52.0675239964218,0 -1.0243771136116,52.0675271620072,0 -1.02437635729813,52.0675302887237,0 -1.02436215729813,52.0675822887237,0 -1.02436135562318,52.0675849566269,0 -1.0243604198907,52.0675875805161,0 -1.02435935250125,52.0675901536601,0 -1.02435815619311,52.0675926694575,0 -1.02435683403532,52.0675951214544,0 -1.02433073403532,52.0676407214544,0 -1.02432935307451,52.0676430039268,0 -1.02432786306165,52.0676452167519,0 -1.0243262675022,52.0676473547236,0 -1.02432457014993,52.0676494128121,0 -1.02432277499811,52.0676513861754,0 -1.02428667499811,52.0676891861754,0 -1.02428450525417,52.0676913353318,0 -1.02428221956594,52.0676933607431,0 -1.02422921956594,52.0677377607431,0 -1.02422756416702,52.067739093952,0 -1.02411339645284,52.0678274593643,0 -1.02409472200303,52.0678425162505,0 -1.02409423506668,52.0678429043312,0</coordinates></LineString>
  </Placemark>
</Folder>
</Document></kml>
