<?xml version="1.0" encoding="utf-8" ?>
<kml xmlns="http://www.opengis.net/kml/2.2">
<Document id="root_doc">
<Schema name="mia_international_boundary_lines" id="mia_international_boundary_lines">
	<SimpleField name="FID" type="string"></SimpleField>
</Schema>
<Folder><name>mia_international_boundary_lines</name>
  <Placemark id="mia_international_boundary_lines.1">
	<Style><LineStyle><color>ff0000ff</color></LineStyle><PolyStyle><fill>0</fill></PolyStyle></Style>
	<ExtendedData><SchemaData schemaUrl="#mia_international_boundary_lines">
		<SimpleData name="FID">0</SimpleData>
	</SchemaData></ExtendedData>
      <LineString><coordinates>-80.2380359968539,25.9595051026346,0 -80.2378294083547,25.9593926088971,0 -80.2376361418735,25.9592874815247,0 -80.2374503649255,25.9591876476511,0 -80.2374501507532,25.9591875319464,0 -80.2372529507532,25.9590804319464,0 -80.2370694586454,25.9589807362353,0 -80.2368751747742,25.9588753449846,0 -80.2366885393752,25.9587739257652,0 -80.2366882987366,25.958773794222,0 -80.236341541505,25.9585831177397,0 -80.2361229843126,25.9584634411801,0 -80.2356119778545,25.9581835376433,0 -80.2356116699488,25.958183367706,0 -80.2353629699488,25.958045067706,0 -80.2353602479756,25.9580434497391,0 -80.2353576236269,25.9580416778053,0 -80.2352991236269,25.9579996778053,0 -80.2352969700516,25.9579980500944,0 -80.2352948989373,25.9579963186743,0 -80.2352929152736,25.9579944877161,0 -80.2352910238391,25.9579925616306,0 -80.2352892291904,25.9579905450578,0 -80.2352875356508,25.9579884428558,0 -80.2352859473001,25.9579862600888,0 -80.2352544473001,25.9579406600888,0 -80.2352528448445,25.9579382026805,0 -80.2352513757011,25.957935663323,0 -80.2352500440498,25.9579330492412,0 -80.2352488536794,25.9579303678727,0 -80.2352478079768,25.9579276268464,0 -80.2352469099172,25.9579248339612,0 -80.2352461620557,25.9579219971633,0 -80.2352333620558,25.9578675971633,0 -80.2352327417002,25.9578645853308,0 -80.2352322906405,25.9578615435351,0 -80.2352320102864,25.9578584812847,0 -80.2352319015145,25.957855408152,0 -80.2352315015145,25.957801508152,0 -80.2352315500562,25.9577987540093,0 -80.2352317364298,25.957796005751,0 -80.2352320601677,25.9577932702707,0 -80.2352325204581,25.9577905544298,0 -80.2352331161462,25.9577878650406,0 -80.2352338457379,25.9577852088488,0 -80.2352472457379,25.9577408088488,0 -80.23524818097,25.9577379879202,0 -80.2352492672096,25.9577352216264,0 -80.2352505012852,25.9577325180445,0 -80.2352518795935,25.9577298850683,0 -80.2352533981103,25.9577273303855,0 -80.2352761981103,25.9576912303855,0 -80.2352779122766,25.9576886772834,0 -80.2352797664574,25.9576862239776,0 -80.2352817548562,25.9576838781373,0 -80.2352838712569,25.9576816470963,0 -80.2352861090432,25.9576795378291,0 -80.2353761090432,25.9575993378291,0 -80.2353786253992,25.9575972268419,0 -80.2353812632782,25.9575952698269,0 -80.2355593268077,25.9574712345472,0 -80.2357117291928,25.9573626847194,0 -80.2357975586651,25.9572867513281,0 -80.2358684430198,25.9572091031992,0 -80.235893308701,25.9571552954956,0 -80.235909651985,25.9570924433979,0 -80.2359134876046,25.9570438879413,0 -80.2359132262789,25.9569981559553,0 -80.235901481758,25.9569284345137,0 -80.2358869169013,25.956853765348,0 -80.2358675032349,25.956777581415,0 -80.2358667822085,25.9567743478597,0 -80.2358662571775,25.9567710767586,0 -80.2358621571775,25.9567394767586,0 -80.235861874454,25.9567367771568,0 -80.2358617252652,25.9567340668938,0 -80.2358617099746,25.956731352571,0 -80.2358623099746,25.956699852571,0 -80.2358625390452,25.956695777712,0 -80.2358722390452,25.956592077712,0 -80.2358726007145,25.9565890933526,0 -80.2358731249019,25.9565861332118,0 -80.2358738100415,25.9565832061331,0 -80.2358949100415,25.9565030061331,0 -80.2358959015932,25.9564996700743,0 -80.2358971021536,25.9564964034065,0 -80.2359576021536,25.9563466034065,0 -80.2359587635648,25.9563439335063,0 -80.2359600646374,25.9563413288081,0 -80.2359615017251,25.9563387966111,0 -80.2359969017251,25.9562800966111,0 -80.235998392415,25.9562777599904,0 -80.2359999989248,25.9562755014337,0 -80.2360017171748,25.9562733266764,0 -80.2360487171748,25.9562168266764,0 -80.236051018259,25.9562142314895,0 -80.2360534783447,25.9562117865024,0 -80.2361759783447,25.9560974865024,0 -80.2361778878495,25.9560957861033,0 -80.2361798743185,25.9560941762875,0 -80.2361819334587,25.9560926605343,0 -80.2361840608197,25.9560912421195,0 -80.2363598608197,25.9559798421195,0 -80.2363620378149,25.9559785320896,0 -80.2363642729888,25.9559773239986,0 -80.2363665615714,25.9559762204247,0 -80.2365667615714,25.9558853204247,0 -80.2365701396092,25.955883920147,0 -80.2367674396093,25.955809720147,0 -80.2367704115314,25.9558086983991,0 -80.2367734369601,25.9558078480632,0 -80.2369331369601,25.9557678480632,0 -80.2369358960437,25.9557672318973,0 -80.2371236960437,25.9557303318973,0 -80.237127725951,25.9557296943054,0 -80.237260625951,25.9557136943054,0 -80.2372644100608,25.955713370807,0 -80.2374160100608,25.955705670807,0 -80.2374184933846,25.9557056008547,0 -80.2375619933845,25.9557048008547,0 -80.2375646876138,25.955704851849,0 -80.2375673761117,25.9557050347456,0 -80.2377410761117,25.9557211347456,0 -80.2377448898143,25.9557216231983,0 -80.2378779898143,25.9557434231983,0 -80.2378809289109,25.9557439870884,0 -80.2380144289109,25.9557733870884,0 -80.23801704119,25.9557740297444,0 -80.23813574119,25.9558063297444,0 -80.2381385578894,25.9558071777322,0 -80.2383364578894,25.9558725777322,0 -80.2383395765678,25.9558737138425,0 -80.2383426210357,25.9558750360061,0 -80.2384516210357,25.9559263360061,0 -80.238452847035,25.9559269316802,0 -80.238570147035,25.9559857316802,0 -80.2385717121072,25.9559865479014,0 -80.2389956121072,25.9562163479014,0 -80.2389959530562,25.9562165342943,0 -80.2401044530562,25.9568276342943,0 -80.2404720779105,25.9570305480045,0 -80.2404730276622,25.9570310845843,0 -80.2405481333384,25.9570745050534,0 -80.2406354013717,25.9571169882827,0 -80.2407195641778,25.9571499535831,0 -80.2408280684589,25.9571687062577,0 -80.2409310278375,25.9571776217346,0 -80.241025110464,25.9571784822464,0 -80.2411324466436,25.9571708976685,0 -80.2412330385133,25.9571553354594,0 -80.241320162062,25.9571267567157,0 -80.2414193745301,25.9570819935547,0 -80.2416856412061,25.9569122818691,0 -80.2417682441994,25.9568591442724,0 -80.2417717575693,25.9568570643524,0 -80.2418614575693,25.9568083643524,0 -80.24186412705,25.956807007787,0 -80.2418668664033,25.9568057985143,0 -80.2418696675095,25.9568047401185,0 -80.2419644675095,25.9567718401185,0 -80.2419674849668,25.9567708892376,0 -80.2419705521064,25.9567701134296,0 -80.2420725521064,25.9567474134296,0 -80.2420749224182,25.9567469403293,0 -80.2420773112273,25.9567465718279,0 -80.2421797112273,25.9567330718279,0 -80.2421823007258,25.9567327926403,0 -80.2421849005379,25.9567326363561,0 -80.2421875048338,25.9567326033258,0 -80.2423148048338,25.9567340033258,0 -80.2423175888883,25.9567341045044,0 -80.242320364248,25.9567343465276,0 -80.2423231237921,25.9567347287743,0 -80.2424423237921,25.9567543287743,0 -80.2424448739063,25.9567548101359,0 -80.2424473984751,25.9567554112541,0 -80.2424498918781,25.9567561307904,0 -80.2425462918781,25.9567864307904,0 -80.2425486514499,25.956787231607,0 -80.2425509723287,25.9567881384742,0 -80.2426679723287,25.9568369384742,0 -80.2426708526536,25.956838238198,0 -80.2426736535804,25.9568397011957,0 -80.2426763658634,25.9568413226378,0 -80.2426789805491,25.9568430971721,0 -80.2428157805491,25.9569417971721,0 -80.2428177114153,25.9569432559234,0 -80.2428195762441,25.9569447981989,0 -80.2431506467857,25.957231100097,0 -80.2432294595976,25.9572767143615,0 -80.2433700407807,25.9573272134765,0 -80.243472559954,25.9573517309889,0 -80.2435500354726,25.957361775834,0 -80.243652297706,25.9573639617368,0 -80.2437400519523,25.9573582448478,0 -80.243819931274,25.9573472400956,0 -80.2439566848912,25.9573161464364,0 -80.2440833689735,25.957281209115,0 -80.244243458302,25.9572168086717,0 -80.244404632824,25.9571220001294,0 -80.2445484435999,25.9569870537554,0 -80.2446148876657,25.9568914708115,0 -80.2446692580103,25.9567894436779,0 -80.2447044420354,25.9566975793827,0 -80.2447210322979,25.9566029601931,0 -80.2447233738817,25.9565183821878,0 -80.2447208636084,25.9564452256513,0 -80.2446978489956,25.9563646745065,0 -80.2446737001863,25.9563078134803,0 -80.2446363836231,25.9562590969122,0 -80.2445913799242,25.956222536684,0 -80.2445387515084,25.95619171272,0 -80.2444855659488,25.9561712043682,0 -80.2444360822372,25.9561628200848,0 -80.2443817413734,25.9561642292482,0 -80.2442757477728,25.9561747797633,0 -80.2440449468202,25.9562020208615,0 -80.2440412689084,25.9562023302571,0 -80.2439063689084,25.9562091302571,0 -80.2439036,25.9562092,0 -80.2437844,25.9562092,0 -80.2437821396507,25.9562091535333,0 -80.2437798831208,25.9562090142117,0 -80.2436633831208,25.9561994142117,0 -80.2436616843887,25.9561992476548,0 -80.2435517843887,25.9561867476548,0 -80.2435493664172,25.9561864181484,0 -80.2435469654422,25.9561859817087,0 -80.242967093853,25.9560672284855,0 -80.2424083390631,25.9559577272795,0 -80.2422470252532,25.9559402800457,0 -80.242123895701,25.955935292272,0 -80.2419384192471,25.9559340049287,0 -80.241273319947,25.9559511816674,0 -80.2396970161389,25.9559917817656,0 -80.239696353354,25.9559917948403,0 -80.239601453354,25.9559930948403,0 -80.2395994851188,25.9559930865808,0 -80.2394953851188,25.9559907865808,0 -80.2394929279299,25.9559906772804,0 -80.2394904780847,25.9559904582304,0 -80.2394880404829,25.955990129869,0 -80.2393820404829,25.955973429869,0 -80.2393808274608,25.9559732248324,0 -80.2392872274608,25.9559563248324,0 -80.2392840398037,25.9559556512237,0 -80.2390749398037,25.9559049512237,0 -80.2390714917715,25.9559039954287,0 -80.2388788917715,25.9558437954287,0 -80.238878300917,25.9558436070853,0 -80.2385153851665,25.9557256644598,0 -80.2383044754123,25.9556614138062,0 -80.238109078611,25.9556019147802,0 -80.2381074348796,25.9556013859244,0 -80.2379198256532,25.9555377576101,0 -80.2375517296969,25.9554344603099,0 -80.2372535868845,25.9553638892718,0 -80.2370486949393,25.9553278070531,0 -80.236830782704,25.9553052950505,0 -80.2365567910423,25.9552854133451,0 -80.2362619005184,25.955287387838,0 -80.2358798966963,25.9553126500203,0 -80.2355604820079,25.9553569145866,0 -80.2353722066113,25.9554018450599,0 -80.2351833676093,25.9554517120662,0 -80.2350173971267,25.9554997405173,0 -80.2340188137727,25.9558305037711,0 -80.2339660411062,25.9558480286528,0 -80.2338444450839,25.9558910503413,0 -80.2338434052495,25.9558914065929,0 -80.2336998052495,25.9559390065929,0 -80.2329738812126,25.956179548878,0 -80.2326532331084,25.95629240268,0 -80.2323644854269,25.9564076628714,0 -80.2321647418603,25.9564900856772,0 -80.2319197466257,25.9566010494279,0 -80.2317748097818,25.9566706033053,0 -80.2308178177117,25.9571889283154,0 -80.2307660492497,25.9572219387556,0 -80.2307340324696,25.9572484512182,0 -80.2307159182547,25.9572638208551,0 -80.2307016453856,25.9572828970937,0 -80.2306888298534,25.9573079799,0 -80.2306840171144,25.9573352520876,0 -80.2306864802819,25.9573637449437,0 -80.230695099801,25.9573877607073,0 -80.2307121584774,25.9574074654491,0 -80.2307553947529,25.9574310115801,0 -80.2308112736942,25.9574593459549,0 -80.2308134852377,25.9574605315354,0 -80.2310633852377,25.9576019315354,0 -80.2310663082387,25.9576037076405,0 -80.2310691151899,25.957605661997,0 -80.2311533151899,25.957668261997,0 -80.2311554929087,25.9576699677441,0 -80.2311575821095,25.9576717808277,0 -80.2311931821095,25.9577042808277,0 -80.2311961685523,25.9577072236,0 -80.2312276685523,25.9577407236,0 -80.2312294907508,25.9577427606257,0 -80.2312312095049,25.9577448856586,0 -80.2312328205705,25.9577470934512,0 -80.2312634205705,25.9577912934512,0 -80.231265008424,25.9577937214362,0 -80.2312664660434,25.9577962297694,0 -80.2312677893732,25.957798811472,0 -80.2312689747317,25.9578014593608,0 -80.2313030747317,25.9578833593608,0 -80.2313040491277,25.9578858713182,0 -80.2313048993364,25.9578884279805,0 -80.2313290993364,25.9579676279805,0 -80.2313297991109,25.9579701277941,0 -80.2313303801518,25.9579726578423,0 -80.2313308411645,25.9579752124889,0 -80.2313311811221,25.9579777860431,0 -80.2313313992673,25.9579803727717,0 -80.2313351992673,25.9580430727717,0 -80.2313352993598,25.9580461346247,0 -80.2313352288186,25.9580491973009,0 -80.2313308288186,25.9581355973009,0 -80.2313306340412,25.9581382022899,0 -80.2313303157928,25.9581407950922,0 -80.2313298747912,25.9581433698588,0 -80.2313293120313,25.9581459207816,0 -80.2313067120313,25.9582379207816,0 -80.231305942157,25.9582407312055,0 -80.2313050245159,25.9582434969104,0 -80.2313039616838,25.958246210133,0 -80.2313027566442,25.9582488632572,0 -80.2312629566442,25.9583306632572,0 -80.231261593388,25.9583332838159,0 -80.2312600914035,25.9583358274036,0 -80.2312584550233,25.9583382866831,0 -80.2312566889675,25.9583406545604,0 -80.2312547983306,25.9583429242052,0 -80.2311992983306,25.9584060242052,0 -80.2311973482412,25.9584081280615,0 -80.2311952911108,25.95841012738,0 -80.2311931325356,25.9584120167218,0 -80.2311908783875,25.9584137909473,0 -80.2311885347986,25.95841544523,0 -80.2311082347986,25.95846904523,0 -80.2311057559702,25.9584706060518,0 -80.2311031975578,25.9584720326846,0 -80.2311005668187,25.9584733210816,0 -80.2310978712153,25.9584744675881,0 -80.2310951183939,25.958475468952,0 -80.2310346183939,25.958495668952,0 -80.231031730136,25.958496545972,0 -80.2310287981138,25.9584972632194,0 -80.2309791981138,25.9585079632194,0 -80.2309763627151,25.9585084974661,0 -80.2309735032011,25.9585088822843,0 -80.2309383761832,25.9585126744056,0 -80.2309140491433,25.9585153663321,0 -80.2309111268804,25.9585156110428,0 -80.2309081957283,25.9585156996517,0 -80.2308519957283,25.9585158996517,0 -80.2308510675933,25.9585158951232,0 -80.2305957675934,25.9585124951232,0 -80.2303750350763,25.9585095296173,0 -80.2303382530968,25.9585124822992,0 -80.230291161576,25.9585237528116,0 -80.2302531036565,25.9585369710633,0 -80.2302246541998,25.9585497157621,0 -80.2301759975067,25.9585815228226,0 -80.2301420526152,25.9586074858404,0 -80.2300853636957,25.9586654345138,0 -80.230006395733,25.9587832627739,0 -80.2298410776614,25.9590485406099,0 -80.2298304331478,25.9590719439581,0 -80.2298262854239,25.9590913175039,0 -80.2298272652308,25.9590957533568,0 -80.2298319620996,25.9591035598767,0 -80.2298382180433,25.9591085035981,0 -80.2298527466829,25.9591142235349,0 -80.2299444054371,25.9591372587003,0 -80.2299469728215,25.9591379704553,0 -80.2299495027262,25.9591388057038,0 -80.229951989215,25.9591397624858,0 -80.229989289215,25.9591551624858,0 -80.2299917377592,25.9591562438803,0 -80.2299941307905,25.9591574431234,0 -80.2299964626409,25.9591587573746,0 -80.2299987277875,25.959160183521,0 -80.2300009208652,25.9591617181849,0 -80.2300030366796,25.9591633577312,0 -80.2300208366796,25.9591778577312,0 -80.2300228846113,25.9591796112195,0 -80.2300248441535,25.959181462959,0 -80.2300267105978,25.9591834085003,0 -80.2300284794592,25.9591854431684,0 -80.2300301464874,25.9591875620743,0 -80.2300317076767,25.9591897601264,0 -80.2300331592757,25.9591920320431,0 -80.2300429592757,25.9592082320431,0 -80.2300442995341,25.9592105755842,0 -80.2300455231779,25.9592129820698,0 -80.230046627259,25.9592154457017,0 -80.2300476091171,25.9592179605441,0 -80.2300484663865,25.9592205205375,0 -80.2300491970018,25.959223119514,0 -80.2300544970018,25.959243919514,0 -80.2300551437944,25.9592467730693,0 -80.2300556379196,25.9592496569832,0 -80.2300559779788,25.9592525630937,0 -80.2300561630096,25.9592554831763,0 -80.2300561924884,25.9592584089668,0 -80.2300557924884,25.9592826089668,0 -80.2300556816514,25.9592853061538,0 -80.2300554386066,25.9592879946537,0 -80.2300550639397,25.95929066799,0 -80.2300491639397,25.95932636799,0 -80.2300486864327,25.9593288899809,0 -80.2300417864327,25.9593611899809,0 -80.2300409727237,25.9593644949501,0 -80.2300235727237,25.9594267949501,0 -80.2300233916836,25.9594274284848,0 -80.2298702495124,25.9599514354201,0 -80.2298660403682,25.9599737821495,0 -80.2298654758257,25.9599919102358,0 -80.2298691695805,25.9600097366179,0 -80.229874447102,25.9600185561002,0 -80.2298953060901,25.960035825114,0 -80.2299191384295,25.9600467599521,0 -80.2299501908049,25.9600559071634,0 -80.2299938734858,25.960062097017,0 -80.2300469774486,25.9600661819372,0 -80.234333144369,25.9602326340509,0 -80.2391834543897,25.9603874279879,0 -80.2391838117992,25.9603874405576,0 -80.2402274117992,25.9604275405576,0 -80.2402277423925,25.9604275542566,0 -80.2412465535678,25.960472841418,0 -80.2427631782763,25.9605242879814,0 -80.2428361201025,25.9605233480094,0 -80.2428921204385,25.9605157227807,0 -80.2429124212543,25.9605056342655,0 -80.2429306450838,25.9604920802922,0 -80.2429428139057,25.9604694249742,0 -80.2429486381833,25.9604418229629,0 -80.2429458596786,25.9604133602316,0 -80.2429356699632,25.9603784132817,0 -80.2429112826192,25.9603363688673,0 -80.242885776462,25.9603087903348,0 -80.2428543696031,25.9602824188147,0 -80.2427716678908,25.9602295628892,0 -80.2424443573998,25.9600240702136,0 -80.2422437552233,25.9599017227475,0 -80.2421180324591,25.9598328609608,0 -80.2419864519472,25.9597938501189,0 -80.2418244676809,25.9597764172572,0 -80.2416702297987,25.9597877652313,0 -80.2415364356373,25.9598170093462,0 -80.2411980554876,25.9599691622366,0 -80.241196978405,25.9599696327771,0 -80.240984578405,25.9600597327771,0 -80.2409844281093,25.9600597962696,0 -80.2407883281093,25.9601422962696,0 -80.2407844600514,25.9601437550247,0 -80.2405759600514,25.9602135550247,0 -80.2405723941512,25.9602146160931,0 -80.2403942941512,25.9602611160931,0 -80.2403914260683,25.9602617834466,0 -80.2403885263788,25.9602622963415,0 -80.2402158263788,25.9602880963415,0 -80.2402125761516,25.9602884834203,0 -80.2402093086544,25.9602886764698,0 -80.2400145086544,25.9602943764698,0 -80.2400118502647,25.9602943899814,0 -80.2398075502647,25.9602904899814,0 -80.2398040581748,25.9602903121503,0 -80.2398005844419,25.9602899127818,0 -80.2396016844419,25.9602606127818,0 -80.2395994168761,25.9602602301524,0 -80.2395971672872,25.9602597530682,0 -80.2394813904335,25.960232658485,0 -80.2394059135851,25.9602150638819,0 -80.2394032872371,25.960214382931,0 -80.2394006976662,25.9602135732885,0 -80.2393200976662,25.9601861732885,0 -80.2392411515906,25.9601592576024,0 -80.2392382375037,25.9601581711806,0 -80.2392353894837,25.9601569217822,0 -80.2392326166368,25.9601555134021,0 -80.2391441063336,25.9601073621987,0 -80.2389707962115,25.9600139106623,0 -80.238970611475,25.9600138105936,0 -80.238781511475,25.9599109105936,0 -80.2385901020432,25.95980670546,0 -80.2384142114051,25.9597109105597,0 -80.2382391288947,25.9596157200686,0</coordinates></LineString>
  </Placemark>
</Folder>
</Document></kml>
