<?xml version="1.0" encoding="utf-8" ?>
<kml xmlns="http://www.opengis.net/kml/2.2">
<Document id="root_doc">
<Schema name="mia_international_buffer_lines_single" id="mia_international_buffer_lines_single">
	<SimpleField name="FID" type="string"></SimpleField>
</Schema>
<Folder><name>mia_international_buffer_lines_single</name>
  <Placemark id="mia_international_buffer_lines_single.1">
	<Style><LineStyle><color>ff0000ff</color></LineStyle><PolyStyle><fill>0</fill></PolyStyle></Style>
	<ExtendedData><SchemaData schemaUrl="#mia_international_buffer_lines_single">
		<SimpleData name="FID">0</SimpleData>
	</SchemaData></ExtendedData>
      <LineString><coordinates>-80.2339308662424,25.9557438028655,0 -80.2339298549161,25.9557441496587,0 -80.2338082730533,25.9557871663374,0 -80.2336651974624,25.9558345925082,0 -80.2329388002162,25.9560752915957,0 -80.2329378403824,25.9560756194992,0 -80.2326156403824,25.9561890194992,0 -80.2326135099483,25.9561898192229,0 -80.2323234099483,25.9563056192229,0 -80.2323228205816,25.9563058584421,0 -80.2321219205816,25.9563887584421,0 -80.2321202082643,25.9563894992502,0 -80.2318738082643,25.9565010992502,0 -80.2318727041868,25.9565016141222,0 -80.2317260041868,25.9565720141222,0 -80.2317236062122,25.9565732379748,0 -80.2307637062122,25.9570931379748,0 -80.2307603292219,25.9570951257714,0 -80.2307040292219,25.9571310257714,0 -80.2307012130796,25.9571329467955,0 -80.2306985213566,25.9571350385933,0 -80.2306636213566,25.9571639385933,0 -80.2306631162404,25.9571643619975,0 -80.2306400162404,25.9571839619976,0 -80.2306377164109,25.9571860272816,0 -80.2306355362386,25.9571882185055,0 -80.2306334826098,25.9571905287484,0 -80.2306315620108,25.9571929507131,0 -80.2306107620108,25.9572207507131,0 -80.2306089666053,25.9572232976986,0 -80.2306073183305,25.9572259422792,0 -80.2306058224777,25.9572286759654,0 -80.2305871224777,25.9572652759654,0 -80.2305859417263,25.9572677357011,0 -80.2305848844137,25.9572702509672,0 -80.2305839531417,25.9572728155736,0 -80.2305831502022,25.9572754232089,0 -80.2305824775713,25.9572780674557,0 -80.2305819369043,25.9572807418066,0 -80.2305744369043,25.9573232418066,0 -80.230574012095,25.9573260798339,0 -80.2305737358888,25.9573289361552,0 -80.2305736090373,25.957331802995,0 -80.230573631886,25.9573346725489,0 -80.2305738043726,25.9573375370052,0 -80.2305775043726,25.9573803370052,0 -80.2305778221653,25.9573831607886,0 -80.2305782853777,25.9573859643898,0 -80.2305788927733,25.9573887403249,0 -80.2305796427309,25.957391481184,0 -80.2305805332484,25.957394179651,0 -80.2305950332484,25.957434579651,0 -80.2305960839805,25.9574372811035,0 -80.2305972755755,25.9574399234482,0 -80.2305986047236,25.9574424993459,0 -80.2306000677333,25.9574450016422,0 -80.230601660541,25.9574474233869,0 -80.2306033787228,25.9574497578537,0 -80.2306052175064,25.9574519985587,0 -80.2306355175064,25.9574869985587,0 -80.2306374152326,25.9574890804311,0 -80.2306394170648,25.9574910624062,0 -80.2306415177515,25.9574929392846,0 -80.2306437117821,25.9574947061426,0 -80.2306459934008,25.9574963583453,0 -80.2306483566222,25.9574978915582,0 -80.2306507952468,25.9574993017594,0 -80.2307034952468,25.9575280017594,0 -80.2307049263058,25.9575287540451,0 -80.2307604070079,25.9575568864859,0 -80.2310062336239,25.957695981658,0 -80.2310854627763,25.9577548859921,0 -80.2311174685457,25.9577841047423,0 -80.2311447175711,25.9578130838646,0 -80.2311696640636,25.957849117687,0 -80.2312004887041,25.9579231510613,0 -80.2312219952014,25.9579935359612,0 -80.2312252151908,25.9580466657876,0 -80.231221237728,25.9581247686937,0 -80.2312012836689,25.9582059976069,0 -80.2311672942889,25.9582758551769,0 -80.2311214656444,25.9583279594555,0 -80.2310532931487,25.9583734643842,0 -80.2310026479488,25.9583903740212,0 -80.2309588252106,25.9583998277167,0 -80.2309264967989,25.9584033177157,0 -80.2309263508567,25.9584033336679,0 -80.2309048686687,25.9584057107953,0 -80.2308520683582,25.9584058986967,0 -80.2305972356329,25.9584025049197,0 -80.2303739388496,25.9583995049629,0 -80.2303713669303,25.9583995305553,0 -80.2303687990198,25.9583996763612,0 -80.2303251990198,25.9584031763612,0 -80.230322377053,25.9584034763443,0 -80.2303195743159,25.9584039214862,0 -80.2303167982702,25.9584045106019,0 -80.2302628982702,25.9584174106019,0 -80.2302602575048,25.958418112413,0 -80.2302576548539,25.9584189445123,0 -80.2302147548539,25.9584338445123,0 -80.2302125154997,25.9584346772159,0 -80.2302103144219,25.9584356063871,0 -80.2301757144219,25.9584511063871,0 -80.2301731064848,25.9584523580395,0 -80.2301705679631,25.9584537450787,0 -80.2301681058791,25.9584552636677,0 -80.2301141058791,25.9584905636677,0 -80.2301107860542,25.9584929135235,0 -80.2300720860542,25.9585225135235,0 -80.2300700361819,25.9585241605233,0 -80.2300680673732,25.9585259036174,0 -80.2300661841286,25.9585277388214,0 -80.2300031841286,25.9585921388214,0 -80.2300014574203,25.9585939870699,0 -80.2299998175125,25.9585959127507,0 -80.2299982678736,25.9585979117913,0 -80.2299968117807,25.9585999799638,0 -80.2299145117807,25.9587227799638,0 -80.2299135221278,25.9587243108912,0 -80.2297458221278,25.9589934108912,0 -80.2297440256076,25.9589965147487,0 -80.2297424351864,25.9589997290879,0 -80.2297278351864,25.9590318290879,0 -80.2297266793622,25.9590345638761,0 -80.2297256727974,25.9590373570505,0 -80.2297248184252,25.9590402004717,0 -80.2297241187352,25.9590430858539,0 -80.2297162187352,25.9590799858539,0 -80.2297156796471,25.9590828802982,0 -80.2297152962191,25.9590857994431,0 -80.2297150695499,25.9590887349234,0 -80.2297150002891,25.9590916783274,0 -80.2297150886352,25.9590946212203,0 -80.229715334335,25.9590975551691,0 -80.2297157366845,25.9591004717662,0 -80.2297162945306,25.9591033626539,0 -80.2297217945306,25.9591282626539,0 -80.229722513691,25.9591311462219,0 -80.2297233875567,25.9591339867351,0 -80.2297244135762,25.9591367759,0 -80.2297255887537,25.9591395055728,0 -80.2297269096582,25.9591421677839,0 -80.229728372433,25.9591447547602,0 -80.229742872433,25.9591688547602,0 -80.2297443940736,25.9591712424703,0 -80.2297460365745,25.9591735487097,0 -80.2297477955827,25.9591757673668,0 -80.2297496664369,25.9591778925619,0 -80.229751644179,25.959179918663,0 -80.2297537235678,25.9591818403008,0 -80.2297558990928,25.9591836523826,0 -80.2297763990928,25.9591998523826,0 -80.229778551401,25.9592014692643,0 -80.2297807802458,25.9592029788959,0 -80.2297830802877,25.9592043776612,0 -80.2297854460166,25.9592056622091,0 -80.2297878717653,25.9592068294623,0 -80.2297903517226,25.9592078766247,0 -80.2298157517226,25.9592178766247,0 -80.2298190882662,25.9592190676007,0 -80.2298224945629,25.9592200412997,0 -80.2299137115415,25.9592429654405,0 -80.2299398344419,25.9592537507667,0 -80.2299439738985,25.959257122796,0 -80.2299446176115,25.9592581868929,0 -80.2299460858892,25.9592639491902,0 -80.2299458745592,25.9592767346518,0 -80.2299408453811,25.9593071654418,0 -80.2299345692655,25.9593365449395,0 -80.2299177158989,25.9593968877404,0 -80.2297639083164,25.9599231715152,0 -80.2297632149693,25.9599257800356,0 -80.2297626504301,25.9599284194303,0 -80.2297571504301,25.9599576194303,0 -80.2297566966872,25.9599604251174,0 -80.2297563884863,25.959963250498,0 -80.2297562266506,25.9599660880272,0 -80.2297553266505,25.9599949880272,0 -80.229755321145,25.9599982249606,0 -80.2297555060711,25.9600014566121,0 -80.2297558807883,25.9600046717879,0 -80.2297564439987,25.9600078593516,0 -80.2297633439987,25.9600411593516,0 -80.2297640504765,25.9600441466658,0 -80.22976492252,25.9600470899119,0 -80.2297659574128,25.9600499799212,0 -80.2297671519309,25.9600528076913,0 -80.2297685023535,25.9600555644132,0 -80.2297700044737,25.9600582414996,0 -80.2297849044737,25.9600831414996,0 -80.2297865799284,25.9600857694523,0 -80.2297884015482,25.960088298283,0 -80.2297903634838,25.9600907198718,0 -80.2297924594354,25.9600930264428,0 -80.2297946826731,25.9600952105898,0 -80.2297970260579,25.9600972652993,0 -80.2298307260579,25.9601251652993,0 -80.2298329874024,25.9601269399302,0 -80.2298353383768,25.9601285939899,0 -80.2298377725592,25.9601301229602,0 -80.2298402833004,25.9601315226646,0 -80.2298428637423,25.9601327892797,0 -80.2298768637423,25.9601483892797,0 -80.2298792835565,25.9601494301435,0 -80.2298817504324,25.9601503539518,0 -80.2298842587113,25.9601511585855,0 -80.2299229587113,25.9601625585855,0 -80.2299255384771,25.960163250902,0 -80.2299281488128,25.960163817154,0 -80.2299307835619,25.9601642560059,0 -80.2299801835619,25.9601712560059,0 -80.2299836816926,25.9601716379967,0 -80.2300395816926,25.9601759379967,0 -80.2300416656989,25.9601760585731,0 -80.2343290656989,25.9603425585731,0 -80.2343294456103,25.9603425720121,0 -80.2391797668851,25.9604973663082,0 -80.2402230228832,25.9605374530901,0 -80.2412419576075,25.9605827457434,0 -80.2412425353763,25.9605827683834,0 -80.2427607353763,25.9606342683834,0 -80.242763308704,25.9606342954338,0 -80.242840908704,25.9606332954338,0 -80.2428442722536,25.960633149036,0 -80.2428476205442,25.9606327971148,0 -80.2429159205442,25.9606234971148,0 -80.2429188680119,25.9606230139272,0 -80.2429217849033,25.9606223714469,0 -80.2429246626161,25.9606215715687,0 -80.2429274926638,25.9606206166516,0 -80.2429302667001,25.9606195095117,0 -80.2429329765441,25.960618253414,0 -80.2429657765441,25.960601953414,0 -80.2429686586362,25.9606004127344,0 -80.2429714441351,25.960598703599,0 -80.2429741232062,25.960596832042,0 -80.2430061232062,25.960573032042,0 -80.2430084911579,25.9605711679833,0 -80.2430107534556,25.960569177024,0 -80.2430129033074,25.9605670651417,0 -80.2430149342589,25.9605648386768,0 -80.2430168402124,25.9605625043137,0 -80.2430186154459,25.960560069061,0 -80.2430202546295,25.9605575402299,0 -80.243021752842,25.9605549254126,0 -80.243043452842,25.9605145254126,0 -80.2430448565601,25.9605117233376,0 -80.2430460983961,25.9605088458574,0 -80.2430471743178,25.960505902315,0 -80.2430480808315,25.960502902268,0 -80.2430488149941,25.9604998554575,0 -80.2430580149941,25.9604562554575,0 -80.2430585228527,25.9604535039338,0 -80.2430588901219,25.9604507301428,0 -80.2430591158513,25.9604479412632,0 -80.2430591994565,25.9604451445127,0 -80.2430591407213,25.9604423471295,0 -80.2430589397976,25.9604395563531,0 -80.2430548397976,25.9603975563531,0 -80.2430545314482,25.9603950121965,0 -80.2430541049186,25.9603924851658,0 -80.2430535611346,25.9603899807475,0 -80.2430529012771,25.9603875043792,0 -80.2430394012771,25.9603412043792,0 -80.2430385949427,25.9603386688557,0 -80.2430376669305,25.9603361752942,0 -80.2430366194124,25.9603337295304,0 -80.2430354548397,25.9603313372876,0 -80.2430341759377,25.9603290041642,0 -80.2430033759377,25.9602759041642,0 -80.2430017812058,25.9602733217178,0 -80.2430000464448,25.9602708311751,0 -80.2429981769377,25.9602684401205,0 -80.2429961783777,25.9602661558356,0 -80.2429641783777,25.9602315558356,0 -80.2429617481665,25.9602290887371,0 -80.2429591675112,25.9602267794688,0 -80.2429223675112,25.9601958794688,0 -80.2429195617188,25.9601936746747,0 -80.2429166188595,25.9601916564658,0 -80.2428307188595,25.9601367564658,0 -80.242830344403,25.9601365192648,0 -80.242502544403,25.9599307192648,0 -80.2425019383677,25.9599303442347,0 -80.2422999383677,25.9598071442347,0 -80.2422977213203,25.9598058619048,0 -80.2421657213203,25.9597335619048,0 -80.2421631179743,25.9597322247632,0 -80.2421604471871,25.9597310279951,0 -80.2421577165212,25.9597299749892,0 -80.2421549337084,25.9597290687269,0 -80.2420129337084,25.9596869687269,0 -80.2420097254676,25.9596861219471,0 -80.2420064720029,25.9596854701709,0 -80.2420031851556,25.9596850157706,0 -80.2418312851556,25.9596665157706,0 -80.2418279835721,25.9596662607139,0 -80.2418246726232,25.95966620481,0 -80.2418213643111,25.9596663482615,0 -80.2416582643111,25.9596783482615,0 -80.2416556780545,25.9596786000931,0 -80.2416531065789,25.9596789737978,0 -80.2416505556239,25.9596794685415,0 -80.241507355624,25.9597107685415,0 -80.2415045870458,25.9597114493246,0 -80.2415018574654,25.9597122726604,0 -80.2414991742176,25.9597132363365,0 -80.2414965445124,25.9597143377634,0 -80.2411534805397,25.9598685967383,0 -80.2409416966945,25.9599584353657,0 -80.240747578489,25.9600401016174,0 -80.2405428049447,25.9601086541037,0 -80.2403693581058,25.9601539392132,0 -80.240202815198,25.9601788193928,0 -80.2400126203771,25.9601843846417,0 -80.2398131510223,25.9601805768567,0 -80.2396199921202,25.960152122579,0 -80.2395064327128,25.9601255469318,0 -80.239433531174,25.9601085526447,0 -80.2393555253736,25.9600820345439,0 -80.2392810750786,25.9600566516169,0 -80.2391965833632,25.9600106865979,0 -80.2391964037885,25.9600105893377,0 -80.2390230962521,25.9599171391955,0 -80.2388340932326,25.9598142919681,0 -80.2386427020273,25.959710096756,0 -80.2384668060793,25.9596142989629,0 -80.2382916873286,25.9595190887519,0 -80.238088603535,25.9594084975772,0 -80.2378820024607,25.9592959969922,0 -80.2376885808393,25.959190785225,0 -80.2376883350745,25.9591906523489,0 -80.2375025422888,25.9590908099643,0 -80.2373054533626,25.9589837702889,0 -80.2371219574866,25.9588840725296,0 -80.2369276429222,25.958778664615,0 -80.2367411811089,25.9586773397068,0 -80.2363945012634,25.958486705778,0 -80.2363944156874,25.9584866588199,0 -80.2361758188898,25.9583669605734,0 -80.2356649763703,25.9580871468333,0 -80.2354192009177,25.9579504731498,0 -80.2353710286208,25.957915887911,0 -80.235350858165,25.957886688775,0 -80.2353418526487,25.9578484153304,0 -80.2353415602823,25.9578090189647,0 -80.235350394151,25.957779748534,0 -80.2353650690926,25.9577565132099,0 -80.2354468354709,25.9576836502816,0 -80.2356224367218,25.9575613301731,0 -80.2356229079242,25.9575609982631,0 -80.2357779079242,25.9574505982631,0 -80.2357802232352,25.9574488554314,0 -80.2357824435342,25.9574469930675,0 -80.2358726435342,25.9573671930675,0 -80.2358747864535,25.957365192928,0 -80.2358768197661,25.957363081459,0 -80.2359554197661,25.957276981459,0 -80.2359572631371,25.9572748554286,0 -80.2359589953596,25.9572726379014,0 -80.2359606118996,25.9572703346818,0 -80.2359621085256,25.9572679517986,0 -80.2359634813202,25.957265495489,0 -80.2359647266902,25.9572629721826,0 -80.2359952266902,25.9571969721826,0 -80.2359965102854,25.9571939625689,0 -80.2359976126488,25.9571908819543,0 -80.2359985298793,25.9571877412411,0 -80.2360173298793,25.9571154412411,0 -80.2360180482981,25.9571123042577,0 -80.2360185820124,25.9571091306258,0 -80.2360189291949,25.9571059312111,0 -80.2360233291949,25.9570502312111,0 -80.23602346325,25.9570479102611,0 -80.2360234991021,25.9570455857194,0 -80.2360231991021,25.9569930857194,0 -80.2360231028778,25.9569901328899,0 -80.2360228482345,25.9569871894874,0 -80.2360224359069,25.956984264005,0 -80.2360098359069,25.956909464005,0 -80.2360095826261,25.956908070229,0 -80.2359945826261,25.956831170229,0 -80.2359938967651,25.956828118585,0 -80.2359749159674,25.9567536333334,0 -80.2359717677145,25.9567293687504,0 -80.2359722511362,25.9567039891109,0 -80.2359813399969,25.9566068226309,0 -80.2360004031208,25.9565343646909,0 -80.2360579587052,25.9563918551612,0 -80.2360889469354,25.956340470723,0 -80.2361310614002,25.9562898437601,0 -80.2362472715754,25.9561814125517,0 -80.236415514497,25.9560748012806,0 -80.2366105726975,25.9559862358938,0 -80.2368032152656,25.955913787447,0 -80.2369584914186,25.9558748954863,0 -80.2371429008353,25.9558386616872,0 -80.2372718875821,25.9558231328087,0 -80.2374203490674,25.9558155922188,0 -80.237559909517,25.9558148141814,0 -80.2377290084953,25.9558304877194,0 -80.2378587329639,25.9558517348525,0 -80.2379894570887,25.9558805235362,0 -80.238105439118,25.9559120839367,0 -80.2382987862593,25.9559759793538,0 -80.2384041622738,25.9560255737533,0 -80.2385200638793,25.9560836727678,0 -80.2389430170888,25.9563129595042,0 -80.2400513345151,25.9569239588539,0 -80.2404184445529,25.9571265884151,0 -80.2404947723378,25.9571707154157,0 -80.2404982263223,25.9571725515727,0 -80.2405892263223,25.9572168515727,0 -80.2405912161857,25.9572177716701,0 -80.240593241136,25.9572186117367,0 -80.240684641136,25.9572544117367,0 -80.2406872541411,25.9572553597738,0 -80.2406899117071,25.9572561745825,0 -80.2406926070458,25.9572568540815,0 -80.2406953332729,25.9572573965352,0 -80.2408116332729,25.9572774965352,0 -80.240813937888,25.9572778447209,0 -80.2408162551857,25.9572780949518,0 -80.2409236551857,25.9572873949518,0 -80.2409278969723,25.9572875976996,0 -80.2410262969723,25.9572884976996,0 -80.241028488195,25.9572884740848,0 -80.2410306767379,25.9572883632017,0 -80.2411424767379,25.9572804632017,0 -80.2411447480654,25.9572802552952,0 -80.24114700882,25.9572799533968,0 -80.24125430882,25.9572633533968,0 -80.2412572567036,25.9572628147311,0 -80.2412601708732,25.957262116308,0 -80.2412630426774,25.957261260201,0 -80.2413572426774,25.957230360201,0 -80.2413600094789,25.9572293699976,0 -80.2413627194432,25.9572282334298,0 -80.2414682194432,25.9571806334298,0 -80.2414705924998,25.9571794936216,0 -80.2414729082962,25.9571782415643,0 -80.2414751615267,25.9571768801265,0 -80.2417448615267,25.9570049801265,0 -80.2417450558006,25.9570048557276,0 -80.2418260377425,25.9569527609354,0 -80.241909985796,25.9569071837871,0 -80.2419975399155,25.9568767984439,0 -80.2420940868393,25.9568553120207,0 -80.2421902086383,25.9568426397132,0 -80.2423094080715,25.9568439506261,0 -80.2424206282818,25.956862238513,0 -80.2425109291837,25.9568906214728,0 -80.2426197681018,25.9569360175344,0 -80.2427494555339,25.957029585879,0 -80.2430826237559,25.9573177018011,0 -80.2430846218257,25.9573193490887,0 -80.2430866952186,25.9573209005014,0 -80.2430888393383,25.9573223526001,0 -80.2430910494315,25.9573237021657,0 -80.2431786494315,25.9573744021657,0 -80.2431815501259,25.9573759668964,0 -80.2431845393349,25.9573773550748,0 -80.2431876063248,25.957378561716,0 -80.2433357063248,25.957431761716,0 -80.2433385830733,25.9574327065292,0 -80.2433415074576,25.9574334915962,0 -80.2434498074576,25.9574593915962,0 -80.2434526539811,25.9574599932224,0 -80.2434555283359,25.9574604434833,0 -80.2435388283359,25.9574712434833,0 -80.2435417705065,25.9574715447562,0 -80.2435447246179,25.9574716874393,0 -80.2436523246179,25.9574739874393,0 -80.2436547011716,25.957473986882,0 -80.2436570754826,25.9574738836581,0 -80.2437491754826,25.9574678836581,0 -80.2437531062979,25.9574674853695,0 -80.2438373062979,25.9574558853695,0 -80.2438396594624,25.9574555090658,0 -80.2438419941173,25.9574550311803,0 -80.2439822941173,25.9574231311803,0 -80.243984722201,25.957422520668,0 -80.244115622201,25.957386420668,0 -80.2441186027058,25.9573855070508,0 -80.2441215266603,25.9573844260347,0 -80.2442883266603,25.9573173260347,0 -80.2442908388493,25.9573162420807,0 -80.2442932940235,25.9573150345336,0 -80.244295686107,25.9573137063818,0 -80.244465686107,25.9572137063818,0 -80.2444682715581,25.9572120873798,0 -80.2444707632704,25.9572103275232,0 -80.2444731535787,25.957208432226,0 -80.2444754351298,25.9572064073186,0 -80.2446279351298,25.9570633073186,0 -80.2446299853404,25.957061279834,0 -80.2446319264778,25.957059147689,0 -80.2446337532071,25.9570569167436,0 -80.2446354605074,25.9570545931294,0 -80.2447070605074,25.9569515931294,0 -80.2447088307546,25.9569488793353,0 -80.2447104381257,25.9569460660077,0 -80.2447679381257,25.9568381660077,0 -80.2447694458732,25.9568351125091,0 -80.2447707617563,25.9568319715527,0 -80.2448090617563,25.9567319715527,0 -80.2448099473002,25.9567294819562,0 -80.2448107122473,25.9567269527006,0 -80.244811354832,25.9567243896236,0 -80.2448118735711,25.9567217986416,0 -80.2448300735711,25.9566179986416,0 -80.2448304712738,25.9566153539098,0 -80.2448307399397,25.9566126929716,0 -80.2448308789337,25.9566100221189,0 -80.2448333789337,25.9565197221189,0 -80.2448333676492,25.9565163138552,0 -80.2448305676492,25.9564347138552,0 -80.2448304102043,25.9564320347505,0 -80.2448301222588,25.9564293665155,0 -80.2448297044982,25.9564267155032,0 -80.2448291579172,25.9564240880253,0 -80.2448284838171,25.956421490338,0 -80.2448026838171,25.956331190338,0 -80.2448016522847,25.9563279604096,0 -80.2448004236879,25.9563248001808,0 -80.2447722236879,25.9562584001808,0 -80.2447710760667,25.9562558767024,0 -80.2447698027521,25.9562534142549,0 -80.244768406979,25.9562510190942,0 -80.2447668922933,25.9562486973051,0 -80.244765262543,25.9562464547861,0 -80.244719762543,25.9561870547861,0 -80.2447177244078,25.9561845499141,0 -80.2447155427766,25.9561821689763,0 -80.2447132251705,25.9561799201809,0 -80.2447107795791,25.9561778112802,0 -80.2446574795791,25.9561345112802,0 -80.2446552669713,25.9561328052281,0 -80.24465297058,25.9561312137401,0 -80.2446505963312,25.9561297409232,0 -80.2445904963312,25.9560945409232,0 -80.244587897527,25.9560931115082,0 -80.2445852254459,25.9560918242659,0 -80.2445824878584,25.9560906829399,0 -80.2445199878584,25.9560665829399,0 -80.2445173958619,25.9560656572748,0 -80.244514760803,25.9560648624377,0 -80.2445120892805,25.9560642004189,0 -80.2445093879844,25.9560636728763,0 -80.2444491879844,25.9560534728763,0 -80.2444465513726,25.9560530915802,0 -80.2444438993902,25.9560528384036,0 -80.2444412382593,25.9560527139407,0 -80.2444385742232,25.9560527184835,0 -80.2443768742232,25.9560543184835,0 -80.2443728522673,25.9560545704631,0 -80.2442643522673,25.9560653704631,0 -80.2442633531798,25.9560654791385,0 -80.2440338869421,25.9560925627022,0 -80.2439022146675,25.9560992,0 -80.2437866622605,25.9560992,0 -80.2436732675377,25.9560898558855,0 -80.2435666420894,25.9560777283322,0 -80.2429889345578,25.9559594182913,0 -80.2429884773484,25.955959326676,0 -80.2424271773484,25.955849326676,0 -80.2424248533394,25.9558489227769,0 -80.2424225141493,25.9558486188987,0 -80.2422570141493,25.9558307188987,0 -80.242253326133,25.95583044507,0 -80.242127426133,25.95582534507,0 -80.2421255817313,25.9558253013247,0 -80.2419382817313,25.9558240013247,0 -80.241936480053,25.9558240183326,0 -80.2412704819444,25.9558412182838,0 -80.2396945152144,25.9558818096999,0 -80.2396009308376,25.9558830916776,0 -80.2395015092604,25.9558808950434,0 -80.2393997671748,25.9558648658657,0 -80.2393083763478,25.9558483647442,0 -80.2391025997656,25.9557984705657,0 -80.2389120041866,25.9557388970774,0 -80.238548899083,25.9556208929147,0 -80.2385479277531,25.9556205871581,0 -80.2383365277531,25.9555561871581,0 -80.2381419474062,25.955496936745,0 -80.2379537651204,25.9554331140756,0 -80.2379509603835,25.9554322455951,0 -80.2375803603835,25.9553282455951,0 -80.2375781685572,25.9553276789045,0 -80.2372773685572,25.9552564789045,0 -80.2372742389171,25.9552558335061,0 -80.2370658389171,25.9552191335061,0 -80.2370619518417,25.9552185911645,0 -80.2368412518417,25.9551957911645,0 -80.236839580509,25.9551956442296,0 -80.236562580509,25.9551755442296,0 -80.236560407542,25.9551754297099,0 -80.2365582317458,25.9551754012328,0 -80.2362595317458,25.9551774012328,0 -80.2362562707384,25.9551775198719,0 -80.2358706707384,25.9552030198719,0 -80.2358667502363,25.9552034206363,0 -80.2355427502363,25.9552483206363,0 -80.2355401298561,25.9552487484674,0 -80.2355375331763,25.9552493022597,0 -80.2353460331763,25.9552950022597,0 -80.2353447574353,25.9552953228773,0 -80.2351546574353,25.9553455228773,0 -80.2351534113983,25.9553458676363,0 -80.2349858113983,25.9553943676363,0 -80.2349838062211,25.9553949896063,0 -80.2339842062211,25.9557260896063,0</coordinates></LineString>
  </Placemark>
</Folder>
</Document></kml>
