<?xml version="1.0" encoding="utf-8" ?>
<kml xmlns="http://www.opengis.net/kml/2.2">
<Document id="root_doc">
<Schema name="jeddah_bound" id="jeddah_bound">
	<SimpleField name="fixme" type="string"></SimpleField>
	<SimpleField name="highway" type="string"></SimpleField>
	<SimpleField name="layer" type="string"></SimpleField>
	<SimpleField name="name_en" type="string"></SimpleField>
	<SimpleField name="oneway" type="string"></SimpleField>
	<SimpleField name="sport" type="string"></SimpleField>
	<SimpleField name="surface" type="string"></SimpleField>
	<SimpleField name="wikidata" type="string"></SimpleField>
	<SimpleField name="wikipedia" type="string"></SimpleField>
</Schema>
<Folder><name>jeddah_bound</name>
  <Placemark id="jeddah_bound.1">
	<name>Jeddah Corniche Circuit</name>
	<Style><LineStyle><color>ff0000ff</color></LineStyle><PolyStyle><fill>0</fill></PolyStyle></Style>
	<ExtendedData><SchemaData schemaUrl="#jeddah_bound">
		<SimpleData name="highway">raceway</SimpleData>
		<SimpleData name="name_en">Jeddah Corniche Circuit</SimpleData>
		<SimpleData name="oneway">yes</SimpleData>
		<SimpleData name="sport">motor</SimpleData>
		<SimpleData name="surface">asphalt</SimpleData>
		<SimpleData name="wikidata">Q102141307</SimpleData>
		<SimpleData name="wikipedia">en:Jeddah Corniche Circuit</SimpleData>
	</SchemaData></ExtendedData>
      <LineString><coordinates>39.1053629950213,21.6304430006966,0 39.1053626879578,21.6304438388263,0 39.1047827784015,21.6319877980276,0 39.1042401665889,21.6334745563939,0 39.1042401080017,21.6334747161554,0 39.1038669653789,21.6344873890488,0 39.1037934156659,21.6346976593952,0 39.1037926122079,21.634699811135,0 39.1037917196114,21.6347019274526,0 39.1037616196114,21.6347693274526,0 39.1037605065523,21.6347716698712,0 39.103759284309,21.6347739572162,0 39.1037579555991,21.6347761844018,0 39.1037565233769,21.6347783464761,0 39.1037549908268,21.6347804386318,0 39.1037192908268,21.6348268386318,0 39.1037174477976,21.6348291067228,0 39.1037154868948,21.6348312737146,0 39.103713413655,21.6348333334888,0 39.1037112339319,21.6348352802297,0 39.1037089538798,21.6348371084407,0 39.1037065799364,21.63483881296,0 39.1037041188045,21.6348403889748,0 39.103701577433,21.6348418320354,0 39.103650377433,21.6348691320354,0 39.1036479591263,21.634870346049,0 39.1036454840366,21.6348714396519,0 39.1036429581548,21.6348724101971,0 39.103640387595,21.6348732553352,0 39.1036377785791,21.6348739730207,0 39.1036351374223,21.6348745615163,0 39.1036324705176,21.6348750193977,0 39.1036297843201,21.6348753455565,0 39.1035779843201,21.6348803455565,0 39.1035747243955,21.6348805627312,0 39.1035714573274,21.6348805859597,0 39.1035681946444,21.63488041516,0 39.1035170946444,21.63487621516,0 39.1035142621323,21.6348759083085,0 39.1035114493106,21.6348754551894,0 39.1035086637273,21.6348748570187,0 39.1035059128571,21.6348741154014,0 39.1035032040819,21.6348732323277,0 39.1035005446702,21.6348722101672,0 39.1034602446702,21.6348555101672,0 39.1034582295684,21.6348546274993,0 39.1033204625507,21.6347909683015,0 39.1032668349751,21.634777400846,0 39.1032215305125,21.6347800447973,0 39.1031640287992,21.6348047232946,0 39.1031344388563,21.6348238019683,0 39.1030896403526,21.6348802625601,0 39.1030768657892,21.6349136259142,0 39.1030736441512,21.6349649363932,0 39.1030901160535,21.635080988432,0 39.1031290868046,21.6352486014387,0 39.1031835713133,21.6354035083753,0 39.1032712428185,21.6356078107517,0 39.1032724167832,21.6356107817113,0 39.1032734162821,21.6356138158169,0 39.1033130162821,21.6357469158169,0 39.1033135935392,21.6357490059321,0 39.1033140879612,21.6357511171768,0 39.1033292879612,21.6358223171768,0 39.1033293302489,21.635822517079,0 39.1033472302489,21.635907917079,0 39.1033477377272,21.6359106905113,0 39.1033481024104,21.6359134863059,0 39.1033596024104,21.6360235863059,0 39.1033598037573,21.6360260477035,0 39.1033598944071,21.6360285156585,0 39.1033624944071,21.6362108156585,0 39.1033624677063,21.6362134844803,0 39.1033623115666,21.6362161488646,0 39.1033522115666,21.6363378488646,0 39.1033517055508,21.6363420124708,0 39.1033251055508,21.6365078124708,0 39.103324887269,21.6365090783429,0 39.1032261872691,21.6370440783429,0 39.1032261754136,21.6370441423925,0 39.1030705245015,21.6378822780683,0 39.102984071267,21.638374564647,0 39.1029656495212,21.6386420247531,0 39.1029634804074,21.6387232679235,0 39.1029633175711,21.6387262759243,0 39.1029629902896,21.6387292704979,0 39.1029624995447,21.638732242661,0 39.1029618468086,21.6387351834976,0 39.1029475468086,21.6387921834976,0 39.1029467448083,21.6387950494036,0 39.1029457889669,21.6387978677345,0 39.1029446820828,21.6388006302386,0 39.1029434273968,21.638803328828,0 39.1029420285824,21.6388059556017,0 39.1029404897351,21.638808502869,0 39.1029388153602,21.638810963172,0 39.1029370103602,21.6388133293073,0 39.1029350800195,21.6388155943474,0 39.10293302999,21.6388177516607,0 39.1029308662737,21.638819794931,0 39.1028986662737,21.638848594931,0 39.1028965296411,21.6388504100909,0 39.1028943032885,21.6388521140152,0 39.1028919930007,21.6388537022766,0 39.1028896047806,21.6388551707482,0 39.1028871448337,21.6388565156145,0 39.1028846195517,21.6388577333809,0 39.1028820354962,21.6388588208833,0 39.1025847442123,21.6389751089676,0 39.1024699445105,21.6390269203842,0 39.1023771484384,21.6390942230299,0 39.1022975594591,21.6391685443872,0 39.1022192128553,21.6392495371971,0 39.1021485701927,21.6393568881543,0 39.1020896126025,21.6395006917637,0 39.1020614256881,21.6396097872965,0 39.1020450420467,21.6397561983341,0 39.1020508571169,21.6398818788836,0 39.1020750631694,21.6400071808021,0 39.1021009268889,21.6400926151105,0 39.1021467733912,21.6401949962565,0 39.10221638919,21.6403047568512,0 39.1023455418154,21.6404587578525,0 39.1023472714365,21.6404609292741,0 39.1023488892883,21.6404631852034,0 39.102350391249,21.640465519893,0 39.1023517734921,21.6404679273948,0 39.1024031734921,21.6405629273948,0 39.1024045009553,21.6405655454879,0 39.1024056868477,21.6405682306748,0 39.1024567868477,21.6406928306748,0 39.102457732247,21.6406953038544,0 39.1024585575257,21.6406978196667,0 39.1024592607714,21.6407003722815,0 39.1024598403541,21.6407029557831,0 39.1024892403541,21.6408505557831,0 39.1024898128685,21.6408539960857,0 39.102490166188,21.6408574657572,0 39.102498566188,21.6409776657572,0 39.1024986862648,21.6409802709031,0 39.1024986827143,21.6409828788123,0 39.1024985555445,21.6409854836215,0 39.1024911555445,21.6410873836215,0 39.1024909151454,21.6410898950665,0 39.1024905598262,21.6410923928448,0 39.1024900903345,21.6410948717004,0 39.1024895076582,21.6410973264176,0 39.1024672076582,21.6411825264176,0 39.1024666745367,21.641184423817,0 39.1023486745367,21.641577223817,0 39.102347849725,21.6415797468258,0 39.102320249725,21.6416577468258,0 39.1023191162835,21.6416606804742,0 39.1023178170127,21.641663544541,0 39.1023163561607,21.6416663296612,0 39.1022684561607,21.6417516296612,0 39.1022670120936,21.6417540534522,0 39.1022654456328,21.6417564000014,0 39.1022637609006,21.6417586631342,0 39.10226196233,21.6417608368951,0 39.102260054654,21.6417629155642,0 39.102185854654,21.6418397155642,0 39.1021839793666,21.6418415657626,0 39.1021820176353,21.6418433240424,0 39.1020957176353,21.6419170240424,0 39.102093469976,21.6419188435644,0 39.1020911297886,21.6419205424333,0 39.1020887035427,21.6419221159529,0 39.1019000764084,21.6420375194922,0 39.1018039953582,21.6421131914736,0 39.1017428625494,21.6421861078528,0 39.1017020537982,21.6422684244344,0 39.1016774339845,21.6423797095997,0 39.1016762069039,21.6424913739326,0 39.1016860856499,21.6429237436927,0 39.1016860994251,21.6429247485166,0 39.1016870969887,21.643142915691,0 39.1016889973841,21.6432222571972,0 39.10170011977,21.6432931403392,0 39.1017396613793,21.6433952213213,0 39.1018022865159,21.643496723556,0 39.1018571960077,21.6435543468612,0 39.1019206351148,21.6436092712799,0 39.1019858848714,21.6436539064156,0 39.1020511464229,21.6436801187581,0 39.1022923446792,21.6437572109199,0 39.1022944914831,21.6437579462309,0 39.102296606128,21.6437587694719,0 39.102367506128,21.6437880694719,0 39.102370355029,21.6437893425829,0 39.102432055029,21.6438190425829,0 39.1024342523397,21.6438201616309,0 39.1024363972835,21.6438213780432,0 39.1024919972835,21.6438545780432,0 39.1024949896997,21.6438564987569,0 39.1024978517513,21.6438586088176,0 39.1025564517513,21.6439048088176,0 39.1025590596565,21.6439069991515,0 39.102561526998,21.6439093466945,0 39.102602326998,21.6439506466945,0 39.1026043021704,21.6439527539798,0 39.1026061639964,21.6439549620471,0 39.1026079073419,21.6439572648072,0 39.1026395073419,21.6440013648072,0 39.1026399827101,21.6440020388345,0 39.1026787827101,21.6440579388345,0 39.1026801721454,21.6440600419195,0 39.1026814637638,21.6440622064561,0 39.1026826548525,21.6440644278981,0 39.1026837429098,21.6440667015798,0 39.1027102429098,21.6441255015798,0 39.1027111820207,21.644127713064,0 39.1027120236521,21.6441299634525,0 39.1027127661978,21.6441322484508,0 39.1027403661978,21.6442239484508,0 39.102741114719,21.644226690164,0 39.1027417206135,21.6442294668828,0 39.1027421822637,21.6442322711927,0 39.1027424984368,21.6442350956059,0 39.1027514853168,21.6443397779442,0 39.1027737750127,21.6445054712587,0 39.1028000493318,21.6446582952946,0 39.1028366904176,21.6448183435575,0 39.1028818244643,21.6449591695316,0 39.1029394755258,21.6450956755195,0 39.1030112507558,21.6452496642055,0 39.1030124907256,21.6452525348888,0 39.1030639907256,21.6453817348888,0 39.1030647880202,21.6453838617611,0 39.1030654968176,21.6453860197395,0 39.1031001968176,21.6454995197395,0 39.1031007954147,21.645501626888,0 39.1031013096307,21.6455037562014,0 39.1031458096307,21.6457055562013,0 39.103146280675,21.6457079419633,0 39.1031466457984,21.6457103462153,0 39.1031469042871,21.6457127642571,0 39.1031677042871,21.6459586642571,0 39.1031678391853,21.6459607142848,0 39.1031856391853,21.6463389142848,0 39.1031856997348,21.6463413291934,0 39.1031866997348,21.6466633291934,0 39.1031866628379,21.646665521496,0 39.1031755628379,21.646967321496,0 39.1031754882592,21.6469688041404,0 39.1031520084773,21.6473365874479,0 39.1031229297675,21.6478929800801,0 39.1031010341974,21.6483401896019,0 39.1031009791784,21.6483411435935,0 39.1030638326024,21.6489006389312,0 39.1030522624118,21.6492134330484,0 39.1030521647515,21.6492152547429,0 39.1030285919092,21.6495507682063,0 39.1030230136179,21.6496501813253,0 39.1030227933073,21.6496529001839,0 39.1030224384651,21.6496556047755,0 39.1030219499642,21.6496582884476,0 39.103021329006,21.6496609445989,0 39.102999429006,21.6497451445989,0 39.1029987133786,21.64974765069,0 39.1029978798329,21.6497501200658,0 39.1029969302404,21.6497525471812,0 39.1029662302404,21.6498258471812,0 39.1029648903649,21.6498287990053,0 39.1029633789124,21.6498316667646,0 39.1029617011336,21.6498344404969,0 39.1029068011336,21.6499194404969,0 39.1029051184056,21.6499218972377,0 39.1029033051814,21.6499242593059,0 39.1029013667759,21.6499265197777,0 39.1028993088712,21.649928672027,0 39.1028971374996,21.6499307097449,0 39.1027955374996,21.6500210097449,0 39.102793660319,21.6500226043591,0 39.1027917136276,21.6500241133302,0 39.1027897013293,21.6500255336321,0 39.1027188013293,21.6500732336321,0 39.1027166785039,21.650074592224,0 39.1027144956669,21.6500758521375,0 39.1027122574019,21.6500770107269,0 39.1027099684091,21.6500780655594,0 39.1026229684091,21.6501157655594,0 39.1026205973778,21.6501167281271,0 39.1026181841398,21.6501175793666,0 39.1026157339192,21.650118317435,0 39.10261325202,21.6501189407346,0 39.10248215202,21.6501486407346,0 39.1024792209377,21.6501492215299,0 39.102476262639,21.6501496422854,0 39.1024732858555,21.6501499017591,0 39.1024702993735,21.6501499991852,0 39.1023416993735,21.6501506991852,0 39.1023389797198,21.6501506467219,0 39.1023362659861,21.6501504598567,0 39.1023335648105,21.6501501390467,0 39.1023308828001,21.6501496850767,0 39.1022189828001,21.6501278850767,0 39.1022160282081,21.6501272245799,0 39.1022131144362,21.6501264025076,0 39.1022102503132,21.6501254213505,0 39.1022074445176,21.6501242840818,0 39.1021062445176,21.6500799840818,0 39.1021035103452,21.6500786965683,0 39.1021008510203,21.6500772608174,0 39.1020277510203,21.6500351608174,0 39.1020253658052,21.6500337052034,0 39.1020230575974,21.6500321303255,0 39.1020208323548,21.6500304402488,0 39.1019652323548,21.6499859402488,0 39.1019631160664,21.6499841572908,0 39.101961092135,21.6499822701455,0 39.101959165684,21.6499802835901,0 39.101895265684,21.6499109835901,0 39.1018935241362,21.6499090015087,0 39.1018918796506,21.6499069381855,0 39.1018903360117,21.6499047983691,0 39.1018888967719,21.6499025869839,0 39.1018522967719,21.6498432869839,0 39.1018506932687,21.6498405110774,0 39.1018492542183,21.6498376464632,0 39.1018180542183,21.6497707464632,0 39.1018167582908,21.6497677367384,0 39.1018156439015,21.6497646551791,0 39.1017722439015,21.6496324551791,0 39.1017713361955,21.6496293929021,0 39.1017706077784,21.6496262830983,0 39.1017545077784,21.6495472830983,0 39.101753964594,21.6495441604433,0 39.1017432645939,21.6494700604432,0 39.101742831669,21.649466003453,0 39.101737431669,21.649388103453,0 39.1017373,21.6493843,0 39.1017373,21.6493189,0 39.1017373536301,21.6493164717432,0 39.1017416536301,21.6492191717432,0 39.1017418889454,21.6492159696795,0 39.101742310705,21.6492127868028,0 39.101757310705,21.6491203868028,0 39.1017577606159,21.649117960751,0 39.1017583188845,21.6491155573195,0 39.1017784188845,21.6490370573195,0 39.1017793225316,21.6490339190345,0 39.1017804108488,21.6490308399151,0 39.1018113108488,21.6489510399151,0 39.1018117456266,21.6489499516659,0 39.1018414456266,21.6488778516659,0 39.1018427227377,21.6488749862422,0 39.1018441611456,21.6488721982952,0 39.1018961611456,21.6487780982951,0 39.1018981840215,21.648774728071,0 39.1020715840215,21.648507928071,0 39.1020726679671,21.6485063228561,0 39.1022675212564,21.6482284433947,0 39.1023257256999,21.6481282554182,0 39.1023674419114,21.6480321058129,0 39.1024166214656,21.6479095934323,0 39.1024559902923,21.6477622498089,0 39.1024864484864,21.6475951676386,0 39.1025021501018,21.6474221572925,0 39.1025058919073,21.6472362486399,0 39.1025041319506,21.6471158871581,0 39.1024945784375,21.6469958833348,0 39.1024814862841,21.6468937840788,0 39.1024606300683,21.6467703928861,0 39.1024293616,21.646656486323,0 39.1023903511913,21.6465282531154,0 39.1023387692927,21.6463887013372,0 39.1022499778835,21.6462161978954,0 39.1020913091952,21.6459399968453,0 39.1020895953973,21.6459367699242,0 39.1020441953973,21.6458439699242,0 39.1020425471043,21.6458402597616,0 39.1020001471043,21.6457344597616,0 39.1019988428123,21.6457308441354,0 39.1019748428123,21.6456562441354,0 39.1019740374611,21.6456534976756,0 39.1019395374611,21.6455233976756,0 39.1019390657637,21.645521480669,0 39.1019204657637,21.645439580669,0 39.101920012579,21.6454373775191,0 39.1019196498543,21.6454351576821,0 39.1019090498543,21.6453607576821,0 39.1019088018751,21.645358754575,0 39.1018991018751,21.645266554575,0 39.1018988665402,21.6452635046255,0 39.1018988011373,21.6452604463096,0 39.1018999982182,21.6450743002256,0 39.1018988788713,21.6449632050492,0 39.1018771650707,21.6448885266053,0 39.1018434713161,21.6448269423907,0 39.101798252827,21.6447705741372,0 39.1017539893547,21.6447310251175,0 39.1016886786191,21.6446880961509,0 39.1016194661355,21.6446526501663,0 39.1014777364178,21.6446221706571,0 39.1014754058612,21.6446216160963,0 39.1014731016646,21.6446209605739,0 39.1013167016646,21.6445727605739,0 39.1013135303903,21.6445716763851,0 39.1013104310395,21.6445704010539,0 39.1013074151204,21.6445689393159,0 39.1011894151204,21.6445072393159,0 39.1011869359781,21.6445058604632,0 39.1011845312281,21.6445043556179,0 39.101182207268,21.6445027287833,0 39.1011799702801,21.6445009842873,0 39.1010753702801,21.6444149842873,0 39.1010732777764,21.6444131737626,0 39.1010712789797,21.6444112602886,0 39.101069378949,21.6444092487086,0 39.101000678949,21.6443327487086,0 39.1009984352303,21.6443300852264,0 39.1009963645762,21.6443272850832,0 39.1009584645762,21.6442724850832,0 39.1009567194107,21.6442697976263,0 39.1009551337156,21.6442670130978,0 39.1009222337156,21.6442051130978,0 39.1009209175597,21.6442024676963,0 39.1009197453689,21.6441997554307,0 39.1009187205263,21.644196984129,0 39.1008878205263,21.644105984129,0 39.1008868451913,21.644102797837,0 39.1008589451913,21.644000697837,0 39.1008581739965,21.6439975031564,0 39.1008575949867,21.643994268118,0 39.1008170949867,21.643721168118,0 39.1008166501258,21.6437171609482,0 39.1008016501258,21.6435145609482,0 39.1008015018149,21.6435109468095,0 39.1008004018149,21.6433755468095,0 39.1008004448111,21.6433728802678,0 39.1008037448111,21.6432911802678,0 39.1008037929568,21.643290203657,0 39.1008110929568,21.643164803657,0 39.1008113975568,21.6431613990004,0 39.1008319975568,21.6429909990004,0 39.1008323529663,21.6429885303067,0 39.1008588529663,21.6428300303067,0 39.100859681614,21.6428260051142,0 39.100907581614,21.6426306051142,0 39.1009085016098,21.6426273012491,0 39.1009671016098,21.6424397012491,0 39.1009678313125,21.6424375257437,0 39.1009686511234,21.6424353825685,0 39.1010152511233,21.6423207825685,0 39.1010160981461,21.6423188107023,0 39.1010674962529,21.6422053148827,0 39.1012748491759,21.6417472397987,0 39.1013529060153,21.6415687531405,0 39.1014674042174,21.6412860733232,0 39.1015280891754,21.6410937078981,0 39.1015574665645,21.6409787191737,0 39.1016032671364,21.6407120733551,0 39.1016167018464,21.6405413162444,0 39.1016168987984,21.6403108823413,0 39.1016025718207,21.6400308098252,0 39.1016025055287,21.640028779823,0 39.1016002055287,21.639866579823,0 39.1016003042021,21.6398624160125,0 39.1016138042021,21.6396434160125,0 39.1016140299964,21.6396407841289,0 39.1016334299964,21.6394644841289,0 39.101633759466,21.6394620084536,0 39.1016342009852,21.6394595502877,0 39.1016690009852,21.6392882502877,0 39.1016696147418,21.6392855735088,0 39.1017176147418,21.6390978735088,0 39.1017183384987,21.6390953046739,0 39.1017191860182,21.639092773973,0 39.1017837860182,21.638914373973,0 39.1017853887172,21.6389104315343,0 39.1018437887172,21.6387813315343,0 39.101844308338,21.6387802162437,0 39.101896008338,21.6386724162437,0 39.1018973392924,21.6386698200057,0 39.1019530392924,21.6385679200057,0 39.1019530753175,21.6385678542064,0 39.1019768753175,21.6385244542064,0 39.1019782627716,21.6385220681767,0 39.1019797681806,21.6385197547572,0 39.1020750890328,21.6383810155064,0 39.1022552054209,21.6381122846432,0 39.1023551277282,21.637949602034,0 39.102441810223,21.6377941474686,0 39.1025259311924,21.6376334724862,0 39.1025750793537,21.6375148423164,0 39.1026092427531,21.6374068859743,0 39.1026651604358,21.6372208559453,0 39.102728991166,21.6369358443125,0 39.1027561243154,21.6367873001506,0 39.1027753236301,21.6366355667908,0 39.1027862969317,21.636466024339,0 39.1027944748756,21.6363162595826,0 39.1027930127903,21.6362289243543,0 39.1027878255834,21.6360422846599,0 39.1027837759898,21.635921389475,0 39.1027761695496,21.6358294295635,0 39.1027527156517,21.6356330278051,0 39.1027213810312,21.6354688894009,0 39.1026788394597,21.6352859308943,0 39.1026450257924,21.6351513622994,0 39.1026038823236,21.6350315650872,0 39.1026031106335,21.6350291364109,0 39.1026024522699,21.6350266745962,0 39.1026019086462,21.6350241849281,0 39.1025845086462,21.6349345849281,0 39.1025840403444,21.6349317906379,0 39.1025837165607,21.6349289759392,0 39.1025835381545,21.6349261483014,0 39.1025835055991,21.6349233152281,0 39.1025848055991,21.6348322152281,0 39.1025849096481,21.6348295287941,0 39.1025851448489,21.6348268506539,0 39.1025855106394,21.6348241872066,0 39.1025860061457,21.6348215448161,0 39.1025866301838,21.634818929796,0 39.1026065301838,21.634743729796,0 39.1026073915155,21.6347408052228,0 39.1026084135774,21.63473793287,0 39.1026095932288,21.6347351215636,0 39.1026582932288,21.6346275215636,0 39.1026596855876,21.6346246675495,0 39.1026612403396,21.6346218986497,0 39.1026629523017,21.6346192240946,0 39.102664815767,21.6346166527999,0 39.102701915767,21.6345684527999,0 39.1027029264947,21.6345671790775,0 39.1027559264947,21.6345023790775,0 39.1027577632503,21.6345002470945,0 39.1027597066489,21.6344982118491,0 39.1027617516031,21.6344962786691,0 39.1027638927593,21.6344944526154,0 39.1028557927593,21.6344200526154,0 39.1028589319388,21.6344176916735,0 39.1030045660908,21.6343160956984,0 39.1030973559548,21.6342459209373,0 39.1031403753356,21.6342068626558,0 39.1031846520224,21.6341586277621,0 39.1032256327217,21.6341022103868,0 39.1032796288337,21.6340076698257,0 39.1033255137379,21.6339015726903,0 39.1033503004191,21.6337976408918,0 39.1033503572345,21.6337974049696,0 39.1033965572345,21.6336074049696,0 39.1033969329396,21.633605947073,0 39.1034163681712,21.6335345863994,0 39.103465450481,21.6333102951169,0 39.1034799410669,21.6332368761486,0 39.1034879998219,21.6331699335361,0 39.1034861732152,21.6331097468454,0 39.1034786920523,21.6330247078047,0 39.1034581155739,21.6329252394471,0 39.1034170885887,21.6328272202244,0 39.1032144181959,21.6324581060273,0 39.1027910494214,21.6317045395994,0 39.1027900810911,21.6317027384238,0 39.1027141810911,21.6315550384238,0 39.1027126780867,21.6315518688566,0 39.1026445780867,21.6313955688566,0 39.1026432217024,21.6313921474499,0 39.1025616217024,21.6311643474499,0 39.1025608179452,21.6311619284691,0 39.1025601271307,21.6311594748455,0 39.1025045271307,21.6309428748455,0 39.1025038858713,21.6309400750509,0 39.1025033916516,21.6309372455968,0 39.1024633916516,21.6306667455968,0 39.1024631172769,21.6306645991354,0 39.1024629275489,21.6306624435424,0 39.1024591275489,21.6306067435424,0 39.102452927211,21.6305157385856,0 39.1024528051764,21.6305127545698,0 39.1024511051764,21.6303888545698,0 39.1024511645596,21.6303854359067,0 39.1024598645596,21.6302060359067,0 39.1024601552045,21.6302024593013,0 39.1024843552045,21.6299905593013,0 39.1024847046636,21.6299880240989,0 39.1024851716765,21.6299855078969,0 39.1025280716765,21.6297810078969,0 39.1025290459194,21.6297770866451,0 39.1026118477418,21.6294894174086,0 39.1026931638615,21.629116677056,0 39.1026941734752,21.6291127502849,0 39.1027927734752,21.6287805502849,0 39.1027938748978,21.6287772303184,0 39.1029094748978,21.6284626303184,0 39.1029102341576,21.6284606795298,0 39.1030166341576,21.6282019795298,0 39.1030176454636,21.6281996723183,0 39.1030873454636,21.6280500723183,0 39.10308829037,21.6280481435278,0 39.10321019037,21.6278111435278,0 39.1032112846811,21.6278091210509,0 39.1032124625769,21.6278071460848,0 39.1033443625769,21.6275961460848,0 39.103345607447,21.6275942433399,0 39.103578707447,21.6272535433399,0 39.1035812768836,21.6272500865142,0 39.1038898768836,21.6268671865142,0 39.1038915415577,21.6268652173654,0 39.1038932966944,21.6268633284023,0 39.1040866966944,21.6266647284023,0 39.1040882845293,21.6266631626719,0 39.1040899345282,21.6266616625936,0 39.1044043345282,21.6263872625936,0 39.1044063960196,21.6263855500461,0 39.1045370960196,21.6262822500461,0 39.1045388716175,21.626280904206,0 39.1047147716175,21.626153104206,0 39.104716345442,21.6261520022242,0 39.104963945442,21.6259850022242,0 39.1049654779242,21.6259840052548,0 39.1053018029985,21.6257730776755,0 39.1055250137628,21.6256293926059,0 39.1058396987116,21.6254226339018,0 39.1058409176284,21.6254218557796,0 39.1059388176284,21.6253611557796,0 39.1059415841323,21.6253595499402,0 39.105944439313,21.6253581076482,0 39.1059473735128,21.625356833782,0 39.1060123735128,21.625330833782,0 39.1060148680046,21.6253299053509,0 39.1060174044926,21.6253290986899,0 39.1060199770365,21.6253284156882,0 39.1060225796114,21.6253278579455,0 39.1060997796114,21.6253132579455,0 39.106102225796,21.6253128522108,0 39.106104687782,21.6253125571435,0 39.106165487782,21.6253066571435,0 39.1061682020548,21.6253064613917,0 39.1061709226878,21.6253064001368,0 39.1061736430203,21.6253064735288,0 39.1061763563928,21.625306681388,0 39.1061790561625,21.6253070232055,0 39.1062363561625,21.6253157232055,0 39.1062387207868,21.625316135207,0 39.1062410651834,21.6253166499858,0 39.1063049651834,21.6253321499858,0 39.1063079957087,21.6253329774069,0 39.1063109740499,21.6253339765031,0 39.1063138904904,21.6253351440149,0 39.1063167355158,21.6253364761335,0 39.1063733355158,21.6253649761335,0 39.1063759772052,21.6253663979179,0 39.1063785374418,21.6253679616258,0 39.1063810086084,21.6253696626047,0 39.1063833833528,21.625371495794,0 39.1064819833528,21.625451995794,0 39.1064841884603,21.6254538955309,0 39.1064862899819,21.6254559092606,0 39.1064882820321,21.6254580313435,0 39.1064901590323,21.6254602558368,0 39.1064919157258,21.6254625765108,0 39.1065411157258,21.6255312765108,0 39.1065427490037,21.6255336897001,0 39.1065442521813,21.6255361860047,0 39.1065456210394,21.6255387584173,0 39.1065812210394,21.6256101584173,0 39.1065825411211,21.6256130067965,0 39.1065836965327,21.6256159258552,0 39.1065846835096,21.6256189060828,0 39.1065854988361,21.6256219377692,0 39.1065861398558,21.6256250110367,0 39.1065992398558,21.6256982110367,0 39.1065996589305,21.6257009485177,0 39.1065999396793,21.6257037036231,0 39.1066000813904,21.6257064693677,0 39.1066000837046,21.6257092387395,0 39.1065999466161,21.6257120047172,0 39.1065996704723,21.6257147602879,0 39.1065908704723,21.6257847602879,0 39.1065904234966,21.6257876799341,0 39.1065898204284,21.6257905713749,0 39.1065890630069,21.6257934262714,0 39.1064947380327,21.6261139713107,0 39.1064086359469,21.6264173691808,0 39.106346743072,21.6266779550732,0 39.1062847357924,21.6269653981283,0 39.1061821844423,21.6275203936528,0 39.1061817362125,21.6275225719639,0 39.1060838362125,21.6279539719639,0 39.1060831633635,21.627956628423,0 39.1060823590339,21.627959248071,0 39.1060814252206,21.6279618244044,0 39.1060786424564,21.6279689431035,0 39.105966857561,21.6284655775057,0 39.1059665922165,21.6284667011823,0 39.1058902388599,21.6287755125329,0 39.1058334841693,21.6290122235577,0 39.1058332494777,21.6290131656501,0 39.1057550494777,21.6293156656501,0 39.1057541668496,21.6293187140733,0 39.1056746668496,21.6295663140733,0 39.1056741594684,21.629567819267,0 39.1055523594684,21.629912619267,0 39.1055523008722,21.6299127843078,0 39.1054698008722,21.6301439843078,0</coordinates></LineString>
  </Placemark>
</Folder>
</Document></kml>
