<?xml version="1.0" encoding="utf-8" ?>
<kml xmlns="http://www.opengis.net/kml/2.2">
<Document id="root_doc">
<Schema name="jeddah_bound" id="jeddah_bound">
	<SimpleField name="fixme" type="string"></SimpleField>
	<SimpleField name="highway" type="string"></SimpleField>
	<SimpleField name="layer" type="string"></SimpleField>
	<SimpleField name="name_en" type="string"></SimpleField>
	<SimpleField name="oneway" type="string"></SimpleField>
	<SimpleField name="sport" type="string"></SimpleField>
	<SimpleField name="surface" type="string"></SimpleField>
	<SimpleField name="wikidata" type="string"></SimpleField>
	<SimpleField name="wikipedia" type="string"></SimpleField>
</Schema>
<Folder><name>jeddah_bound</name>
  <Placemark id="jeddah_bound.1">
	<name>Jeddah Corniche Circuit</name>
	<Style><LineStyle><color>ff0000ff</color></LineStyle><PolyStyle><fill>0</fill></PolyStyle></Style>
	<ExtendedData><SchemaData schemaUrl="#jeddah_bound">
		<SimpleData name="highway">raceway</SimpleData>
		<SimpleData name="name_en">Jeddah Corniche Circuit</SimpleData>
		<SimpleData name="oneway">yes</SimpleData>
		<SimpleData name="sport">motor</SimpleData>
		<SimpleData name="surface">asphalt</SimpleData>
		<SimpleData name="wikidata">Q102141307</SimpleData>
		<SimpleData name="wikipedia">en:Jeddah Corniche Circuit</SimpleData>
	</SchemaData></ExtendedData>
      <LineString><coordinates>39.1052595551097,21.6304055789929,0 39.1046797120422,21.6319493611737,0 39.1046795334111,21.6319498436061,0 39.1041368625816,21.6334367636788,0 39.1037635919983,21.6344497838446,0 39.1037632843341,21.6344506406048,0 39.103690343184,21.6346591711385,0 39.1036638367608,21.6347185243916,0 39.1036393478495,21.6347503531167,0 39.1036082996486,21.6347669081144,0 39.1035723074081,21.6347703822689,0 39.1035346941052,21.6347672907646,0 39.103503371709,21.6347543110123,0 39.1033619704316,21.6346889725007,0 39.1033596366934,21.6346879589601,0 39.103357258578,21.634687054435,0 39.1033548411747,21.6346862608611,0 39.1033523896568,21.6346855799366,0 39.1032855896568,21.6346686799366,0 39.103282853181,21.6346680614322,0 39.1032800887262,21.6346675832723,0 39.1032773034852,21.6346672467011,0 39.1032745047052,21.6346670525943,0 39.1032716996682,21.634667001457,0 39.1032688956729,21.6346670934222,0 39.1032054956729,21.6346707934222,0 39.103202778059,21.634671019742,0 39.1032000750036,21.6346713804875,0 39.1031973931518,21.6346718747719,0 39.1031947390968,21.6346725013799,0 39.1031921193631,21.6346732587712,0 39.1031895403912,21.6346741450837,0 39.1031870085213,21.6346751581386,0 39.1031164085213,21.6347054581386,0 39.1031136254063,21.6347067456168,0 39.1031109183716,21.6347081862041,0 39.103108295832,21.6347097754225,0 39.103067195832,21.6347362754225,0 39.1030647193102,21.6347379695939,0 39.1030623388662,21.6347397963023,0 39.1030600615849,21.6347417501106,0 39.1030578942442,21.6347438252038,0 39.1030558432949,21.6347460154056,0 39.1030539148413,21.6347483141974,0 39.1029982148413,21.6348185141974,0 39.1029965331417,21.6348207480298,0 39.1029949671422,21.6348230644421,0 39.1029935208901,21.6348254574476,0 39.1029921981233,21.6348279208616,0 39.1029910022603,21.6348304483173,0 39.102989936392,21.6348330332825,0 39.102971136392,21.6348821332825,0 39.1029702092201,21.634884750826,0 39.1029694153452,21.6348874118305,0 39.1029687567911,21.6348901095125,0 39.1029682352366,21.6348928369954,0 39.1029678520111,21.6348955873263,0 39.1029676080917,21.6348983534943,0 39.1029635080917,21.6349636534943,0 39.1029634038162,21.6349664521045,0 39.1029634421325,21.6349692523947,0 39.1029636229413,21.6349720471041,0 39.1029639457737,21.634974828987,0 39.1029815457737,21.635098828987,0 39.1029819356721,21.6351012019031,0 39.1029824289227,21.6351035555079,0 39.1030226289227,21.6352764555078,0 39.1030233928243,21.6352793753764,0 39.1030243157442,21.6352822489451,0 39.1030804157442,21.6354417489451,0 39.1030817571815,21.6354451892483,0 39.1031688958364,21.6356482499149,0 39.1032069650111,21.6357762046409,0 39.1032216907093,21.6358451829115,0 39.1032389907812,21.6359277206845,0 39.1032499408382,21.6360325555784,0 39.103252467498,21.6362097132983,0 39.1032427620055,21.6363266596783,0 39.1032165961983,21.6364897533183,0 39.1031180186391,21.6370240896321,0 39.1029623245864,21.6378624576075,0 39.102962228997,21.6378629867233,0 39.102875228997,21.6383583867233,0 39.1028748041671,21.6383612445487,0 39.1028745299973,21.6383641207401,0 39.1028558299973,21.6386356207401,0 39.1028557195926,21.6386379320765,0 39.1028536810585,21.6387142844447,0 39.1028449585674,21.638749052416,0 39.1028327270089,21.6387599924435,0 39.1025433645038,21.6388731791167,0 39.1025407749215,21.6388742691131,0 39.1024195749215,21.6389289691131,0 39.1024170544333,21.6389301847623,0 39.1024145990382,21.638931527036,0 39.1024122150922,21.6389329924593,0 39.1024099087667,21.6389345772389,0 39.1023098087667,21.6390071772389,0 39.1023071185756,21.6390092582758,0 39.1023045621563,21.6390115016133,0 39.1022214621563,21.6390891016133,0 39.1022194687036,21.6390910602745,0 39.1021365687036,21.6391767602745,0 39.10213482687,21.6391786471633,0 39.1021331750095,21.6391806132992,0 39.1021316167232,21.6391826543962,0 39.1021301554079,21.6391847660049,0 39.1020537554079,21.6393008660049,0 39.1020523511449,21.6393031163277,0 39.1020510570114,21.6393054317382,0 39.1020498760177,21.6393078068511,0 39.1020488109105,21.639310236142,0 39.1019864109105,21.639462436142,0 39.1019855161678,21.6394647680081,0 39.1019847282139,21.6394671380909,0 39.1019840486737,21.6394695415028,0 39.1019539486737,21.6395860415028,0 39.1019533595627,21.6395885657971,0 39.1019528900419,21.6395911150446,0 39.101952541154,21.6395936835832,0 39.101935241154,21.6397482835832,0 39.1019349953115,21.639751163462,0 39.1019349010992,21.6397540522791,0 39.1019349587773,21.6397569420566,0 39.1019411587773,21.6398909420566,0 39.1019413450576,21.6398935861623,0 39.101941658514,21.6398962182225,0 39.1019420984186,21.6398988321237,0 39.1019675984186,21.6400308321237,0 39.1019682078934,21.6400336016271,0 39.101968959305,21.6400363360355,0 39.101996659305,21.6401278360355,0 39.1019977772658,21.6401311459831,0 39.1019991031161,21.6401343782749,0 39.1020480031161,21.6402435782749,0 39.1020491411285,21.6402459641736,0 39.1020503924643,21.6402482926375,0 39.1020517542329,21.6402505582878,0 39.1021254542329,21.6403667582877,0 39.102126801671,21.6403687823875,0 39.1021282372569,21.6403707449527,0 39.1021297581846,21.6403726421475,0 39.1022576778916,21.6405251730225,0 39.1023050281583,21.6406126881069,0 39.1023529974143,21.6407296542379,0 39.1023806773132,21.6408686186282,0 39.1023885606156,21.6409814249315,0 39.1023818109849,21.6410743691702,0 39.102361041902,21.6411537201059,0 39.1022437074189,21.641544304724,0 39.1022181280155,21.6416165943424,0 39.1021760168448,21.6416915856338,0 39.1021085773619,21.6417613882253,0 39.1020275881763,21.6418305528021,0 39.1018398964573,21.6419453840471,0 39.1018371784238,21.6419471592806,0 39.1018345698638,21.6419490917852,0 39.1017314698638,21.6420302917852,0 39.1017292912305,21.6420321004226,0 39.1017272085667,21.6420340187875,0 39.1017252273925,21.6420360417955,0 39.1017233529588,21.6420381640846,0 39.1016543529588,21.6421204640846,0 39.1016527228459,21.6421225049436,0 39.101651191465,21.642124620894,0 39.1016497622697,21.6421268071635,0 39.1016484384835,21.6421290588215,0 39.1016472230918,21.6421313707897,0 39.1016005230918,21.6422255707897,0 39.1015993965963,21.6422279887098,0 39.1015983886585,21.6422304584043,0 39.1015975016491,21.6422329740641,0 39.1015967376546,21.6422355297718,0 39.1015960984721,21.6422381195161,0 39.1015687984721,21.6423615195161,0 39.1015682564225,21.6423643096591,0 39.1015678592385,21.6423671240793,0 39.1015676079808,21.6423699552602,0 39.1015675033206,21.6423727956409,0 39.1015662033206,21.6424910956409,0 39.1015662143501,21.6424929563073,0 39.1015761028725,21.6429257539583,0 39.1015771005749,21.6431439514834,0 39.10157711577,21.6431450169875,0 39.10157911577,21.6432285169875,0 39.1015792265355,21.6432309286592,0 39.1015794430287,21.6432333331467,0 39.1015797648324,21.6432357258171,0 39.1015923648324,21.6433160258171,0 39.101592898248,21.6433189180333,0 39.1015935855002,21.6433217776018,0 39.1015944246238,21.6433245963459,0 39.1015954132195,21.6433273662062,0 39.1016389132195,21.6434396662062,0 39.1016402216469,21.643442760057,0 39.1016417165042,21.643445768262,0 39.1016433922152,21.6434486795998,0 39.1017116922152,21.6435593795998,0 39.1017132602515,21.6435617788292,0 39.101714951146,21.6435640931141,0 39.1017167603068,21.6435663161697,0 39.1017186828208,21.6435684419588,0 39.1017793828208,21.6436321419588,0 39.1017812476861,21.6436340073093,0 39.1017831998388,21.6436357811062,0 39.1018509998388,21.6436944811062,0 39.10185341916,21.6436964583193,0 39.1018559468556,21.6436982949581,0 39.1019287468556,21.6437480949581,0 39.1019312660354,21.6437497192818,0 39.1019338699653,21.6437512039514,0 39.1019365509112,21.6437525445571,0 39.1019393009103,21.6437537371171,0 39.1020120009103,21.6437829371171,0 39.1020157553207,21.6437842890801,0 39.1022566924238,21.6438612977716,0 39.1023240513568,21.643889134397,0 39.1023821214505,21.6439170871001,0 39.1024325449814,21.643947196115,0 39.1024856699266,21.6439890796042,0 39.1025210216041,21.644024864513,0 39.1025498524468,21.6440650999613,0 39.1025855344352,21.6441165077744,0 39.1026084740638,21.6441674077804,0 39.1026333895434,21.6442501885587,0 39.1026420015632,21.6443505043941,0 39.1026422910038,21.6443531327578,0 39.1026648910038,21.6445211327578,0 39.1026651952663,21.6445231191654,0 39.1026918952663,21.6446784191654,0 39.1026924870513,21.6446813740267,0 39.1027299870513,21.6448451740267,0 39.1027305576272,21.6448474432694,0 39.1027312242057,21.6448496861899,0 39.1027778242057,21.6449950861899,0 39.1027786271691,21.6449974113346,0 39.102779533296,21.6449996982501,0 39.102838533296,21.6451393982501,0 39.1028393492442,21.6451412357945,0 39.1029108884395,21.6452947180847,0 39.1029609676934,21.6454203538053,0 39.1029943623613,21.6455295842032,0 39.1030376036429,21.6457256761271,0 39.1030580091164,21.6459669119891,0 39.1030757040172,21.6463428789259,0 39.1030766968599,21.6466625742874,0 39.1030656644459,21.6469625366786,0 39.1030422117408,21.6473298958596,0 39.1030421749604,21.6473305294564,0 39.1030130749604,21.6478873294564,0 39.1030130658026,21.6478875103981,0 39.1029911891682,21.6483343331633,0 39.1029540208216,21.6488941564065,0 39.1029539375882,21.6488957669516,0 39.1029423713102,21.6492084552943,0 39.1029188352485,21.6495434452571,0 39.1029187863821,21.6495442186747,0 39.1029134930618,21.6496385532045,0 39.1028939568205,21.6497136651456,0 39.1028666533988,21.6497788554002,0 39.1028184632308,21.6498534667713,0 39.1027252284,21.6499363319802,0 39.1026615930684,21.649979144467,0 39.1025839416137,21.6500127934308,0 39.1024637001996,21.6500400334765,0 39.1023465592378,21.6500406711023,0 39.1022459853909,21.6500210776272,0 39.1021531271351,21.649980429201,0 39.1020862885533,21.6499419352982,0 39.1020372148639,21.6499026586943,0 39.1019797228583,21.6498403082094,0 39.1019475890977,21.6497882444934,0 39.1019191326397,21.6497272272804,0 39.1018777536004,21.6496011832945,0 39.1018626088207,21.6495268704002,0 39.1018524271595,21.6494563600176,0 39.1018473,21.6493823959944,0 39.1018473,21.6493201147205,0 39.1018514044357,21.6492272399304,0 39.1018654936175,21.6491404505705,0 39.1018841699665,21.6490675106005,0 39.1019136775595,21.6489913065254,0 39.1019419580421,21.6489226525593,0 39.1019914876701,21.6488330229825,0 39.1021632881405,21.6485686840811,0 39.1023589320329,21.6482896771439,0 39.1023602366225,21.6482877296712,0 39.1023614570463,21.6482857283793,0 39.1024224570463,21.6481807283793,0 39.1024239902692,21.6481779021264,0 39.1024253557172,21.6481749911078,0 39.1024686557172,21.6480751911078,0 39.1024692410958,21.648073789181,0 39.1025199410958,21.647947489181,0 39.1025210834509,21.6479443749088,0 39.1025220359847,21.647941197434,0 39.1025628359847,21.647788497434,0 39.1025633659075,21.6477863403642,0 39.1025638083014,21.6477841636566,0 39.1025951083014,21.6476124636566,0 39.1025954965257,21.6476100248696,0 39.102595774885,21.6476075711141,0 39.102611874885,21.6474301711141,0 39.1026120888631,21.6474263067674,0 39.1026158888631,21.6472375067674,0 39.1026158941212,21.6472355958618,0 39.1026140941212,21.6471124958618,0 39.1026139265356,21.6471089352555,0 39.1026041265356,21.6469858352555,0 39.1026038533227,21.6469832046457,0 39.1025904533227,21.6468787046457,0 39.1025901307821,21.6468765336335,0 39.1025686307821,21.6467493336335,0 39.1025681021031,21.6467466221163,0 39.1025674379381,21.646743940566,0 39.1025352379381,21.646626640566,0 39.1025348190163,21.6466251925291,0 39.1024951190163,21.6464946925291,0 39.1024940886858,21.6464916315052,0 39.1024407886858,21.6463474315052,0 39.1024395379744,21.6463443394871,0 39.1024381021382,21.6463413289674,0 39.1023472021382,21.6461647289674,0 39.1023459908048,21.6461625031547,0 39.1021876013264,21.6458867881366,0 39.1021438972623,21.6457974547192,0 39.10210296825,21.6456953252499,0 39.1020799956056,21.6456239186137,0 39.1020461155927,21.6454961565941,0 39.1020282326889,21.6454174141303,0 39.102018092516,21.645346241596,0 39.1020088185573,21.6452580911848,0 39.1020099988627,21.6450745536904,0 39.1020099972085,21.645073645872,0 39.1020087972085,21.644954545872,0 39.1020086850912,21.644951546585,0 39.1020084095291,21.6449485578799,0 39.1020079713425,21.644945588657,0 39.1020073718366,21.6449426477583,0 39.1020066127965,21.6449397439417,0 39.1019811127965,21.6448520439417,0 39.1019801994168,21.6448491942168,0 39.1019791323942,21.6448463983883,0 39.1019779148878,21.6448436647327,0 39.1019765505016,21.644841001343,0 39.1019376505016,21.644769901343,0 39.1019360249813,21.6447671261912,0 39.1019342400299,21.6447644507973,0 39.1019323017511,21.6447618843095,0 39.1018812017511,21.6446981843095,0 39.1018792387348,21.6446958709925,0 39.1018771511446,21.6446936694392,0 39.1018749453331,21.6446915863491,0 39.1018242453331,21.6446462863491,0 39.101822182291,21.6446445324288,0 39.101820035424,21.644642882174,0 39.1018178099359,21.6446413395847,0 39.1017466099359,21.6445945395847,0 39.101744080834,21.644592973466,0 39.1017414707568,21.6445915463775,0 39.1016631707568,21.6445514463775,0 39.1016605775787,21.6445502028043,0 39.1016579229418,21.6445490964818,0 39.1016552141043,21.6445481304349,0 39.1016524584729,21.6445473073051,0 39.1016496635822,21.6445466293429,0 39.1015032073313,21.6445151333749,0 39.1013539167621,21.6444691243888,0 39.1012454311071,21.6444123992624,0 39.101148442238,21.64433265698,0 39.1010848514757,21.6442618463058,0 39.1010507604601,21.6442125537555,0 39.1010214511598,21.6441574095097,0 39.1009925154245,21.6440721942373,0 39.1009659222679,21.6439748766286,0 39.1009262009297,21.6437070273087,0 39.1009114834845,21.6435082436813,0 39.1009104090209,21.6433759869828,0 39.1009136354568,21.6432961082518,0 39.1009208076687,21.6431729034063,0 39.1009410527333,21.6430054393769,0 39.100967007953,21.6428501977795,0 39.1010140099169,21.642658461167,0 39.1010714137808,21.6424746904355,0 39.1011167446044,21.6423632116289,0 39.1011677018539,21.6422506892977,0 39.1013752056569,21.6417922808983,0 39.1013754918744,21.6417916376721,0 39.1014539918744,21.6416121376721,0 39.1014545770445,21.641610748025,0 39.1015701770445,21.641325348025,0 39.1015709551115,21.6413233120508,0 39.1015716519002,21.6413212468475,0 39.1016334519002,21.6411253468475,0 39.1016342884112,21.6411224141556,0 39.1016645884112,21.6410038141556,0 39.101665090348,21.6410016716372,0 39.1016655061789,21.6409995107554,0 39.1017121061789,21.6407282107554,0 39.101712475586,21.6407257194877,0 39.101712730558,21.6407232139208,0 39.101726530558,21.6405478139208,0 39.1017266999799,21.6405435470085,0 39.1017268999799,21.6403095470085,0 39.1017268281793,21.6403066901748,0 39.1017124800699,21.640026204564,0 39.1017102240193,21.6398671039516,0 39.101723514511,21.6396515026412,0 39.1017424966167,21.6394790003102,0 39.1017765255609,21.6393114957656,0 39.1018235234555,21.6391277144155,0 39.1018864889533,21.6389538282728,0 39.1019437577103,21.6388272290173,0 39.1019945606268,21.6387212995318,0 39.102049542716,21.638620712909,0 39.1020719962803,21.6385797681741,0 39.1021659318194,21.6384430452428,0 39.1021662871036,21.6384425217008,0 39.1023471871036,21.6381726217008,0 39.1023483656304,21.6381707856333,0 39.1024494656304,21.6380061856333,0 39.1024506367639,21.6380041856176,0 39.1025382367639,21.6378470856176,0 39.1025389259832,21.6378458103618,0 39.1026245259832,21.6376823103618,0 39.1026256188419,21.637680104141,0 39.1026266118695,21.6376778512213,0 39.1026776118695,21.6375547512213,0 39.1026784725195,21.6375525401362,0 39.1026792370053,21.637550293989,0 39.1027142370053,21.637439693989,0 39.1027144719694,21.6374389323604,0 39.1027710719694,21.6372506323604,0 39.1027720704831,21.6372468199519,0 39.1028365704831,21.6369588199519,0 39.1028370048062,21.6369566828104,0 39.1028646048062,21.6368055828104,0 39.1028650649242,21.6368026042771,0 39.1028846649242,21.636647704277,0 39.1028849851612,21.636644352334,0 39.1028960851612,21.6364728523341,0 39.1028961181852,21.636472298822,0 39.1029044181852,21.636320298822,0 39.1029044922944,21.6363163793701,0 39.1029029922944,21.6362267793701,0 39.1029029787705,21.6362261719957,0 39.1028977787705,21.6360390719957,0 39.1028977691701,21.6360387587124,0 39.1028936691701,21.6359163587124,0 39.1028935128124,21.6359136661725,0 39.1028857128124,21.6358193661725,0 39.1028855119773,21.6358173783489,0 39.1028617119773,21.6356180783489,0 39.1028611243718,21.6356142865502,0 39.1028292243718,21.6354471865502,0 39.1028287708884,21.6354450436796,0 39.1027858708884,21.6352605436796,0 39.1027856418019,21.6352595965611,0 39.1027511418019,21.6351222965611,0 39.1027505269522,21.635120051725,0 39.1027498176764,21.6351178349128,0 39.1027091614118,21.6349994562904,0 39.1026935755505,21.6349191980618,0 39.1026946980101,21.6348405395416,0 39.1027116970472,21.6347763019746,0 39.1027558759256,21.6346786911466,0 39.1027885882842,21.6346361915325,0 39.1028374973968,21.6345763932213,0 39.1029234798304,21.6345067839387,0 39.1030683680612,21.6344057083265,0 39.1030700759395,21.6344044674941,0 39.1031656759396,21.6343321674941,0 39.1031676087287,21.6343306364756,0 39.1031694709558,21.6343290203687,0 39.1032161709558,21.6342866203687,0 39.103217984498,21.6342848969577,0 39.1032197177906,21.6342830928574,0 39.1032678177906,21.6342306928574,0 39.1032698781997,21.6342283151822,0 39.1032717992813,21.6342258235822,0 39.1033163992813,21.6341644235822,0 39.1033180982233,21.6341619450023,0 39.1033196592616,21.6341593773337,0 39.1033766592615,21.6340595773338,0 39.1033780956555,21.6340568924272,0 39.1033793812595,21.6340541321423,0 39.1034283812595,21.6339408321423,0 39.1034295623854,21.6339378679074,0 39.1034305696226,21.6339348401657,0 39.1034313995809,21.6339317591082,0 39.1034572714332,21.6338232771328,0 39.1035032648907,21.63363412655,0 39.1035228670604,21.633562152927,0 39.103523528571,21.6335594575785,0 39.103573028571,21.6333332575785,0 39.1035732590716,21.6333321498168,0 39.1035882590716,21.6332561498168,0 39.1035889057479,21.6332520736058,0 39.1035977057479,21.6331789736058,0 39.1035979662352,21.6331762335666,0 39.1035980893181,21.6331734839268,0 39.1035980746883,21.6331707315724,0 39.1035960746883,21.6331048315724,0 39.1035958883968,21.6331016800854,0 39.1035879883968,21.6330118800854,0 39.1035876159115,21.6330087057164,0 39.1035870596649,21.6330055583439,0 39.1035647596649,21.6328977583439,0 39.1035641616081,21.6328951813594,0 39.1035634403274,21.6328926361138,0 39.1035625974915,21.6328901284957,0 39.1035616350503,21.6328876643066,0 39.1035174350503,21.6327820643066,0 39.1035162421068,21.6327794131908,0 39.1035149107479,21.6327768288122,0 39.1033107107479,21.6324049288122,0 39.1033104505786,21.6324044604006,0 39.1028874514891,21.6316515519859,0 39.1028128209752,21.6315063223825,0 39.1027461573755,21.6313533191425,0 39.1026660385868,21.6311296541908,0 39.1026117877489,21.6309183100992,0 39.1025725250792,21.6306527962952,0 39.1025688726195,21.630599258926,0 39.1025627743294,21.6305097517651,0 39.1025611182896,21.6303890556851,0 39.1025696484866,21.6302131571392,0 39.1025933541771,21.6300055854118,0 39.1026353132674,21.6298055706337,0 39.1027180540806,21.6295181133549,0 39.1027189361385,21.629514622944,0 39.1028002037492,21.6291421049488,0 39.1028977286262,21.6288135272194,0 39.1030123640378,21.6285015523015,0 39.1031178866152,21.628244985659,0 39.1031866009171,21.6280975013037,0 39.1033069571479,21.6278635027253,0 39.1034370346579,21.6276554181567,0 39.1036682755644,21.627317435416,0 39.1039739037234,21.6269382227715,0 39.1041639465783,21.6267430701812,0 39.1044756555944,21.6264710188006,0 39.104604429814,21.6263692408597,0 39.1047786510953,21.6262426605314,0 39.1050246966031,21.6260767089974,0 39.1053605220758,21.6258660947452,0 39.1053610698735,21.6258657466716,0 39.1055847698735,21.6257217466716,0 39.1055852012884,21.6257214660982,0 39.1058994969451,21.6255149631722,0 39.1059926934609,21.6254571794285,0 39.106048267916,21.6254349496465,0 39.1061177821127,21.6254218031792,0 39.1061693052689,21.6254168033993,0 39.1062174690898,21.6254241162307,0 39.1062729014381,21.625437562262,0 39.1063184834859,21.6254605143532,0 39.1064067463546,21.6255325748089,0 39.1064491336567,21.6255917619563,0 39.1064792524162,21.6256521686818,0 39.1064894851685,21.6257093471146,0 39.1064822834195,21.625766633754,0 39.1063891369931,21.6260831737286,0 39.1063889894089,21.6260836843631,0 39.1063024894089,21.6263884843631,0 39.1063018886617,21.6263907902921,0 39.1062395886617,21.6266530902921,0 39.1062393367188,21.6266542021731,0 39.1061770367188,21.6269430021731,0 39.1061767155577,21.6269446063472,0 39.1060742176478,21.6274993126597,0 39.1059774752724,21.6279256115435,0 39.1059746747794,21.6279327755956,0 39.1059737307346,21.6279353825448,0 39.105972919267,21.6279380337569,0 39.105972242439,21.6279407224943,0 39.1058596692137,21.6284408592634,0 39.1057834077835,21.6287492988177,0 39.1057833158307,21.6287496764423,0 39.1057266290188,21.6289861043603,0 39.1056489478427,21.6292865974006,0 39.1055701759723,21.6295319296661,0 39.1054486696985,21.6298758981654,0 39.1053662020504,21.6301070075017,0</coordinates></LineString>
  </Placemark>
</Folder>
</Document></kml>
